id,name,address,lat,lng,source,able,tel
72830,三菱化工機株式会社川崎製作所  工場内 ,川崎市川崎区大川町２－１,35.49484634399414,139.71014404296875,インターネット,,
80239,化工機プラント環境エンジ株式会社	,川崎市川崎区大川町2-1,35.493953704833984,139.7107696533203,インターネット,,
189123,（株）日本アクセス 川崎物流センター	２階共用部,川崎市川崎区田辺新田1	,35.50233840942383,139.70556640625,インターネット,,
189124,（株）日本アクセス 川崎白石物流センター	２階食堂,川崎市川崎区田辺新田1-4,35.50279235839844,139.7049560546875,インターネット,,
72831,富士電機株式会社川崎工場  事務室,川崎市川崎区田辺新田１－１,35.50239944458008,139.7066650390625,インターネット,,
19501,株式会社ネオス　川崎工場（1F事務所）,川崎市川崎区白石町5-3,35.50101089477539,139.7091064453125,インターネット,,
539329,大川町産業会館,川崎区大川町9-2,35.49552769,139.7127823,神奈川県川崎市オープンデータ(2025年5月1日時点),平日 9時00分 17時00分,
80207,日本通運株式会社 川崎支店	,川崎市川崎区田辺新田1-3,35.50431442260742,139.7043914794922,インターネット,,
174189,昭和電工（株）大川工場 事務所内,川崎市川崎区大川町5-1,35.4974479675293,139.7126922607422,インターネット,,
541313,セブン-イレブン 川崎浅田４丁目店,川崎市川崎区浅田４丁目１６−１３,35.50476506184229,139.70252299207078,市ホームページ,,
80237,㈱東和企業 川崎事業所,川崎市川崎区大川町13-2,35.49323272705078,139.71397399902344,インターネット,,
144868,三井埠頭株式会社 本社,川崎市川崎区扇町9番1号,35.49903869628906,139.72207641601562,インターネット,,
95622,川崎発電所	,川崎市川崎区扇町8番3号,35.4991569519043,139.7187042236328,インターネット,24時間,
135927,シンヨー㈱本社,川崎市川崎区大川町8-6,35.4964599609375,139.71487426757812,インターネット,,
20879,川崎天然ガス発電 株式会社,川崎市川崎区扇町12-1,35.5,139.7235870361328,インターネット,,
174191,昭和電工（株）川崎事業所	健康管理センター,川崎市川崎区扇町5-1,35.50102615356445,139.72154235839844,インターネット,,
174425,昭和電工 株式会社 川崎製造所	,川崎市川崎区扇町5-1,35.502342224121094,139.72003173828125,インターネット,,
240150,ファーマインド 川崎センター,川崎市川崎区扇町１３−１,35.499229431152344,139.72894287109375,インターネット,,
174236,三協興産株式会社 本社 管理棟,川崎市川崎区扇町12-3,35.50224685668945,139.72491455078125,インターネット,,
80233,ペットリファインテクノロジー（株）	,川崎市川崎区扇町12-2,35.50351333618164,139.7244110107422,インターネット,,
240149,東洋埠頭株式会社 川崎支店,川崎市川崎区扇町13-1,35.49946594238281,139.73065185546875,インターネット,,
210038,株式会社　ＪＦＥサンソセンター,川崎市川崎区扇島１番地,35.4843864440918,139.7198486328125,インターネット,,
26800,ＪＦＥメカニカル株式会社　設備管理事務所１Ｆ　（設備管理事務所１Ｆエントランス）,川崎市川崎区扇島1の1,35.484352111816406,139.71966552734375,インターネット,,
80226,名正運輸株式会社 川崎西営業所,川崎市川崎区扇町19JFE東日本製鉄所扇町地区5棟倉庫内,35.50865936279297,139.72889709472656,インターネット,,
135920,ＪＦＥアーバンリサイクル株式会社,川崎市川崎区水江町六 番地１号,35.506385803222656,139.7340545654297,インターネット,,
17213,研究Ｃ棟（1Ｆエントランス）,川崎市川崎区南渡田町1-1,35.51084899902344,139.71800231933594,インターネット,,
374053,Ｈｏｎｄａ　Ｃａｒｓ　神奈川中　Ｕ−Ｓｅｌｅｃｔ浅田インター,川崎市川崎区鋼管通５−１１−３,35.508704185520095,139.71058841364092,ホームページ,,
279792,ＪＦＥシステムズ株式会社　東日本事業所（京浜） ,川崎市川崎区南渡田町1番1号 （京浜ビル 4F,35.510921478271484,139.71707153320312,インターネット,,
135919,ＪＦＥプラリソース株式会社,川崎市川崎区水江町5-1,35.505401611328125,139.73651123046875,インターネット,,
189362,（株）デイ・シイ ,川崎市川崎区浅野町1-1,35.51123046875,139.72506713867188,インターネット,,
135914,ＪＦＥ東日本ジーエス株式会社,川崎市川崎区南渡田町1-14,35.51112365722656,139.71627807617188,インターネット,,
267520,川崎消防署小田出張所 1階受付,神奈川県川崎市川崎消防署小田出張所,35.50887680053711,139.70956420898438,神奈川県オープンデータ(2018/10/1時点),,
541314,セブン-イレブン 川崎小田7丁目店,川崎市川崎区小田７丁目２−２,35.508614477330006,139.70888043694342,市ホームページ,,
80198,隅田冷凍工業株式会社	,川崎市川崎区水江町6-20,35.503868103027344,139.73886108398438,インターネット,,
56061,タマガワ物流/テー・オー・デイリーサービス　２F,川崎市川崎区水江６－２０,35.50437545776367,139.73887634277344,AED　Plus納入確認,,
48591,株式会社エステック,川崎市川崎区鋼管通4-13-12,35.51189422607422,139.7130584716797,インターネット,,
72828,東京電力㈱東扇島火力発電所 ,川崎市川崎区東扇島３,35.494850158691406,139.74563598632812,インターネット,,
156548,株式会社 ロジスティクス・ネットワーク 東扇島物流センター	川崎市川崎区東扇島6-15,川崎市川崎区東扇島6-15,35.49072265625,139.74447631835938,インターネット,,
189531,株式会社ロジパルエクスプレス,川崎市川崎区東扇島4-5,35.49776077270508,139.74696350097656,インターネット,,
343910,コマツ建機販売（株）東京カンパニー東京支店,川崎市川崎区東扇島５番地,35.49530382637119,139.74790401646564,インターネット,,
238839,ＰＯＳＣＯ－ＪＥＰＣ㈱川崎工場,川崎市川崎区東扇島6-11,35.49156951904297,139.7467803955078,インターネット,,
80216,羽田タートルサービス㈱ 山九首都圏DC事業所,川崎市川崎区東扇島90 山九㈱首都圏DC支店内2階-G,35.48911666870117,139.74510192871094,インターネット,,
72829,川崎港コンテナターミナル  管理棟１階警備員室 ,川崎市川崎区東扇島９２番地,35.48835754394531,139.74331665039062,インターネット,,
514914,株式会社ミスミ 東日本流通センター,川崎区東扇島7-1,35.49677630638546,139.75054001031492,,月～土8:00～18:00,044-270-3251
156549,株式会社 ロジスティクス・ネットワーク 川崎ファズ物流センター,川崎市川崎区東扇島6-10,35.494205474853516,139.7523193359375,インターネット,,
80210,株式会社ユニエックス かわさきフアズ	,川崎市川崎区東扇島6-10 かわさきフアズ内,35.49413299560547,139.75286865234375,インターネット,,
539347,川崎エコタウン会館,川崎区水江町6-6,35.50468394,139.7419888,神奈川県川崎市オープンデータ(2025年5月1日時点),月～金（祝日、年末年始除く） 9時00分 16時00分,
210416,（株）幸栄,川崎市川崎区東扇島３１−２,35.49672317504883,139.75706481933594,インターネット,,
72827,東扇島福利厚生センター,川崎市川崎区東扇島78-1,35.49641418457031,139.7584228515625,インターネット,,
135926,日酸運輸（株）川崎営業所,川崎市川崎区水江町3-3,35.51015853881836,139.74191284179688,インターネット,,
72818,東亜石油株式会社京浜製油所 工場内 ,川崎市川崎区水江町３－１,35.51083755493164,139.74008178710938,インターネット ,,
72817,㈱東亜テックス  工場内 ,川崎市川崎区水江町３－１,35.51087951660156,139.74034118652344,インターネット,,
72816,大陽日酸㈱川崎水江事業所  第2製造会議室,川崎市川崎区水江町３－３,35.511173248291016,139.7418212890625,インターネット,,
210417,アトラスコプコ（株）東扇島倉庫,川崎市川崎区東扇島16-1,35.503074645996094,139.75843811035156,インターネット,,
80225,日本トランスシティ（株）横浜営業所	,川崎市川崎区東扇島27-2(愛宕倉庫敷地内),35.49497604370117,139.76284790039062,インターネット,,
267541,港湾振興会館（川崎マリエン) 港湾振興会館業務棟4階エレベーター前,神奈川県川崎市港湾振興会館（川崎マリエン),35.496482849121094,139.76316833496094,神奈川県オープンデータ(2018/10/1時点),,
72826,川崎港運協会　東扇島埠頭８号岸壁休憩所,川崎市川崎区東扇島38-3,35.49649429321289,139.76327514648438,インターネット,,
539568,港湾振興会館（川崎マリエン）,川崎区東扇島38－1,35.49680617,139.7635863,神奈川県川崎市オープンデータ(2025年5月1日時点),- - -,
539567,港湾振興会館（川崎マリエン),川崎区東扇島38-1,35.49680617,139.7635863,神奈川県川崎市オープンデータ(2025年5月1日時点),- - -,
80211,日本通運株式会社川崎海運支店	,川崎市川崎区東扇島27-4,35.49503707885742,139.7637481689453,インターネット,,
45262,㈱寳組　東扇島Ａ棟倉庫 / 東罐運送倉庫（株）,川崎市川崎区東扇島18-2,35.501426696777344,139.7623748779297,インターネット,,
45258,日本食肉流通センターＡ棟　エプロン,川崎市川崎区東扇島24,35.49795150756836,139.76480102539062,インターネット,,
135931,ロシュ・ダイアグノスティックス株式会社 東扇島ロジスティックスセンター,川崎市川崎区東扇島19-2,35.5020637512207,139.76382446289062,インターネット,,
72824,（財）日本食肉流通センター管理棟  受付 ,川崎市川崎区東扇島２４,35.497222900390625,139.76609802246094,インターネット,,
210340,川崎臨港倉庫埠頭（株）,川崎市川崎区千鳥町７−１,35.513370513916016,139.7529296875,インターネット,,
18921,鈴与株式会社　第一ＤＣ事業部　東扇島物流センター　（事務所）,川崎市川崎区東扇島14-3,35.50446701049805,139.76419067382812,インターネット,,
72823,花王ロジスティクス株式会社 川崎ＬＣ,川崎市川崎区東扇島２３－７,35.50035095214844,139.766357421875,インターネット,,
135913,三菱ふそうトラック・バス株式会社 守衛室,川崎市川崎区東扇島23,35.50095748901367,139.77061462402344,インターネット,,
1889,東洋埠頭株式会社　東扇島支店　川崎港コンテナターミナル管理棟　（１Ｆ作業員控室）,川崎市川崎区東扇島92,35.50025939941406,139.77247619628906,インターネット,,
539569,東扇島東公園,川崎区東扇島58-1,35.50321114,139.769709,神奈川県川崎市オープンデータ(2025年5月1日時点),- 8時30分 18時00分,
80227,安田倉庫株式会社 東扇島営業所	,川崎市川崎区東扇島13番6,35.50418472290039,139.7684783935547,インターネット,,
80212,日本通運株式会社川崎海運支店	,川崎市川崎区東扇島30-5,35.49947738647461,139.77609252929688,インターネット,,
45278,京セラケミカル株式会社川崎工場,川崎市川崎区千鳥町9番2号,35.514774322509766,139.75445556640625,インターネット,,
72822,㈱日本触媒浮島工場 ,川崎市川崎区浮島町１０－１２,35.516204833984375,139.77301025390625,インターネット,,
20745,横浜税関　川崎税関支署,川崎市川崎区千鳥町11-1,35.517356872558594,139.75177001953125,インターネット,,
80235,サンケミカル株式会社 川崎工場,川崎市川崎区千鳥町13-2,35.51931381225586,139.7523956298828,インターネット,,
539351,浮島処理センター,川崎区浮島町509-1,35.51469447,139.7836408,神奈川県川崎市オープンデータ(2025年5月1日時点),1/1～3及び日曜日以外 8時30分 17時15分,
539352,かわさきエコ暮らし未来館,川崎区浮島町509-1,35.515337,139.7837039,神奈川県川崎市オープンデータ(2025年5月1日時点),月曜日以外 9時00分 16時00分,
539358,浮島処理センター資源化処理施設,川崎区浮島町509-1,35.51536603,139.7844542,神奈川県川崎市オープンデータ(2025年5月1日時点),日曜日以外 8時30分 17時15分,
267535,臨港消防署浮島出張所 1階受付,神奈川県川崎市臨港消防署浮島出張所,35.51594543457031,139.78378295898438,神奈川県オープンデータ(2018/10/1時点),,
80243,首都高トールサービス神奈川株式会社 湾岸川崎料金計算所	,川崎市川崎区浮島町地先,35.51557540893555,139.78883361816406,インターネット,,
40755,東洋製罐株式会社　川崎工場　（工場２Ｆ製造課事務所）,川崎市川崎区浮島町11番1号,35.521873474121094,139.78334045410156,インターネット,,
329866,東亞合成（株）川崎工場,川崎市川崎区浮島町７−４,35.52393361795255,139.77667807465514,インターネット,,
209723,丸一海運株式会社東京化学品センター,川崎市川崎区浮島町９−３,35.52436065673828,139.7819061279297,インターネット,,
329865,セントラル硝子株式会社　川崎工場,川崎市川崎区浮島町１０番２号,35.52436262145359,139.77952993032295,インターネット,,
72821,東燃ゼネラル石油川崎工場 ,川崎市川崎区浮島町６－１,35.52519226074219,139.7696533203125,インターネット,,
47894,㈱日本触媒　川崎製造所　千鳥工場,川崎市川崎区千鳥町14-1,35.52188491821289,139.7530517578125,インターネット,,
514710,サンドラッグ 小田銀座店,神奈川県川崎市川崎区小田4-36-12,35.510643252418156,139.70173377335894,ホームページ,,
72802,川崎信用金庫　小田支店 ,川崎市川崎区小田４－１３－７,35.510921478271484,139.70123291015625,インターネット,,
72804,びっくりや浅田店 ,川崎市川崎区浅田２－４－１１,35.5091552734375,139.70208740234375,インターネット,,
539473,浅田こども文化センター,川崎区浅田3-7-10,35.50845231,139.7010542,神奈川県川崎市オープンデータ(2025年5月1日時点),平日・土日祝 9時30分 18時・21時,
352713,にのみや歯科クリニック,川崎市川崎区浅田２丁目１−１１,35.50865330107858,139.70203191426998,ステッカーを目視,,
539738,小田小学校,川崎区小田4-12-24,35.51139444,139.7024695,神奈川県川崎市オープンデータ(2025年5月1日時点),"月火水木金
土日 8時30分 21時00分",
27773,セレサ川崎農業協同組合　小田支店,川崎市川崎区小田5-27-1,35.51081848144531,139.7030487060547,インターネット,,
352712,カーブス 川崎小田,川崎市川崎区浅田2-1-13   2階,35.50825587074564,139.7019425967016,ホームページ,,
156130,ヒルマ マーケットプレイス小田店,川崎市川崎区浅田2-1-13,35.508270263671875,139.70205688476562,インターネット,,
539588,小田球場,川崎区小田4-20-38,35.50942989,139.6986489,神奈川県川崎市オープンデータ(2025年5月1日時点),- - -,
265771,浅田交番 庁舎内,神奈川県川崎市川崎区浅田2-35-4,35.507999420166016,139.70225524902344,神奈川県オープンデータ(2018/10/1時点),,
72808,カサブランカ ,川崎市川崎区浅田３－４－１５,35.50785827636719,139.69949340820312,インターネット,,
539383,京町老人いこいの家,川崎区京町3-12-2,35.51055397,139.6976734,神奈川県川崎市オープンデータ(2025年5月1日時点),平日・土曜日 午前9時 午後4時,
72809,京町３丁目町内会 ,川崎市川崎区京町３－１４－１,35.509368896484375,139.6975555419922,インターネット,,
72803,(財)川崎自立会 ,川崎市川崎区浅田１－４－２,35.50838851928711,139.7044219970703,インターネット,,
539743,浅田小学校,川崎区浅田2-11-21,35.50705017,139.7029002,神奈川県川崎市オープンデータ(2025年5月1日時点),月火水木金 8時30分 17時00分,
274269,ライフ川崎京町店,川崎市川崎区京町３丁目２１−１,35.50779724121094,139.69773864746094,ホームページ,,
38964,泉学園川崎青い鳥幼稚園,川崎市川崎区小田2-17-29,35.513484954833984,139.70095825195312,インターネット,,
539842,田島中学校,川崎区小田2-21-7,35.51283886,139.6984736,神奈川県川崎市オープンデータ(2025年5月1日時点),月火水木金 8時15分 21時00分,
72805,浅田３・４丁目町内会 ,川崎市川崎区浅田３－１７－６,35.50645065307617,139.69996643066406,インターネット,,
174521,セソール川崎京町ハイライズ セカンドピア,川崎市川崎区京町2-24-5,35.51202392578125,139.69708251953125,インターネット,,
539837,京町中学校,川崎区京町3-19-11,35.509622,139.6960373,神奈川県川崎市オープンデータ(2025年5月1日時点),月火水木金 8時30分 21時00分,
72810,リジェンヌ京町マンション  １Ｆフロント,川崎市川崎区京町３－１,35.51039123535156,139.6959991455078,インターネット,,
80199,グリーンシア川崎京町	,川崎市川崎区京町3-20-1,35.50811004638672,139.69654846191406,インターネット,,
72806,ファミリーマート京町店  レジ ,川崎市川崎区京町３－３１－４,35.50657653808594,139.69822692871094,インターネット,,
265770,小田交番 庁舎内,神奈川県川崎市川崎区小田3-8-1,35.514034271240234,139.70225524902344,神奈川県オープンデータ(2018/10/1時点),,
541322,セブン-イレブン 川崎小田３丁目店,川崎市川崎区小田３丁目９−１,35.51414354973923,139.70242427269196,市ホームページ,,
539378,小田老人いこいの家,川崎区小田2-16-9,35.514352,139.7018571,神奈川県川崎市オープンデータ(2025年5月1日時点),平日・土曜日 午前9時 午後4時,
539474,小田こども文化センター,川崎区小田2-16-9,35.514395,139.7018571,神奈川県川崎市オープンデータ(2025年5月1日時点),平日・土日祝 9時30分 18時・21時,
72807,小田公園エルハイツ  管理人室,川崎市川崎区京町３－２５－１,35.507347106933594,139.6966094970703,インターネット,,
246879,セソール管理センター,川崎市川崎区京町２－２４,35.51189041137695,139.6956787109375,インターネット,24時間,
80234,株式会社柴田土木	,川崎市川崎区京町3-1-2-1415,35.5108528137207,139.6952667236328,インターネット,,
374465,川崎コスモス薬局,川崎市川崎区京町２丁目１６−３ エステ・スクエア川崎京町105,35.51359389777798,139.69662471178853,ホームページ,,
539525,東小田保育園,川崎区小田5-14-1,35.51154131,139.706937,神奈川県川崎市オープンデータ(2025年5月1日時点),日祝日を除く 7時 (平日)20時,
539777,東小田小学校,川崎区小田5-11-20,35.51215811,139.7070079,神奈川県川崎市オープンデータ(2025年5月1日時点),月火水木金 8時30分 17時00分,
135907,川崎医療生活協同組合京町診療所,川崎市川崎区京町2丁目15-6 神和ビル1F,35.51396560668945,139.69647216796875,インターネット,,
541321,セブン-イレブン 川崎小田栄１丁目店,川崎市川崎区小田栄１丁目９−２０,35.514648603273095,139.70513774856693,市ホームページ,,
265779,浜町交番 庁舎内,神奈川県川崎市川崎区浜町2-26-3,35.51415252685547,139.72056579589844,神奈川県オープンデータ(2018/10/1時点),,
476842,複合型介護施設ぱんだ,川崎市川崎区浜町2-19-15,35.513653665397634,139.71802846946068,ストリートビューでステッカーを確認,,
539330,浅野町工場会館,川崎区浅野町1-4,35.51444681,139.7231578,神奈川県川崎市オープンデータ(2025年5月1日時点),平日 9時00分 17時00分,
392277,須藤工業株式会社　工事事務所,神奈川県川崎市川崎区浅野町４－１０,35.514027864143245,139.7244093988363,,土日以外　８：００～１７：００,0443225856
189361,東日印刷株式会社 川崎工場,川崎市川崎区浅野町6番17号,35.513587951660156,139.7257537841797,インターネット,,
539828,臨港中学校,川崎区浜町2-11-22,35.51437606,139.7158247,神奈川県川崎市オープンデータ(2025年5月1日時点),月火水木金 8時15分 16時45分,
189715,㈱野尻金属 川崎事業所,川崎市川崎区浅野町6-4,35.51370620727539,139.7273712158203,インターネット,,
541317,セブン-イレブン 川崎浜町３丁目店,川崎市川崎区浜町３丁目８−２２,35.51646994385134,139.71986266592063,市ホームページ,,
541316,セブンイレブン　浜川崎店,川崎市川崎区鋼管通4-5-6,35.51328109343274,139.7129880966521,市ホームページ,,
239161,石田動物病院,川崎市川崎区鋼管通2-19-16,35.51530456542969,139.71482849121094,インターネット,,
539739,大島小学校,川崎区浜町1-5-1,35.51691381,139.7175594,神奈川県川崎市オープンデータ(2025年5月1日時点),- - -,
541315,セブン-イレブン 川崎鋼管通４丁目店,川崎市川崎区鋼管通４丁目１２−１５,35.512023046585725,139.71207094059517,市ホームページ,,
174351,デイサービス彩笑,川崎市川崎区鋼管通１－１８－９ 鋼管通ハイツＡ１０１,35.515628814697266,139.71438598632812,インターネット,,
274431,マルハン川崎桜本店,川崎市川崎区川崎区桜本１丁目１４−６,35.517967224121094,139.72354125976562,インターネット,,
238890,アイランドグレース,川崎市川崎区小田栄2-1-8,35.511695861816406,139.7109375,インターネット,,
267529,川崎区役所田島支所 1階ロビー,神奈川県川崎市川崎区役所田島支所,35.51699447631836,139.7144775390625,神奈川県オープンデータ(2018/10/1時点),,
265778,鋼管通交番 庁舎内,神奈川県川崎市川崎区鋼管通2-3-9,35.51694107055664,139.7143096923828,神奈川県オープンデータ(2018/10/1時点),,
72785,PARLOR百億 ,川崎市川崎区大島３－１７－１０,35.5185546875,139.7180938720703,インターネット,,
539475,ふれあい館・桜本こども文化センター,川崎区桜本1-5-6,35.51898669,139.7210124,神奈川県川崎市オープンデータ(2025年5月1日時点),平日と土日祝 9時30分 18時・21時,
539896,田島支援学校,川崎区田島町20-5,35.51533075,139.7120059,神奈川県川崎市オープンデータ(2025年5月1日時点),月火水木金 8時30分 21時,
539914,川崎市立田島支援学校,川崎区田島町20-5,35.51533075,139.7120059,神奈川県川崎市オープンデータ(2025年5月1日時点),平はは8時半から17時で使用可。休日は、施設開放の時間の可 8時30分 17時00分,
539587,桜川球場,川崎区桜本1-14-3,35.51904667,139.7225725,神奈川県川崎市オープンデータ(2025年5月1日時点),- 8時00分 18時00分,
72784,ニューシャトル,川崎市川崎区大島３－１７－１,35.5187873840332,139.71788024902344,インターネット,,
539380,田島老人いこいの家,川崎区田島町20-23,35.51568714,139.7116498,神奈川県川崎市オープンデータ(2025年5月1日時点),平日・土曜日 午前9時 午後4時,
72783,銀河 ,川崎市川崎区大島３－１６－９,35.51913070678711,139.7177734375,インターネット,,
539472,田島こども文化センター,川崎区田島町20-23,35.51572183,139.7116515,神奈川県川崎市オープンデータ(2025年5月1日時点),平日・土日祝 9時30分 18時・21時,
344290,ビオラ川崎,川崎市川崎区小田栄２－１－７,35.512476773625224,139.709701160268,インターネット,,
539582,川崎区役所田島支所仮庁舎,川崎区田島町20-23,35.5157157,139.7115388,神奈川県川崎市オープンデータ(2025年5月1日時点),月～金 8時30分 17時00分,
539580,教育文化会館田島分館,川崎区追分町16-1 カルナーザ川崎4階,35.51905231,139.7165599,神奈川県川崎市オープンデータ(2025年5月1日時点),右記以外 8時30分 21時00分,
72782,川崎信用金庫大島支店 ,川崎市川崎区大島３－１６－１,35.51926803588867,139.71717834472656,インターネット,,
441759,市電通り ごうだクリニック,神奈川県川崎市川崎区田島町23-1 ラヴィーレ浜川崎 1階,35.51487980757821,139.71040377316547,ホームページ,,
541318,セブン-イレブン 川崎鋼管通店,川崎市川崎区鋼管通１丁目３−８,35.51796476776373,139.71365603536972,市ホームページ,,
449855,ハックドラッグ大島店,川崎市川崎区追分町16-1　カルナーザ川崎1F,35.51925898316021,139.71646937437148,ホームページ,,
72786,大島球殿 ,川崎市川崎区大島３－３４－７,35.52043533325195,139.72030639648438,インターネット,,
539458,かわさき南部斎苑,川崎区夜光3-2-7,35.51691236,139.7392812,神奈川県川崎市オープンデータ(2025年5月1日時点),- 0時00分 0時00分,
392389,アクイール塩浜,川崎市川崎区塩浜3-31-2,35.5176194428523,139.7389597272819,ホームページ,,
539657,入江崎水処理センター,川崎区塩浜3-17-1,35.51943592,139.7402591,神奈川県川崎市オープンデータ(2025年5月1日時点),平日 8時30分 17時00分,
267487,塩浜営業所 2階事務室,神奈川県川崎市塩浜営業所,35.5194091796875,139.73785400390625,神奈川県オープンデータ(2018/10/1時点),,
539359,南部リサイクルセンター,川崎区夜光3-1-3,35.51974,139.74379,神奈川県川崎市オープンデータ(2025年5月1日時点),日曜日以外 8時30分 17時15分,
539663,入江崎総合スラッジセンター,川崎区塩浜3-24-12,35.52194167,139.7436018,神奈川県川崎市オープンデータ(2025年5月1日時点),平日 8時30分 17時00分,
267883,王禅寺余熱利用市民施設 3階フロント,神奈川県川崎市王禅寺余熱利用市民施設,35.52214050292969,139.74319458007812,神奈川県オープンデータ(2018/10/1時点),,
539650,入江崎余熱利用プール,川崎区塩浜3-24-12,35.52217,139.7432536,神奈川県川崎市オープンデータ(2025年5月1日時点),"休館日以外 10時00分
7・8月は9時 20時00分",
72813,Ｃｏｖｉｄｉｅｎ Ａｄｖａｎｃｅｄ Ｔｒａｉｎｉｎｇ Ｃｅｎｔｅｒ Ｋａｗａｓａｋｉ	,川崎市川崎区塩浜3-24-11,35.52244567871094,139.7443389892578,インターネット,,
539589,池上新田球場,川崎区池上町1-3,35.52072519,139.7316372,神奈川県川崎市オープンデータ(2025年5月1日時点),- 8時00分 18時00分,
72814,大同特殊鋼株式会社  工場内 ,川崎市川崎区夜光２－４－１,35.52238082885742,139.7465057373047,インターネット,,
45290,西尾レントオール株式会社測器東京営業所,川崎市川崎区塩浜2-7-3,35.52335739135742,139.73944091796875,インターネット,,
541305,セブン-イレブン 川崎塩浜２丁目店,川崎市川崎区塩浜２丁目１３−５,35.523490744207876,139.73871865755945,市ホームページ,,
72812,㈱ニチユウ京浜リサイクルセンター  工場内,川崎市川崎区塩浜３－２４－１０,35.52344512939453,139.74391174316406,,,
189525,ＮＰＯ法人エスエスエス 神奈川支部 塩浜第一荘,川崎市川崎区塩浜2-24-26,35.52330780029297,139.73556518554688,インターネット,,
333117,横浜日野自動車　川崎支店,川崎市川崎区四谷下町25-6,35.523958706713785,139.7384315384311,ホームページ,,
72811,コストコホールセール川崎倉庫店　１階 ,川崎市川崎区池上新町３－１－４,35.5223503112793,139.73245239257812,インターネット,,
539685,臨港消防署,川崎区池上新町3-1-5,35.52229622,139.7315224,神奈川県川崎市オープンデータ(2025年5月1日時点),- - -,
80236,株式会社タケエイ 塩浜リサイクルセンター	,川崎市川崎区塩浜3-22-1,35.524513244628906,139.74244689941406,インターネット,,
80230,（株）和楽 新社屋,川崎市川崎区塩浜3-24-100,35.524471282958984,139.7435302734375,インターネット,,
80208,関東運輸局神奈川運輸支局川崎自動車検査登録事務所,川崎市川崎区塩浜3-24-1,35.52425003051758,139.74578857421875,インターネット,,
56062,向島運送(株)神奈川営業所,川崎市川崎区四谷下町26-44,35.52406692504883,139.73536682128906,インターネット,,
265383,神奈川県立大師高等学校 1階事務室内,神奈川県川崎市川崎区四谷下町25-1,35.52443313598633,139.73655700683594,神奈川県オープンデータ(2018/10/1時点),8:30～17:00,
240134,ホームさくら,川崎市川崎区桜本２−４４−１１,35.52055358886719,139.72781372070312,インターネット,,
267539,臨港消防署千鳥町出張所 1階受付,神奈川県川崎市臨港消防署千鳥町出張所,35.52245330810547,139.75253295898438,神奈川県オープンデータ(2018/10/1時点),,
40697,日本乳化剤株式会社,川崎市川崎区千鳥町1番1号,35.52317810058594,139.75430297851562,インターネット,,
445797,三菱ケミカル物流株式会社　川崎油槽所,川崎市川崎区千鳥町１－３,35.526530641383964,139.75732154751964,ストリートビューでステッカーを確認,,
541304,セブン-イレブン 川崎塩浜店,川崎市川崎区夜光１丁目７−９,35.52545119009634,139.749611355005,市ホームページ,,
265781,浮島橋交番 庁舎内,神奈川県川崎市川崎区浮島町4-1,35.53130340576172,139.76991271972656,神奈川県オープンデータ(2018/10/1時点),,
80232,東芝浜川崎工場 浮島分工場,川崎市川崎区浮島町4-1,35.53203582763672,139.771484375,インターネット,,
72626,花王株式会社　川崎工場,川崎市川崎区浮島町１－２,35.53326416015625,139.76792907714844,インターネット,,
189131,全日本空輸株式会社殿町オフィス		１階ＡＮＡスカイサービス事務所内,川崎市川崎区殿町3-26-3	,35.535186767578125,139.76451110839844,インターネット,,
72819,大陽日酸㈱川崎事業所  工場内 ,川崎市川崎区小島町６－２,35.53396224975586,139.7618865966797,インターネット ,,
541342,セブン-イレブン 川崎元木１丁目店,川崎市川崎区元木１丁目１−５,35.52455385291227,139.7002893078481,市ホームページ,,
72776,パチンコ　吉兆 川崎中央店,川崎市川崎区南町１９－７,35.52587127685547,139.69996643066406,インターネット,,
156667,トヨタモビリティ神奈川　川崎店,川崎市川崎区元木1-1-16,35.52472686767578,139.6993865966797,ホームページ,,
72775,ひるまデンタルクリニック,川崎市川崎区南町１８－１８,35.526390075683594,139.70115661621094,ホームページ,,
72792,聖クララ幼稚園,川崎市川崎区貝塚１－８－５,35.52369689941406,139.7017364501953,インターネット,,
539686,川崎消防署・消防局総合庁舎（川崎消防署）,川崎区南町20-7,35.52542678,139.6992136,神奈川県川崎市オープンデータ(2025年5月1日時点),- - -,
267446,川崎消防署・消防局総合庁舎 7階救急課事務所,神奈川県川崎市川崎消防署・消防局総合庁舎,35.52553939819336,139.69918823242188,神奈川県オープンデータ(2018/10/1時点),,
385022,ハローワーク川崎,川崎市川崎区南町１７−２,35.52659741546908,139.7015524868799,ステッカーを目視,,
80245,米山ファッションビジネス専門学校	,川崎市川崎区南町15-2,35.52677917480469,139.70074462890625,インターネット,,
265767,南町交番 庁舎内,神奈川県川崎市川崎区南町17,35.526824951171875,139.70176696777344,神奈川県オープンデータ(2018/10/1時点),,
189190,川崎フコク生命ビル,川崎市川崎区貝塚1-1-3,35.526363372802734,139.70274353027344,インターネット,,
40187,大同マテックス株式会社,川崎市川崎区南町16-1　朝日生命ビル3階,35.527137756347656,139.70108032226562,インターネット,,
95620,リリィパワーズレジデンス貝塚	,川崎市川崎区貝塚1-13-11,35.52589416503906,139.70339965820312,インターネット,,
80200,エルカーヒル川崎,川崎市川崎区南町21-19,35.525238037109375,139.69837951660156,ストリートビューでステッカーを確認,,
505271,朝日生命保険相互会社 川崎ビル,川崎市川崎区南町16-1,35.52721125380207,139.70127795464091,ストリートビューでステッカーを確認,,
72773,日本生命川崎ビル,川崎市川崎区南町１－１,35.52743148803711,139.70071411132812,インターネット,,
385006,なかの歯科,川崎市川崎区東田町１１−１ エンゼル川崎グランディア 1F,35.52734920904094,139.7019029419415,ホームページ,,
80229,株式会社杉孝 川崎渡田ビル	,川崎市川崎区渡田向町8-5,35.523380279541016,139.7032928466797,インターネット,,
468310,ニッセイ・ライフプラザ 川崎,川崎市川崎区南町1-1 日本生命川崎ビル6F,35.52752852468827,139.7006493795063,ホームページ,,
541343,セブン-イレブン 川崎南町店,川崎市川崎区南町２１−９,35.52461060985982,139.69791321558682,市ホームページ,,
156597,トヨタジョイパーク川崎,川崎市川崎区元木1-4-1,35.52376937866211,139.69827270507812,インターネット,,
135948,総合新川橋病院,川崎市川崎区新川通1-15,35.52692794799805,139.70306396484375,インターネット,,
135944,杉本電機産業㈱ 本社第一ビル,川崎市川崎区渡田向町6-5,35.522621154785156,139.70240783691406,インターネット,,
72778,パールホテル川崎,川崎市川崎区小川町１６－９,35.52729415893555,139.6991424560547,ホームページ,,
234455,お仏壇のはせがわ　川崎店,川崎市川崎区東田町２−１ 福井ビル,35.52774429321289,139.7013702392578,インターネット,,
384634,トヨタレンタカー川崎,川崎市川崎区南町22,35.52433020547594,139.69732697332608,ステッカーを目視,,
541348,セブンイレブン 川崎駅前店,川崎市川崎区砂子２丁目８−１,35.52812381791364,139.70078338354216,市ホームページ,,
541340,セブン-イレブン 川崎貝塚２丁目店,川崎市川崎区貝塚２丁目１−１,35.52547069099838,139.70482383677955,市ホームページ,,
156759,協成電気株式会社,川崎市川崎区新川通3-12,35.52680969238281,139.70425415039062,インターネット,,
407214,アスク川崎東口保育園,川崎市川崎区小川町１３−９,35.527419202767135,139.69838944657894,ホームページ,,
80247,ライオンズマンション川崎第三,川崎市川崎区南町22-6,35.52448654174805,139.6970672607422,インターネット,,
72771,タイガーセブン川崎店 ,川崎市川崎区小川町１４－１３,35.528053283691406,139.69964599609375,インターネット,,
135945,杉本電機産業㈱ 本社第２ビル,川崎市川崎区渡田向町10-1,35.522010803222656,139.7025604248047,インターネット,,
72770,セブンエス川崎店,川崎市川崎区小川町１４－１３,35.52819061279297,139.69943237304688,インターネット,,
351720,24/7ワークアウト 川崎店,川崎市川崎区小川町2-7-8 昼間ビルIVY TOWER（アイビー・タワー）9F,35.52840639140752,139.69928459155082,インターネット,,
240139,ホームみずき,川崎市川崎区東田町３−１５末広ビル,35.52851104736328,139.7024688720703,インターネット,,
72768,ガイア川崎店 ,川崎市川崎区小川町２－７,35.528438568115234,139.69918823242188,インターネット,,
222633,ウエインズトヨタ神奈川　川崎店,川崎市川崎区元木2-2-23,35.523284912109375,139.69683837890625,インターネット,,
72766,楽園 川崎店 ,川崎市川崎区小川町２－４,35.528480529785156,139.6990203857422,インターネット,,
134688,ダイワロイネットホテル川崎,神奈川県川崎市川崎区砂子2-6-15,35.5288200378418,139.6999053955078,インターネット,,
72780,チッタエンタテイメント  チケット売り場 ,川崎市川崎区小川町４－１,35.52814865112305,139.69798278808594,インターネット,,
95621,入江医院	,川崎市川崎区砂子2-6-2 三恵ビル3F,35.528839111328125,139.6996307373047,インターネット,,
72765,ロペステーション２ ,川崎市川崎区小川町２－３,35.528629302978516,139.69894409179688,インターネット,,
261855,三恵ビル	 １Ｆエントランス,川崎市川崎区砂子２－６－２,35.52884292602539,139.69960021972656,インターネット,,
174657,ＲＩＺＡＰ川崎店,川崎市川崎区砂子2-6-2 川崎三恵ビル2F,35.52891540527344,139.69967651367188,ホームページ,,
541349,セブンイレブン 川崎仲見世通り店,川崎市川崎区砂子２丁目６−８,35.52903070671173,139.70023691376997,市ホームページ,,
80250,社団法人日本海事検定協会,川崎市川崎区新川通11-3,35.52584457397461,139.70591735839844,インターネット,,
135933,教安寺,川崎市川崎区小川町6-2,35.5274772644043,139.6968231201172,インターネット,,
539470,藤崎こども文化センター,川崎区藤崎4-17-6,35.52507783,139.7216732,神奈川県川崎市オープンデータ(2025年5月1日時点),平日・土日祝 9時30分 18時・21時,
539379,藤崎老人いこいの家,川崎区藤崎4-17-6,35.52507508,139.7217175,神奈川県川崎市オープンデータ(2025年5月1日時点),平日・土曜日 午前9時 午後4時,
539740,東大島小学校,川崎区大島5-25-1,35.52352681,139.7196844,神奈川県川崎市オープンデータ(2025年5月1日時点),"月火水木金
土日 8時30分 21時00分",
539840,川中島中学校,川崎区藤崎2-19-1,35.52705839,139.7218366,神奈川県川崎市オープンデータ(2025年5月1日時点),月火水木金 7時00分 20時00分,
265774,藤崎交番 庁舎内,神奈川県川崎市川崎区大島5-14-7,35.5252571105957,139.71832275390625,神奈川県オープンデータ(2018/10/1時点),,
337106,かわなかじま保育園,川崎市川崎区藤崎2-19-2,35.527546777045636,139.72268532468604,ホームページ,,
541310,セブン-イレブン 川崎大島東店,川崎市川崎区大島５丁目３１−１５,35.52210344257421,139.7202491649755,市ホームページ,,
251946,上原歯科医院,川崎市川崎区大島５－１３－２０,35.5252685546875,139.71725463867188,インターネット,,
278895,アロハおおしま保育園,川崎市川崎区大島5-13-3コーポアラク１F,35.525535583496094,139.71714782714844,ホームページ,平日、土曜7:30～18：30,
135908,川崎医療生活協同組合 生協歯科クリニック,川崎市川崎区桜本2-1-22,35.52174758911133,139.72154235839844,インターネット,,
541311,セブン-イレブン 川崎大島５丁目店,川崎市川崎区大島５丁目１１−１０,35.525379917208845,139.71696069000302,市ホームページ,,
539774,藤崎小学校,川崎区藤崎3-2-1,35.52554817,139.7252451,神奈川県川崎市オープンデータ(2025年5月1日時点),月火水木金 8時25分 16時55分,
539904,藤崎小学校,川崎区藤崎3-2-1,35.52554817,139.7252451,神奈川県川崎市オープンデータ(2025年5月1日時点),月火水木金土日 8時30分 21時00分,
37390,小規模多機能ホーム　縁,川崎市川崎区中島3-19-7,35.52780532836914,139.71827697753906,インターネット,,
539382,桜本老人いこいの家,川崎区桜本2-5-2,35.52149731,139.7228887,神奈川県川崎市オープンデータ(2025年5月1日時点),平日・土曜日 午前9時 午後4時,
352711,桜本保育園,川崎市川崎区桜本１丁目９−１５,35.52104181861073,139.72192175440438,ステッカーを目視,,
239674,セレサ川崎農業協同組合 大島支店,川崎市川崎区大島４丁目１３−１４,35.52532958984375,139.716064453125,インターネット,,
156380,ライフコミューン川崎,川崎市川崎区藤崎3-6-1,35.52849578857422,139.72360229492188,インターネット,,
401860,まつみ食品ビル,川崎区大島3-25-7,35.52146348647051,139.7184345153226,,7：00～17：30,0442114529
59090,Curves大師桜本 ,川崎市川崎区桜本1-8-4,35.520835876464844,139.7209014892578,インターネット ,,
539897,田島支援学校桜校,川崎区池上新町1-1-3,35.52365706,139.7258524,神奈川県川崎市オープンデータ(2025年5月1日時点),月火水木金 8時30分 21時,
189674,タイムレス川崎,川崎市川崎区藤崎3-6-1,35.528507232666016,139.7238006591797,インターネット,,
407218,エニタイムフィットネス　大師店,川崎市川崎区池上新町 2-1-1 TSUTAYA大師店 2F,35.52484088691071,139.7261464982967,ホームページ,,
281843,かんのん町保育園,川崎市川崎区観音１丁目１０−３,35.52584457397461,139.72608947753906,ホームページ,,
274265,ライフ川崎桜本店,川崎市川崎区桜本２丁目１６−１,35.521121978759766,139.72348022460938,ホームページ,,
72789,川崎信用金庫藤崎出張所  店舗内,川崎市川崎区藤崎１-３０－３,35.52931213378906,139.72216796875,インターネット,,
539775,さくら小学校,川崎区桜本1-9-15,35.52062086,139.7219702,神奈川県川崎市オープンデータ(2025年5月1日時点),月火水木金 8時30分 21時00分,
539737,向小学校,川崎区大島4-17-1,35.524249,139.7153637,神奈川県川崎市オープンデータ(2025年5月1日時点),"月火水木金
土日 8時 21時00分",
240137,フィットケアデポ観音店,川崎市川崎区観音１−２−１７,35.528350830078125,139.72494506835938,インターネット,,
267467,臨港消防署藤崎出張所 1階受付,神奈川県川崎市臨港消防署藤崎出張所,35.529300689697266,139.7231903076172,神奈川県オープンデータ(2018/10/1時点),,
392320,マジオたんぽぽ保育園観音,川崎市川崎区観音１丁目８−２０,35.52717802980459,139.7260988668871,ステッカーを目視,,
541327,セブン-イレブン 川崎藤崎店,川崎市川崎区藤崎１丁目１２−９,35.529768775603706,139.7208234508657,市ホームページ,,
541328,セブン-イレブン 川崎中島２丁目店,川崎市川崎区中島２丁目１７−１０,35.52949155718377,139.7184724369032,市ホームページ,,
539524,川崎区保育・子育て総合支援センター,川崎区大島4-17-2,35.52362,139.71482,神奈川県川崎市オープンデータ(2025年5月1日時点),日祝日を除く 7時 (平日)20時,
539841,桜本中学校,川崎区池上新町1-2-4,35.52319167,139.7270503,神奈川県川崎市オープンデータ(2025年5月1日時点),- - -,
539438,南部地域療育センター,川崎区中島3-3-1,35.52668525,139.714883,神奈川県川崎市オープンデータ(2025年5月1日時点),平日 8時30分 17時00分,
539875,川崎高校附属中学校,川崎区中島3-3-1,35.52678778,139.7148373,神奈川県川崎市オープンデータ(2025年5月1日時点),月火水木金 8時15分 16時45分,
539694,川崎高校,川崎区中島3-3-1,35.52688944,139.7148387,神奈川県川崎市オープンデータ(2025年5月1日時点),月火水木金 8時30分 22時,
539695,川崎高校,川崎区中島3-3-1,35.52688944,139.7148387,神奈川県川崎市オープンデータ(2025年5月1日時点),月火水木金 8時30分 22時,
174245,ベルズ・スクエア川崎・大島	　１Ｆエントランス,川崎市川崎区大島4-3-1,35.5240364074707,139.71437072753906,インターネット,,
72787,特別養護老人ホーム桜寿苑  事務所 ,川崎市川崎区桜本２－３９－４,35.52114486694336,139.72634887695312,インターネット ,,
539526,藤崎保育園,川崎区藤崎1-7-1,35.53069475,139.7192976,神奈川県川崎市オープンデータ(2025年5月1日時点),日祝日を除く 7時 (平日)20時,
265775,中島町交番 庁舎内,神奈川県川崎市川崎区中島1-11-1,35.529720306396484,139.7167205810547,神奈川県オープンデータ(2018/10/1時点),,
80205,ライフ川崎大島店,川崎市川崎区大島4-3-1,35.52378845214844,139.71371459960938,インターネット,9:00〜24:00,
526694,トヨタ モビリティパーツ 神奈川支社 川崎店,川崎市川崎区中島２丁目１−２,35.528386626454704,139.7147650325579,ホームページ,,
392387,セレモニア川崎会堂,川崎市川崎区大島4-2-4,35.52343357038077,139.7135434982967,ホームページ,,
539665,塩浜営業所,川崎区塩浜2-2-1,35.5258985,139.7417469,神奈川県川崎市オープンデータ(2025年5月1日時点),日・月・火・水・木・金・土 5時00分 0時00分,
204448,新栄商事株式会社,川崎市川崎区四谷下町19-1,35.52546691894531,139.73892211914062,実物目視,平日・土曜7：30～17：00,
539771,四谷小学校,川崎区四谷下町4-1,35.52678178,139.7376714,神奈川県川崎市オープンデータ(2025年5月1日時点),月火水木金 8時30分 17時00分,
80231,ニチアス株式会社 川崎配送センター	,川崎市川崎区塩浜4-2-1,35.5264778137207,139.7445526123047,インターネット,,
537431,サニクリーン東京 京浜営業所,川崎市川崎区塩浜１丁目１５−１２,35.52878904796823,139.74328527128657,ホームページ,,
537393,けんせつパーク川崎センター,川崎市川崎区塩浜４丁目８−２３,35.526437496071786,139.74627777428773,ホームページ,,
416890,リンガーハット 川崎塩浜店,川崎市川崎区四谷上町24-14,35.52861893063771,139.73754446234298,目視,月〜木・日10:00-23:30 金・土10:00-0:00,
135923,四谷町内会館,川崎市川崎区四谷上町23-20,35.52714538574219,139.73583984375,インターネット,,
189426,プレス工業株式会社,川崎市川崎区塩浜1-1-1,35.5296516418457,139.73934936523438,インターネット,,
539839,南大師中学校,川崎区四谷上町24-1,35.5283505,139.7365636,神奈川県川崎市オープンデータ(2025年5月1日時点),- - -,
135922,後藤医院,川崎市川崎区昭和2丁目16-16,35.52991485595703,139.73863220214844,インターネット,,
156539,一般財団法人 日本環境衛生センター,川崎市川崎区四谷上町10-6,35.52901077270508,139.73651123046875,インターネット,,
80241,特別養護老人ホーム 大師の里,川崎市川崎区日ノ出2-7-1,35.53037643432617,139.7431182861328,インターネット,,
392321,よつば保育園,川崎市川崎区四谷上町１４−８,35.52711921331139,139.73341083524932,ステッカーを目視,,
541306,セブン-イレブン 川崎四谷上町北店,川崎市川崎区四谷上町７−１１,35.52961409787577,139.73525226758207,市ホームページ,,
80206,日本貨物鉄道株式会社 川崎車両所,川崎市川崎区塩浜4-11-20,35.52900695800781,139.74810791015625,インターネット ,,
144869,ひまわりホーム川崎大師,川崎市川崎区昭和2-5-6,35.5310173034668,139.73609924316406,インターネット,,
541307,啓和会 グループホーム四谷上町,川崎市川崎区四谷上町８−７,35.53046568734658,139.73517802017665,ストリートビューでステッカーを確認,,
541308,セブン-イレブン 川崎四谷上町店,川崎市川崎区四谷上町１８−８,35.525599484080935,139.73201488585332,市ホームページ,,
39023,旭国際テクネイオン株式会社　川崎事業所,川崎市川崎区日ノ出2-13-19,35.53178024291992,139.7444610595703,インターネット,,
259977,サンコート株式会社,川崎市川崎区四谷上町6-2,35.52909851074219,139.73345947265625,,平日8：30～17：00,
56316,宇佐美   川崎産業道路SS,神奈川県川崎市川崎区池上新町2-21-2,35.52349853515625,139.7318115234375,インターネット,,
332838,大師保育園,川崎市川崎区出来野１−１７,35.532701192868146,139.73933924528205,ステッカーを目視,,
17540,メディカルホーム　グラニー川崎大師　（１Ｆロビー）,川崎市川崎区四谷上町1-11,35.527259826660156,139.7315673828125,インターネット,,
541303,セブン-イレブン 川崎出来野店,川崎市川崎区出来野１１−２５,35.53305399559871,139.74052257906285,市ホームページ,,
19803,上野輸送株式会社,川崎市川崎区小島町6-3,35.535037994384766,139.76202392578125,インターネット,,
135932,第一コンクリート株式会社京浜工場	,川崎市川崎区夜光1-1-1,35.5322380065918,139.750244140625,インターネット,,
539360,川崎生活環境事業所,川崎区塩浜4-11-9,35.5307412,139.7489482,神奈川県川崎市オープンデータ(2025年5月1日時点),1/1～3及び日曜日以外 8時00分 16時45分,
23800,新興プランテック㈱,川崎市川崎区田町3-14-10,35.53297805786133,139.74989318847656,インターネット,,
80209,パーカー熱処理工業株式会社,川崎市川崎区田町3-13-10,35.532806396484375,139.74960327148438,インターネット,,
372991,山九重機工株式会社,川崎市川崎区塩浜４丁目１３－１,35.532418581465464,139.74855798869757,ステッカーを目視,,
267484,臨港消防署殿町出張所 1階受付,神奈川県川崎市臨港消防署殿町出張所,35.53831481933594,139.75425720214844,神奈川県オープンデータ(2018/10/1時点),,
265120,ライフイノベーションセンター 1Ｆ管理事務所内(受付前)、4Ｆエレベーターホール,神奈川県川崎市川崎区殿町3-25-22,35.53986740112305,139.7581024169922,神奈川県オープンデータ(2018/10/1時点),1Ｆ6:00～23:00、4Ｆ24時間 (通年休業日)なし,
541302,セブン-イレブン 川崎国際病院前店,川崎市川崎区日ノ出２丁目１６−１,35.53322206556008,139.745449454748,市ホームページ,,
541300,セブン-イレブン 川崎殿町３丁目店,川崎市川崎区殿町３丁目１８−２,35.538553578063144,139.7510107122468,市ホームページ,,
219984,実験動物中央研究所,神奈川県川崎市川崎区殿町3丁目25番12,35.539974212646484,139.7543182373047,ステッカーを目視,,
541367,セブン-イレブン 川崎南加瀬５丁目店,川崎市幸区南加瀬５丁目５−２,35.5398440328235,139.66208961117317,市ホームページ,,
378401,川崎ナーシングヴィラそよ風,川崎市幸区南加瀬５丁目１８−１２,35.538925480817404,139.66009872713278,ステッカーを目視,,
16188,ＪＡセレサ川崎日吉支店,川崎市幸区南加瀬5-3-1,35.53990173339844,139.66262817382812,インターネット,,
473709,サミットストア 南加瀬店,川崎市幸区南加瀬３丁目４０−３,35.54063712911528,139.662795216682,ホームページ,,
265792,南加瀬交番 庁舎内,神奈川県川崎市幸区南加瀬3-40-1,35.539974212646484,139.6631622314453,神奈川県オープンデータ(2018/10/1時点),,
331440,ウエインズトヨタ神奈川 南加瀬店,川崎市幸区南加瀬３丁目３２−７,35.541449730002924,139.662290742477,ホームページ,,
144873,カーブスサミット南加瀬,川崎市幸区南加瀬3-40-3　サミット南加瀬2階,35.54092025756836,139.6629638671875,ホームページ,,
174781,南加瀬原町会館,川崎市幸区南加瀬3-22-1,35.542110443115234,139.66323852539062,インターネット,,
267698,幸消防署加瀬出張所 1階受付,神奈川県川崎市幸消防署加瀬出張所,35.544044494628906,139.6606903076172,神奈川県オープンデータ(2018/10/1時点),,
239672,セブンスター　（１F店舗内）,川崎市幸区南加瀬4-18-48,35.544368743896484,139.66061401367188,インターネット,,
260791,ＮＩＣＥ　ＵＲＢＡＮ新川崎,川崎市幸区南加瀬３－９－３８,35.544368743896484,139.66172790527344,インターネット,,
224558,きらら川崎小倉,川崎市幸区小倉２丁目２１,35.54138946533203,139.66629028320312,インターネット,,
174237,シャルマン南加瀬	１号棟廊下 ,川崎市幸区南加瀬5-38,35.540103912353516,139.65536499023438,インターネット,,
174193,シャルマン南加瀬	２号棟廊下 ,川崎市幸区南加瀬5-38,35.54057312011719,139.65521240234375,インターネット,,
541368,セブン-イレブン 川崎南加瀬３丁目店,川崎市幸区南加瀬３丁目８−２０,35.54477079338444,139.66097000765328,市ホームページ,,
451805,iイエローハット川崎さいわい店,神奈川県川崎市幸区小倉5-18-14,35.53663410634098,139.6663506425579,目視,9：30～19：30,044-580-6311
189182,ＭＯＮＯＳ川崎,川崎市幸区小倉5-18-9,35.536376953125,139.66616821289062,インターネット,,
72680,川崎信用金庫 加瀬支店  １Ｆ待合ロビー ,川崎市幸区南加瀬３－６－１,35.545108795166016,139.6638946533203,インターネット,,
371974,小峰幼稚園,川崎市幸区小倉５丁目１１,35.537943877468436,139.6675931851398,ステッカーを目視,,
219982,Ｈｏｎｄａ　Ｃａｒｓ　神奈川東　川崎幸店,神奈川県川崎市幸区小倉５−１８−５,35.53610610961914,139.66619873046875,インターネット,,
476841,小俣歯科医院,川崎市幸区小倉２丁目２５−６,35.54073654297052,139.66853117628995,ストリートビューでステッカーを確認,,
72681,川崎信用金庫 小倉出張所,川崎市幸区小倉3-30-10,35.53949737548828,139.66871643066406,インターネット,,
95643,クレッセント新川崎Ⅳ,川崎市幸区小倉377番地,35.53965377807617,139.66888427734375,インターネット,,
95632,サミットストア クロスガーデン川崎店	,川崎市幸区小倉1658-35,35.53568649291992,139.6669158935547,インターネット,,
156665,トヨタモビリティ神奈川 新加瀬店,川崎市幸区南加瀬2-31-19,35.547183990478516,139.66001892089844,ホームページ,,
259690,いなげや 川崎南加瀬店,川崎市幸区南加瀬４丁目１４−３０,35.547000885009766,139.658447265625,ホームページ,,
282340,ケアビレッジ小倉,川崎市幸区小倉3丁目9−20,35.541954040527344,139.66973876953125,ステッカーを目視,,
476840,共創未来 川崎小倉薬局,川崎市幸区小倉3-28-12,35.53950675784266,139.6700552915508,ストリートビューでステッカーを確認,,
265791,日吉交番 庁舎内,神奈川県川崎市幸区南加瀬1-9-5,35.545265197753906,139.6674346923828,神奈川県オープンデータ(2018/10/1時点),,
541351,セブン-イレブン 川崎塚越４丁目店,川崎市幸区塚越４丁目３３３−５０,35.54084636456712,139.6816639949752,市ホームページ,,
72617,太陽日酸㈱  １Ｆ正面玄関入口,川崎市幸区塚越４－３２０－１,35.54275894165039,139.68234252929688,インターネット,常時,
265786,塚越交番 庁舎内,神奈川県川崎市幸区塚越4-320,35.5429801940918,139.68177795410156,神奈川県オープンデータ(2018/10/1時点),,
441783,ライフ川崎塚越店,川崎市幸区塚越４丁目２９８−１,35.54226757384378,139.6837978179401,ホームページ,,
441784,ライフ川崎塚越店,川崎市幸区塚越４丁目２９８−１,35.54226757384378,139.6837978179401,ホームページ,,
95626,ラグゼコート	,川崎市幸区塚越3-484-1,35.54061508178711,139.677001953125,インターネット,,
210412,パークホームズ新川崎フォレストコート,川崎市幸区塚越3-484-4,35.5406494140625,139.67660522460938,インターネット,,
465459,グッドタイムホーム・川崎,川崎市幸区塚越2-260-36,35.5430486498233,139.6836227838234,ストリートビューでステッカーを確認,,
72688,キャノン㈱矢向事業所  正面入口防災センターＡ棟２Ｆ廊下Ｂ棟４Ｆ廊下Ｃ棟４Ｆ廊下,川崎市幸区塚越３－４１５,35.542362213134766,139.67726135253906,インターネット,,
343862,星岡歯科診療所,川崎市幸区塚越３丁目４１９番地,35.543356629037625,139.67834715754347,インターネット,,
441774,みつや内科,川崎市幸区古川町１２０,35.544306742487315,139.68346577928236,ストリートビューでステッカーを確認,,
343864,プレシャス スターズ保育園,川崎市幸区塚越３丁目４２７−５,35.54408185958206,139.67758651372097,ステッカーを目視,,
156541,MIMASU塚越店,川崎市幸区塚越2-164,35.544769287109375,139.6792755126953,インターネット,,
34092,熊澤歯科医院,川崎市幸区塚越3-135-4  2F,35.544403076171875,139.67771911621094,インターネット,,
27770,オーベルグランディオ川崎,川崎市幸区神明町1-80-1,35.53757095336914,139.6869659423828,インターネット,,
95645,川崎ハイライズ	,川崎市幸区戸手本町2-396-1,35.539493560791016,139.6877899169922,インターネット,,
457931,西友 川崎神明店,川崎市幸区神明町2-89,35.535563013054386,139.6851493031902,ホームページ,24時間,
35208,東芝労働組合,川崎市幸区神明町2-55,35.53703308105469,139.68692016601562,インターネット,,
136069,ウインベル川崎,川崎市幸区戸手本町2-393-1,35.53995132446289,139.68801879882812,インターネット,,
95642,平安会館さいわい	,川崎市幸区神明町1-72,35.53853988647461,139.68820190429688,インターネット,,
391977,幸風苑,川崎市幸区都町64-1,35.536693173945125,139.6872191136409,ステッカーを目視,,
265784,幸町交番 庁舎内,神奈川県川崎市幸区幸町2-585-1,35.53704071044922,139.6996612548828,神奈川県オープンデータ(2018/10/1時点),,
174510,ノキアソリューションズ＆ネットワークス株式会社 川崎オフィス,川崎市幸区堀川町580-16 川崎テックセンタービル16F,35.5362434387207,139.70066833496094,インターネット,,
156144,全国共済農業協同組合連合会 全国本部 川崎センター	,川崎市幸区堀川町66-2 興和川崎西口ビル4F/ 13F,35.53616714477539,139.70140075683594,インターネット,,
39910,NTTデータジェトロニクス株式会社,川崎市幸区堀川町580番地16　川崎テックセンター15F,35.536094665527344,139.70053100585938,インターネット,,
510054,第一生命保険　川崎支社,川崎市幸区堀川町580-16 川崎テックセンター6階,35.53609430345273,139.70045029698676,ホームページ,,
136065,全国共済農業共同組合連合会 JA共済連川崎センター	,川崎市幸区堀川町66-2,35.53598403930664,139.7015380859375,インターネット,,
95628,日本フィルメニッヒ㈱	,川崎市幸区堀川町66-2　興和川崎西口ビル20階,35.53596878051758,139.7013397216797,インターネット,,
135909,京浜急行電鉄株式会社 川崎事務所,川崎市川崎区本町2-2-3,35.53607177734375,139.70306396484375,インターネット,,
498558,キッズガーデン川崎幸町小規模園,川崎市幸区幸町２丁目６８１−２３,35.53612791041544,139.69866786664218,ストリートビューでステッカーを確認,,
210321,ヤマト科学株式会社 川崎支店,川崎市幸区堀川町580 ソリッドスクエア西館2F,35.535518646240234,139.69960021972656,インターネット,,
218745,群馬銀行　川崎支店,川崎市幸区堀川町580　ソリッドスクエア西館10階,35.53546905517578,139.69979858398438,インターネット,,
136063,（株）ファルテック,川崎市幸区堀川町580　ソリッドスクエア西　19Ｆ,35.535396575927734,139.69949340820312,インターネット,,
136060,キヤノンシステムアンドサポート株式会社 川崎営業所,川崎市幸区堀川町580 ソリッドスクエア西館2F,35.535377502441406,139.69961547851562,インターネット,,
136062,スクエアクリニック,川崎市幸区堀川町580　東館１階,35.53518295288086,139.7001495361328,インターネット,,
279137,ザバススポーツクラブ 川崎,川崎市幸区堀川町580 ソリッドスクエアB1F,35.535221099853516,139.6994171142578,インターネット,,
422354,川崎県民センター,川崎市幸区堀川町580  ソリッドスクエア東館2F,35.53504565803839,139.70023211881409,インターネット,,
72721,ＫＡＮＴＯモータースクール  １Ｆフロント ,川崎市川崎区駅前本町２５－４,35.53488540649414,139.70196533203125,インターネット,,
275771,KDX川崎駅前本町ビル ,神奈川県川崎市川崎区駅前本町25番1号,35.53481674194336,139.70159912109375,,,
520992,まなびの森保育園川崎,神奈川県川崎市幸区幸町4-2-2,35.536301040442005,139.6962117126955,ホームページ,,
267646,河原町ふれあいデイサービスセンター 事務室,神奈川県川崎市河原町ふれあいデイサービスセンター,35.5402717590332,139.69432067871094,神奈川県オープンデータ(2018/10/1時点),,
541360,セブン-イレブン 川崎幸町１丁目店,川崎市幸区幸町１丁目７９０,35.535288249151954,139.697656177255,市ホームページ,,
265785,河原町交番 庁舎内,神奈川県川崎市幸区河原町1-31,35.541812896728516,139.694580078125,神奈川県オープンデータ(2018/10/1時点),,
541357,セブン-イレブン 川崎戸手町店,川崎市幸区戸手４丁目１−１７,35.542440067850116,139.694779054422,市ホームページ,,
72723,東横INN京浜急行川崎駅前  ,川崎市川崎区駅前本町２４－３,35.53400802612305,139.70132446289062,インターネット,,
520993,城南ルミナ保育園川崎,川崎市川崎区駅前本町22-9,35.533865504703265,139.70038147262045,インターネット,,
372989,青木整形外科,川崎市幸区幸町４－１８,35.53558352085903,139.69558703867185,ステッカーを目視　/　ホームページ,,
144872,オーラルデンタルクリニック川崎,川崎市幸区幸町1-993-8,35.534542083740234,139.6970672607422,インターネット,,
476827,トヨタL&F神奈川 川崎営業所,川崎市幸区遠藤町４４,35.54244325546782,139.6937778446471,ストリートビューでステッカーを確認,,
80204,ＡＲＯＭＡ ＫＵＲＡＶＩ	,川崎市川崎区本町2-8-2,35.53428268432617,139.70474243164062,インターネット,,
476826,遠藤町ファミリー歯科,川崎市幸区遠藤町４７,35.5427771732301,139.69375920014912,ストリートビューでステッカーを確認,,
80220,味の素株式会社　川崎工場,川崎市川崎区鈴木町1-1,35.5368537902832,139.72027587890625,インターネット,,
72621,味の素（株）  正門守衛室横,川崎市川崎区鈴木町１－１,35.53556442260742,139.72023010253906,インターネット,,
251947,味の素うま味体験館,川崎市川崎区鈴木町１－１,35.535125732421875,139.7198028564453,インターネット,,
156714,パークホームズグランファースト ブロードコート,川崎市川崎区港町13-2,35.534637451171875,139.7214813232422,実機を目視,24時間可,
156715,パークホームズグランファースト エアリーコート,川崎市川崎区港町13-1,35.534488677978516,139.7205352783203,実機を目視,24時間可,
541326,セブン-イレブン 川崎大師駅前２丁目店,川崎市川崎区大師駅前２丁目３−６,35.5348805916169,139.72368571222108,市ホームページ,,
95618,株式会社エルテックス	,川崎市川崎区港町6-1 味の素株式会社西工場内 事務所棟2階,35.53581619262695,139.7163848876953,インターネット,,
251943,みなとまち歯科,川崎市川崎区港町１２－１　イトーヨーカドー川崎港町店２Ｆ	,35.53426742553711,139.71949768066406,インターネット,,
72620,イトーヨーカドー川崎港町店 ,川崎市川崎区港町１２－１,35.53419876098633,139.71934509277344,インターネット,,
72622,京急線　川崎大師駅  改札口 ,川崎市川崎区大師駅前１－１８,35.53568649291992,139.72616577148438,インターネット,,
541325,セブン-イレブン 川崎大師駅北店,川崎市川崎区中瀬２丁目１,35.53631041575544,139.72703099350764,市ホームページ,,
265773,大師駅前交番 庁舎内,神奈川県川崎市川崎区大師駅前1-18-2,35.535709381103516,139.7265167236328,神奈川県オープンデータ(2018/10/1時点),,
189187,パーラースター,川崎市川崎区大師駅前1-6-4,35.535213470458984,139.7264862060547,インターネット,,
451931,前田建設工業株式会社　川崎六郷シールド５作業所,神奈川県川崎市川崎区港町１２　港町公園内,35.534368600000036,139.7169053,,平日８時半～１７時半（夏季休暇・年末年始除く）,044-221-8168
539579,教育文化会館大師分館,川崎区大師駅前1-1-5,35.53421719,139.7253045,神奈川県川崎市オープンデータ(2025年5月1日時点),右記以外 8時30分 21時00分,
135943,ブックオフ スーパーバザー ４０９号 川崎港町,川崎市川崎区港町12-1,35.533748626708984,139.7178192138672,インターネット,,
498966,メゾンインフィニティ川崎大師,神奈川県川崎市川崎区大師駅前1-6-12,35.5351859413324,139.72761284941816,実機を目視,24時間可,
332146,日産プリンス神奈川　川崎店,川崎市川崎区港町１２−２,35.533339288992934,139.7171272915508,インターネット,,
72625,大師PA（下り）,川崎市川崎区殿町1-4,35.539215087890625,139.74147033691406,ホームページ,,
80203,ＳＫレンタルサービス株式会社	,川崎市川崎区殿町1丁目7-1,35.53834915161133,139.74224853515625,インターネット,,
234039, ラウンドワンスタジアム 川崎大師店,川崎市川崎区殿町１丁目５−１,35.53800964355469,139.74180603027344,インターネット,,
72624,特別養護老人ホームゆとりあ,川崎市川崎区殿町１－１１－１０,35.54013442993164,139.7436981201172,インターネット,,
332836,Dr.Drive川崎大師S.S,川崎市川崎区大師河原2-5-10,35.53713767856519,139.7410262878807,インターネット,,
135929,財団法人 日本相撲協会 春日山部屋,川崎市川崎区大師河原2-5-3,35.53717041015625,139.74002075195312,インターネット,,
541301,セブン-イレブン 川崎浮島通り店,川崎市川崎区殿町１丁目１５−１７,35.5375022740897,139.743464507048,市ホームページ,,
539559,大師河原水防センター,川崎区大師河原1-1-15,35.53998586,139.7369238,神奈川県川崎市オープンデータ(2025年5月1日時点),休館日（月、火、金曜、年末年始）以外 10時00分 16時00分,
352983,川崎ふたば保育園,川崎市川崎区大師河原2-2-2,35.53609374198407,139.73949383070942,保育園運営者,平日土曜7:30-20:00,044-200-4113
12871,川崎ふたば幼稚園,川崎市川崎区大師河原2-3-20,35.53590774536133,139.74090576171875,インターネット,平日7:30-18:00,044-277-6533
539385,殿町老人いこいの家,川崎区殿町1-20-15,35.53872297,139.7458494,神奈川県川崎市オープンデータ(2025年5月1日時点),平日・土曜日 午前9時 午後4時,
539736,殿町小学校,川崎区殿町1-17-19,35.53757944,139.7453102,神奈川県川崎市オープンデータ(2025年5月1日時点),月火水木金 8時30分 21時00分,
539471,殿町こども文化センター,川崎区殿町1-18-13,35.53848425,139.7461883,神奈川県川崎市オープンデータ(2025年5月1日時点),平日・土日祝 9時30分 18時・21時,
265780,出来野交番 庁舎内,神奈川県川崎市川崎区大師河原2-3-16,35.53511047363281,139.7411346435547,神奈川県オープンデータ(2018/10/1時点),,
539838,大師中学校,川崎区大師河原2-1-1,35.53532883,139.7386509,神奈川県川崎市オープンデータ(2025年5月1日時点),- - -,
263265,大東建託 川崎東支店,川崎市川崎区東門前３丁目５－８　  リバーサイド川崎大師　１・２階,35.537010192871094,139.73561096191406,インターネット,,
135921,鈴木医院,川崎市川崎区田町1丁目6-15,35.53453826904297,139.74220275878906,インターネット,,
56305,宇佐美　３５７号川崎大師橋SS,神奈川県川崎市川崎区田町1-4-1,35.53439712524414,139.74169921875,インターネット ,,
332837,出来野ルーテル保育園,川崎市川崎区出来野６−７,35.534704974134385,139.7384252655488,ステッカーを目視,,
135911,医療法人社団恵泉会昭和医院,川崎市川崎区出来野7-20,35.53428649902344,139.73944091796875,インターネット,,
539766,東門前小学校,川崎区東門前3-4-6,35.53629875,139.7354037,神奈川県川崎市オープンデータ(2025年5月1日時点),月火水木金土日 8時00分 17時00分,
80214,リビオ川崎東門前,川崎市川崎区東門前3-10-15,35.53504943847656,139.7368927001953,インターネット,,
19941,セレサ川崎農業協同組合　大師支店,川崎市川崎区出来野6-23,35.534244537353516,139.73863220214844,インターネット,,
189523,田村歯科医院,川崎市川崎区東門前1-17-1 クリエイトビル川崎大師101,35.53647994995117,139.7347412109375,インターネット,,
238965,カーブス川崎東門前,川崎市川崎区東門前３－１１－１４丸伊ビル１Ｆ,35.534420013427734,139.7371826171875,インターネット,,
465458,グッドタイムナーシングホーム・大師弐番館,川崎市川崎区出来野５−３,35.53379026310785,139.7385541329126,ストリートビューでステッカーを確認,,
251356,アクトスWill_Gホームズ川崎大師,川崎市川崎区中瀬3-20-20 ホームズ川崎大師店2階,35.53785705566406,139.73341369628906,インターネット,,
251945,SPACE川崎インドア　2Fフロント,川崎市川崎区日の出1-12-21　,35.53349685668945,139.74217224121094,インターネット,,
72623,島忠ホームズ川崎大師店,川崎市川崎区中瀬３－２０－２０,35.53764724731445,139.7331085205078,ホームページ,,
80201,ザクス	,川崎市川崎区中瀬3-20-15,35.539581298828125,139.73257446289062,インターネット,,
251944,東門前みなとまち歯科,川崎市川崎区中瀬３－２０　島忠ホームズ川崎大師店２Ｆ	,35.53782653808594,139.73280334472656,インターネット,,
135934,グランアビスタ川崎大師,川崎市川崎区中瀬3-21-7,35.536800384521484,139.73263549804688,インターネット,,
174716,横浜銀行　大師支店,川崎市川崎区東門前２−５−８,35.534019470214844,139.73501586914062,インターネット,,
539772,大師小学校,川崎区東門前2-6-1,35.53359183,139.7354856,神奈川県川崎市オープンデータ(2025年5月1日時点),月火水木金 8時30分 21時00分,
352669,わーくす大師,川崎市川崎区東門前１丁目１１−６,35.5350469416866,139.73324862798242,ステッカーを目視,,
541419,緑成会 特別養護老人ホーム新緑の郷,川崎市高津区久末473番地14,35.56211853228708,139.61745668323886,ストリートビューでステッカーを確認,,
541418,セブン-イレブン 川崎久末団地店,川崎市高津区久末３３８−３,35.56235023865661,139.61533721996173,市ホームページ,,
76530,ヒルサイド久末	,川崎市高津区久末474-1,35.56354522705078,139.61734008789062,インターネット,,
242145,よろこび久末,川崎市高津区久末1800-26,35.56428146362305,139.62791442871094,実物を目視,,
36492,グランダ日吉　（１Ｆ事務所）,川崎市中原区井田2-15-6,35.5592041015625,139.6427459716797,インターネット,,
136056,デイサービス笑い門,川崎市幸区北加瀬3-19-7,35.55507278442383,139.661376953125,ステッカーを目視,,
189341,株式会社 旅館ランドリー 川崎工場	,川崎市幸区矢上15-5,35.55469512939453,139.65945434570312,インターネット,,
265790,北加瀬交番 庁舎内,神奈川県川崎市幸区矢上15-1,35.554107666015625,139.65931701660156,神奈川県オープンデータ(2018/10/1時点),,
423275,障がい者福祉サービス事業所　パセオやがみ,川崎市幸区矢上４−３,35.55464629284357,139.65857836748177,ストリートビューでステッカーを確認,,
222632,ウエインズトヨタ神奈川 北加瀬店,川崎市幸区矢上5-5,35.553733825683594,139.65896606445312,ホームページ,,
12395,リンクス新川崎  １Ｆ受付 ,川崎市幸区北加瀬2-1-12,35.55290985107422,139.66314697265625,インターネット,,
446010,三菱ふそうトラック・バス株式会社   正門守衛室,川崎市中原区大倉町10,35.556624853927445,139.66415620918144,インターネット,,
407217,エニタイムフィットネス　コトニアガーデン新川崎店,川崎市幸区北加瀬 2-11-1 コトニアガーデン新川崎 2F,35.55225306655113,139.66283458810327,ホームページ,,
541370,セブン-イレブン 川崎北加瀬店,川崎市幸区北加瀬２丁目１−３,35.55262162986678,139.66396020830862,市ホームページ,,
397783,ジェクサー・プラチナジム コトニアガーデン新川崎店,川崎市幸区北加瀬2-11-3,35.551789349969944,139.66308791816272,ホームページ,,
392322,新川崎えほんの森保育園,川崎市幸区北加瀬１丁目１０−１,35.55224410249238,139.66414832646905,ステッカーを目視,,
251955,わかば子供クリニック,川崎市中原区西加瀬17-8　エクセレントビュー元住吉1F,35.55830001831055,139.65830993652344,インターネット,,
337275,新川崎みらいのそら保育園,川崎市幸区北加瀬１丁目９−１,35.55217678814962,139.66445946833855,ステッカーを目視,,
75680,三菱ふそうトラック・バス㈱　川崎工場内,川崎市中原区大倉町10番地,35.55768966674805,139.66464233398438,インターネット,,
251956,三菱ふそうトラック・バス㈱　川崎工場正門警備室,川崎市中原区西加瀬50,35.55947494506836,139.66217041015625,インターネット　/　ステッカーを目視,,
267570,中原消防署苅宿出張所 1階受付,神奈川県川崎市中原消防署苅宿出張所,35.55976104736328,139.66241455078125,神奈川県オープンデータ(2018/10/1時点),,
342640,大楽幼稚園,川崎市中原区木月４丁目２２−３２,35.55900260653669,139.6570291158477,ステッカーを目視,,
251958,三菱ふそうトラック・バス㈱　川崎工場　北門警備室,川崎市中原区大倉町10番地,35.559478759765625,139.6649932861328,インターネット　/　ステッカーを目視,,
441766,南加瀬ファミリークリニック,川崎市幸区南加瀬2-6-8　南加瀬メディカルモール2階,35.549532595177205,139.65984409607253,ホームページ,,
441767,南加瀬ファミリークリニック,川崎市幸区南加瀬2-6-8　南加瀬メディカルモール2階,35.549532595177205,139.65984409607253,ホームページ,,
72678,朝日電気株式会社 ,川崎市中原区苅宿２９－２５,35.56037139892578,139.66517639160156,インターネット,,
91761,神奈川県警察 第二機動隊,川崎市中原区木月4-37-1,35.55793380737305,139.65390014648438,インターネット,,
136070,株式会社 ショウエイ 組立工場,川崎市幸区新川崎2-6,35.557857513427734,139.66819763183594,インターネット,,
446344,木月四丁目共和会館,川崎市中原区木月4-14-7,35.560228965470515,139.6556239504463,ストリートビューでステッカーを確認,,
345942,ケアパートナー新川崎,川崎市幸区南加瀬２丁目２９−１,35.54803649753007,139.6602236387722,ステッカーを目視,,
330964,キディ古市場保育園,川崎市幸区古市場２丁目９７,35.55487895339643,139.6825439305311,ステッカーを目視,,
240214,ナカオカクリニック,川崎市幸区下平間３８,35.55457305908203,139.67926025390625,インターネット,,
267562,特別養護老人ホームひらまの里 1階警備員室,神奈川県川崎市特別養護老人ホームひらまの里,35.556854248046875,139.68136596679688,神奈川県オープンデータ(2018/10/1時点),,
330963,トヨタモビリティ神奈川 鹿島田店,川崎市中原区上平間１１６９−１５,35.55507894467602,139.67855947498322,ホームページ,,
267564,第1配水工事事務所 事務所玄関,神奈川県川崎市第1配水工事事務所,35.5546760559082,139.67803955078125,神奈川県オープンデータ(2018/10/1時点),,
72612,川崎信用金庫古市場出張所  １Ｆ窓口職員側 ,川崎市幸区古市場１－３２－５,35.55415725708008,139.68385314941406,インターネット,,
189530,株式会社片山,川崎市幸区古市場1-34,35.55310821533203,139.68310546875,インターネット,,
265789,下平間交番 庁舎内,神奈川県川崎市幸区下平間208-12,35.55250549316406,139.6803741455078,神奈川県オープンデータ(2018/10/1時点),,
265788,古市場交番 庁舎内,神奈川県川崎市幸区古市場2-135,35.55459213256836,139.68414306640625,神奈川県オープンデータ(2018/10/1時点),,
136053,川崎医療生活協同組合川崎セツルメント診療所,川崎市幸区古市場2丁目67,35.55270767211914,139.68246459960938,インターネット,,
76197,ASA新川崎事務所,川崎市幸区古市場2-106-3,35.5546989440918,139.6842803955078,実物を目視,平日、土日,
541373,セブンイレブン　古市場店,川崎市幸区古市場1-32,35.5540623548103,139.68411923204678,市ホームページ,,
344148,メディホープかながわビル,川崎市中原区上平間1264-1,35.55781900978708,139.67928811983083,インターネット,,
541372,セブン-イレブン 川崎鹿島田店,川崎市幸区下平間２１３−１,35.551687609251566,139.68044855328858,市ホームページ,,
84607,クレッセント新川崎エグゼ,川崎市中原区上平間1488,35.55706024169922,139.6774444580078,目視確認,,
251964,松村歯科,川崎市幸区下平間223,35.551448822021484,139.68112182617188,インターネット,,
261953,小鳩幼稚園,川崎市幸区古市場1772,35.55131530761719,139.68190002441406,インターネット,,
72616,川崎信用金庫　鹿島田支店  １Ｆ待合ロビー ,川崎市幸区下平間１０７－５,35.5517692565918,139.67822265625,インターネット,,
267684,幸消防署平間出張所 1階受付,神奈川県川崎市幸消防署平間出張所,35.553836822509766,139.67630004882812,神奈川県オープンデータ(2018/10/1時点),,
332863,Dr.Drive下平間S.S,川崎市幸区下平間248,35.5508408590701,139.68163103447296,ホームページ,,
274499,南武線,川崎市幸区下平間１１１,35.551639556884766,139.6775665283203,インターネット,,
476749,フロール川崎下平間　2番館,川崎市幸区下平間214-1,35.55036238929568,139.68136427230604,ストリートビューでステッカーを確認,,
352714,カーブス 鹿島田,川崎市幸区下平間１３０ コスモ鹿島田 3F,35.55147306558281,139.6770991953393,ホームページ,,
274500,横浜銀行 鹿島田支店,川崎市幸区下平間１４４,35.55122375488281,139.67713928222656,インターネット,,
251963,鹿島田病院,川崎市幸区鹿島田1丁目21番20号,35.5527229309082,139.6755828857422,インターネット,,
156368,富士古河Ｅ＆Ｃ株式会社 鹿島田寮,川崎市幸区下平間153,35.55044937133789,139.67807006835938,インターネット,,
251962,ふくじゅ保育園,川崎市幸区鹿島田１０８２－１,35.55386734008789,139.67481994628906,インターネット,,
422368,心体機能訓練処きあい別館,川崎市中原区上平間1340-43,35.55820921084634,139.67585375374466,ストリートビューでステッカーを確認,,
156369,眼科小鹿倉医院,川崎市幸区下平間144,35.55070495605469,139.677001953125,インターネット,,
156370,眼科小鹿倉医院,川崎市幸区下平間144,35.55070495605469,139.677001953125,インターネット,,
265804,上平間交番 庁舎内,神奈川県川崎市中原区上平間1340-42,35.55835723876953,139.67578125,神奈川県オープンデータ(2018/10/1時点),,
156683,さいわい鹿島田クリニック,川崎市幸区新塚越201 ルリエ新川崎3F,35.55085754394531,139.6763458251953,インターネット,,
496254,マルエツ 鹿島田店,川崎市幸区新塚越20 ルリエ新川崎,35.550769150172066,139.67629512713273,ホームページ,,
265384,"神奈川県立川崎工科高等学校 ①事務室前
②体育館前",神奈川県川崎市中原区上平間1700-7,35.557682037353516,139.67471313476562,神奈川県オープンデータ(2018/10/1時点),8:30～17:00 (通年休業日)土日及び祝日並びに学年始、夏季、冬季及び学年末休業,
379354,ミアヘルサ保育園ひびき   鹿島田,川崎市幸区下平間143-16,35.54991793670265,139.67754084699877,ホームページ,,
337107,鹿島田もりのこ保育園,川崎市幸区下平間290 日光第一ビル一階,35.54921220259239,139.68215580689503,ホームページ,,
211027,薬 マツモトキヨシ 鹿島田駅ビル店,神奈川県川崎市幸区鹿島田1006,35.55125427246094,139.67543029785156,インターネット,,
261881,小向このはな園,川崎市幸区小向仲野町３－１,35.552059173583984,139.69549560546875,インターネット,,
401804,多摩川交流センター,川崎市幸区古市場１２３０−２,35.55355905155611,139.69437566306036,インターネット,,
95639,小規模多機能ホーム 奏	,川崎市幸区小向仲野町1-24,35.5503044128418,139.69436645507812,インターネット,,
72614,東芝マイクロエレクトロニクス  正面玄関ロビー３Ｆ廊下１０８棟３Ｆ廊下 ,川崎市幸区小向東芝町１,35.551387786865234,139.69297790527344,インターネット,,
422328,ゆらりん家・KIDSゆらりん,川崎市麻生区岡上710-1,35.57946028976411,139.48399142798442,ホームページ,,
261960,ゆらりん,川崎市麻生区岡上４丁目２−２６,35.580440521240234,139.48052978515625,ストリートビューでステッカーを確認,,
265843,岡上駐在所 庁舎内,神奈川県川崎市麻生区岡上234-4,35.580299377441406,139.48501586914062,神奈川県オープンデータ(2018/10/1時点),,
201199,高齢者グループホーム　みのりの家麻生,川崎市麻生区下麻生３－４１－２０,35.572261810302734,139.510009765625,日本救急医療財団 全国AEDマップ,,
391083,かさい歯科医院,川崎市麻生区下麻生3-19-22 エトワール柿生2Ｆ,35.57751702874642,139.50649232409168,インターネット,,
332273,日産プリンス神奈川　麻生柿生店,川崎市麻生区上麻生７丁目４３−１８,35.5783479110246,139.50422528295246,インターネット,,
156661,トヨタモビリティ神奈川 麻生店,川崎市麻生区上麻生7-23-22,35.578887939453125,139.5024871826172,ホームページ,,
239178,はじめの一歩保育園,川崎市麻生区上麻生７－４１－５,35.57896423339844,139.50474548339844,インターネット,,
49113,柿の実幼稚園 １Ｆ廊下,川崎市麻生区上麻生７－４１ －４,35.57887268066406,139.5054168701172,インターネット,,
541465,セブン-イレブン 川崎有馬６丁目店,川崎市宮前区有馬６丁目２−１２,35.571478338490955,139.58081181419388,市ホームページ,,
265822,有馬交番 庁舎内,神奈川県川崎市宮前区有馬7-3-2,35.57143783569336,139.5802764892578,神奈川県オープンデータ(2018/10/1時点),,
266134,有馬交番 庁舎内,神奈川県川崎市宮前区有馬7-3-2,35.57143783569336,139.5802764892578,神奈川県オープンデータ(2018/10/1時点),,
274271,ライフ有馬五丁目店,川崎市宮前区有馬５丁目２１−１５,35.57209777832031,139.58155822753906,ホームページ,,
541466,セブン-イレブン 川崎有馬７丁目店,川崎市宮前区有馬７丁目１２−１,35.57027165624187,139.57510115608918,市ホームページ,,
332865,Dr.Driveさぎ沼SS,川崎市宮前区有馬8-8-3,35.5742703057218,139.57690701794013,ホームページ,,
33032,東横恵愛病院   Ａ－１病棟/ Ａ－２病棟/ Ｃ棟３Ｆ,川崎市宮前区有馬4-17-23,35.575435638427734,139.58279418945312,インターネット,,
265387,"神奈川県立川崎北高等学校 ①事務室
②体育館",神奈川県川崎市宮前区有馬3-22-1,35.57383728027344,139.58631896972656,神奈川県オープンデータ(2018/10/1時点),8:30～17:00 (通年休業日)土・日・祝日・年末年始,
393687,鷺沼ピノキオ保育園,川崎市宮前区東有馬４丁目５−２０,35.56999054831621,139.58848674144747,ステッカーを目視,,
49254,サギヌマスイミングクラブ鷺沼,川崎市宮前区有馬４－３－２１,35.576080322265625,139.57911682128906,インターネット,,
526690,トヨタ モビリティパーツ 神奈川支社 高津店,川崎市宮前区有馬３丁目１３−７,35.575703944972624,139.5847701202694,ストリートビューでステッカーを確認,,
262012,ＡＳＡ鷺沼　得配市場販売センター,川崎市宮前区有馬4-4-1　アイビー鷺沼１Ｆ,35.576698303222656,139.58035278320312,インターネット,,
72671,有馬病院,川崎市宮前区有馬３－１０－７,35.576236724853516,139.58436584472656,インターネット,,
377582,くらしの友　鷺沼総合斎場,川崎市宮前区有馬1-24-16,35.577150928503656,139.58059877891063,ホームページ,,
279527,メガロス 鷺沼 ,川崎市宮前区有馬1丁目21-3,35.57661056518555,139.57705688476562,インターネット,,
136964,鷺沼ハイライズ,川崎市宮前区鷺沼1-6-7,35.576114654541016,139.5758819580078,インターネット,,
279528,明日葉保育園 鷺沼園 ,川崎市宮前区鷺沼１丁目6−3,35.57585906982422,139.5750274658203,ステッカーを目視,,
189419,こにしクリニック,川崎市宮前区鷺沼1-3-13,35.576725006103516,139.57521057128906,インターネット,,
279529,わらべうた 鷺沼保育園,川崎市宮前区鷺沼１丁目８−５,35.57528305053711,139.57315063476562,ステッカーを目視,,
541464,アクアビル,川崎市宮前区東有馬３丁目１５−１０,35.57128889743165,139.5910718017911,ストリートビューでステッカーを確認,,
422288,クラーチ・ファミリア宮前,川崎市宮前区宮前区東有馬１丁目１６−８,35.57488458661459,139.5896593688663,ストリートビューでステッカーを確認,,
331095,トヨタモビリティ神奈川 さぎ沼店,川崎市宮前区有馬３丁目３−６,35.57786971925679,139.58646428310158,ホームページ,,
144921,鷺沼東パークホームズ	,川崎市宮前区有馬2-7-15,35.578800201416016,139.5836944580078,インターネット,,
174569,鷺沼人工腎臟石川クリニック,川崎市宮前区鷺沼1丁目10-3,35.57719421386719,139.5739288330078,インターネット,,
344588,もと歯科医院クリニック,川崎市宮前区鷺沼１－１０－４４－１Ａ,35.57767881264593,139.57459973473036,インターネット,,
344224,西有馬 おひさま保育園,川崎市宮前区有馬１丁目８−６,35.57925102101287,139.57878279171055,ステッカーを目視,,
49253,ルミエール小児歯科　１階診療室,川崎市宮前区鷺沼１－２－２,35.578216552734375,139.57501220703125,インターネット,,
267949,宮前消防署宮崎出張所 1階受付,神奈川県川崎市宮前消防署宮崎出張所,35.57902145385742,139.585205078125,神奈川県オープンデータ(2018/10/1時点),,
343969,セントケア宮前野川,川崎市宮前区野川３２２０−１,35.57168441227,139.60339541178854,インターネット,,
541459,セブン-イレブン 川崎野川台店,川崎市宮前区野川 台１丁目２７−１０,35.574279368342076,139.60329801200058,市ホームページ,,
391017,久世歯科医院,川崎市宮前区野川台２丁目4−２１,35.57470562944885,139.60055894025288,ステッカーを目視,,
267938,宮前消防署野川出張所 1階受付,神奈川県川崎市宮前消防署野川出張所,35.57191848754883,139.6068572998047,神奈川県オープンデータ(2018/10/1時点),,
31299,川崎信用金庫　有馬支店,川崎市宮前区東有馬3-19-2,35.57173156738281,139.59461975097656,インターネット,,
393686,はなみずき保育園,川崎市宮前区東有馬５丁目２３−４３,35.570759819571435,139.59430729205343,ステッカーを目視,,
541463,セブン-イレブン 川崎東有馬店,川崎市宮前区東有馬５丁目２３−２０,35.571345053337474,139.59443223699097,市ホームページ,,
49255,ケアハウス青田風　１階フロアー,川崎市宮前区野川３１３４－５,35.57508850097656,139.60423278808594,インターネット,,
267940,れいんぼう川崎 2階玄関,神奈川県川崎市れいんぼう川崎,35.56889343261719,139.59373474121094,神奈川県オープンデータ(2018/10/1時点),,
375880,グループホームみんなの家・川崎野川南台,川崎市宮前区南野川2−３８−５,35.56779636245651,139.60820111364094,ホームページ,,
541462,セブン-イレブン 川崎野川台西店,川崎市宮前区西野川１丁目５−４６,35.57622751960319,139.59797349017745,市ホームページ,,
72672,こども元気内科クリニック  診療室 ,川崎市宮前区野川３０００,35.5761604309082,139.59678649902344,インターネット,,
343724,みかど荘,川崎市宮前区野川１４１３,35.57084033873143,139.61040570116234,ステッカーを目視,,
116519,学）持田学園 有馬白百合幼稚園,川崎市宮前区東有馬2-35-30,35.57379150390625,139.59225463867188,インターネット,,
27761,セレサ川崎農業協同組合　野川支店,川崎市宮前区野川1094-1,35.57400131225586,139.61117553710938,インターネット,,
412484,コーナン宮前上野川店,川崎市宮前区西野川1丁目33番44号,35.57795848635169,139.60751027079846,ホームページ,,
348082,愛の家グループホーム 高津野川,川崎市高津区東野川2-25-1,35.56573555483927,139.61227057131308,ホームページ,,
343723,ティンクル くぬぎ坂保育園,川崎市宮前区野川１４８３−１,35.57153545482448,139.6134730888087,ステッカーを目視,,
541420,セブン-イレブン 川崎高津野川店,川崎市高津区東野川２丁目３７−６,35.56447008146616,139.6117399811967,市ホームページ,,
49257,東急テクノシステム（ ㈱）　１Ｆ事務所,川崎市宮前区東有馬２－２－１５,35.577659606933594,139.59243774414062,インターネット,,
343731,ティンクル上野川保育園,川崎市宮前区 野川１８８,35.57722794981485,139.61022658932663,ステッカーを目視,,
541423,セブン-イレブン 川崎久末北店,川崎市高津区久末１９６５−１,35.57074754494464,139.62208713821445,市ホームページ,,
265813,久末交番 庁舎内,神奈川県川崎市高津区久末1281-7,35.569400787353516,139.62228393554688,神奈川県オープンデータ(2018/10/1時点),,
251966,アミカの郷ちとせ,川崎市高津区千年７６番地,35.57280731201172,139.62222290039062,インターネット,,
390970,ヒトミ歯科,川崎市高津区千年2-1,35.571644899616494,139.62442106356642,インターネット,,
541422,セブン-イレブン 川崎野川東店,川崎市高津区東野川１丁目４−１３,35.57290276256755,139.61815674805987,市ホームページ,,
219983,Ｈｏｎｄａ　Ｃａｒｓ　神奈川東　高津店,神奈川県川崎市高津区野川３７１２,35.57292556762695,139.61793518066406,インターネット,,
541424,セブン-イレブン 川崎久末店,川崎市高津区久末２１４８,35.567959003874215,139.62503107050912,市ホームページ,,
240057,フィットケアデポ野川店,川崎市高津区野川３７０３,35.573238372802734,139.61825561523438,インターネット,,
541421,セブン-イレブン 川崎野川くぬぎ坂店,川崎市高津区東野川１丁目１９−２９,35.5708748984528,139.6161940369521,市ホームページ,,
49256,川崎信用金庫野川支店　１階ロビー,川崎市宮前区野川５３５－２,35.573829650878906,139.61837768554688,インターネット,,
332151,日産プリンス神奈川　野川店,川崎市高津区東野川１−１−６１,35.57460072157162,139.62061119829673,インターネット,,
225414,吉兆川崎野川店,川崎市高津区野川1194-1,35.57176208496094,139.61573791503906,インターネット,,
422248,株式会社　丸井電設,川崎市高津区子母口９８７番地,35.56960753676364,139.62717650897005,ストリートビューでステッカーを確認,,
72675,サンシャイン川崎宮前  １階受付,川崎市宮前区野川５１８,35.57560729980469,139.61865234375,インターネット,,
343722,オーケー 野川店,川崎市宮前区野川本町２丁目３２−７,35.5727876790827,139.6143892831016,ステッカーを目視,,
284429,クリエイト薬局ちとせ店内,川崎市高津区千年301-1グランドコスモ千年101,35.57622528076172,139.62442016601562,,月､火､水､金､9:00~19:00  土､9:00~17:00,
240056,フィットケアデポ久末店,川崎市高津区野川３９３１番１,35.565650939941406,139.6135711669922,インターネット,,
274272,ライフ子母口店,川崎市高津区子母口字旭田284,35.57158279418945,139.63027954101562,ホームページ,,
541426,セブン-イレブン 川崎子母口店,川崎市高津区子母口３９３−５,35.57467569804839,139.62865037505043,市ホームページ,,
76526,とんでん 子母口店	,川崎市高津区子母口281-2,35.5721435546875,139.63026428222656,インターネット,,
3818,若竹幼稚園　（３Ｆ職員室）,川崎市高津区子母口416,35.5755500793457,139.62855529785156,インターネット,,
265812,千年交番 庁舎内,神奈川県川崎市高津区千年625,35.576263427734375,139.62767028808594,神奈川県オープンデータ(2018/10/1時点),,
267757,高津消防署子母口出張所 1階受付,神奈川県川崎市高津消防署子母口出張所,35.57172393798828,139.6309814453125,神奈川県オープンデータ(2018/10/1時点),,
136418,ゆめこどもクリニック,川崎市高津区野川3950 久末メディカルビレッジB棟2F,35.56493377685547,139.61253356933594,ストリートビューでステッカーを確認,,
147533,横浜信用金庫　千年支店　ＡＴＭコーナー,川崎市高津区千年６２０－５,35.57674026489258,139.6278533935547,インターネット,,
398320,スズキアリーナ高津,川崎市高津区 子母口339-3,35.572390090829174,139.63137854922292,ホームページ,,
348083,愛の家グループホーム 宮前野川,川崎市宮前区野川本町1-19-38,35.577587380845955,139.61497560689503,ホームページ,,
95648,山本医院	,川崎市高津区子母口728-4,35.56935119628906,139.63221740722656,インターネット,,
329252,そうごう薬局　子母口店,川崎市高津区子母口４９７－２,35.57209267417152,139.63209900871277,インターネット,,
541425,セブン-イレブン 川崎子母口東店,川崎市高津区子母口４９６,35.572763137205676,139.63192502143534,市ホームページ,,
343979,介護付有料老人ホーム　 ニチイホーム元住吉,川崎市中原区下小田中６丁目２６−２０,35.57094476714968,139.64050689500127,ステッカーを目視,,
275343,アスク下小田中保育園,川崎市中原区下小田中3-29-16,35.572113037109375,139.64202880859375,インターネット,,
337138,まなびの森保育園　武蔵中原,川崎市中原区下小田中6-15-13,35.57199969713873,139.63907549914836,ホームページ,,
348081,愛の家グループホーム 中原下小田中,川崎市中原区下小田中3-28-18,35.5723777537833,139.64260451364095,ホームページ,,
240067,フィットケアデポ下小田中店,川崎市中原区下小田中６−２８−１８,35.570438385009766,139.6376190185547,インターネット ,,
541403,セブン-イレブン 川崎井田三舞町店,川崎市中原区井田三舞町６−４２,35.57045055675648,139.64518129689841,市ホームページ,,
541407,セブン-イレブン 川崎下小田中店,川崎市中原区下小田中６丁目３−１,35.57358343272176,139.63983200073935,市ホームページ,,
72676,井田共和会館 ,川崎市中原区井田中ノ町１３－２４,35.56650161743164,139.64273071289062,インターネット,,
332972,株式会社リブワークス東神奈川支店,神奈川県川崎市高津区明津80,35.56658857931129,139.63852704319993,,平日8時30分～17時30分,
240058,フィットケアデポ明津店,川崎市高津区明津２４０,35.5666389465332,139.6378936767578,インターネット,,
265801,下小田中交番 庁舎内,神奈川県川崎市中原区下小田中6-6-11,35.573795318603516,139.63865661621094,神奈川県オープンデータ(2018/10/1時点),,
174994,杉本電機産業㈱ 中原営業所,川崎市高津区明津141,35.567726135253906,139.63658142089844,インターネット,,
391370,川崎子母口雲母保育園,川崎市高津区子母口５４５−１,35.57110902037765,139.6352535568552,ステッカーを目視,,
384505,もとい歯科クリニック,川崎市高津区子母口６９５－１　パークビュー宮台１Ｆ,35.56867662784807,139.63511987891061,ステッカーを目視,,
239348,こやま歯科医院,川崎市中原区下小田中６－２１－８,35.57181167602539,139.63526916503906,インターネット,,
344558,さかもと内科クリニック,川崎市中原区井田１－３６－３　１Ｆ,35.5650542727872,139.63997240200158,インターネット,,
91740,ライフデンタルクリニック	,川崎市中原区井田1-36-3,35.56504821777344,139.63983154296875,インターネット,,
156280,すずき耳鼻咽喉科クリニック	,川崎市中原区井田1-36-3 メディパーク川崎井田2F,35.56502914428711,139.639892578125,インターネット,,
265800,井田交番 庁舎内,神奈川県川崎市中原区井田中ﾉ町20-1,35.56522750854492,139.6431427001953,神奈川県オープンデータ(2018/10/1時点),,
28161,セレサ川崎農業協同組合　子母口支店,川崎市高津区子母口541-1,35.570335388183594,139.6346893310547,インターネット,,
539448,聴覚障害者情報文化センター,川崎市中原区井田三舞町14-16,35.56877225,139.6473417,神奈川県川崎市オープンデータ(2025年5月1日時点),火～日 9時 21時,
274273,ライフ中原井田店,川崎市中原区井田１丁目３３−１６,35.564659118652344,139.6412353515625,ホームページ,,
156475,中島クリニック,川崎市中原区井田中ノ町8-36,35.56609344482422,139.6455078125,インターネット,,
4380,川崎市　西部公園事務所,川崎市高津区子母口565,35.56990051269531,139.63429260253906,インターネット,,
390890,いまにし歯科医院,川崎市中原区井田中ノ町８−８ ゾンネンハイム 元 住吉 1F,35.5653033094421,139.6445052279844,ホームページ,,
80973,川崎信用金庫　子母口支店,川崎市高津区子母口564-1,35.57019805908203,139.6341094970703,インターネット,,
337143,武蔵中原もりのこ保育園,川崎市中原区下小田中3-7-20,35.5743691023547,139.64591150333933,ホームページ,,
139092,いなげや川崎下小田中店,川崎市中原区下小田中2-35-1 ,35.57590103149414,139.6428985595703,現地確認,09:00 ～ 22:00,
541406,セブン-イレブン 川崎下小田中東店,川崎市中原区下小田中３丁目７−１５,35.574307729226625,139.6463563137672,市ホームページ,,
335466,むさし歯科医院,川崎市中原区木月大町1-1,35.57304146906542,139.64770545632177,ホームページ,,
174561,武蔵中原ガーデンハウス,川崎市中原区下小田中4-20-28,35.57534408569336,139.63681030273438,インターネット,,
541404,セブン-イレブン 川崎井田２丁目店,川崎市中原区井田２丁目３５−１０,35.563572417118806,139.64033505946404,ホームページ,,
267580,中原消防署井田出張所 1階受付,神奈川県川崎市中原消防署井田出張所,35.563961029052734,139.64413452148438,神奈川県オープンデータ(2018/10/1時点),,
541401,セブン-イレブン 川崎木月祗園町店,川崎市中原区木月祗園町１−４,35.567322830944384,139.6484639605976,市ホームページ,,
156570,トヨタモビリティ神奈川 中古車タウン中原,川崎市高津区子母口327,35.57087707519531,139.63272094726562,ホームページ,,
392575,武蔵小杉おおぞら保育園,川崎市中原区今井西町11-12,35.57442228373375,139.64736315166968,ステッカーを目視,,
156664,トヨタモビリティ神奈川 中原店,川崎市高津区子母口516,35.57132339477539,139.63278198242188,ホームページ,,
144878,すみのえ幼稚園,川崎市中原区下小田中2-32-20,35.57680892944336,139.64112854003906,インターネット,,
18292,セレサ川崎農業協同組合　住吉支店,川崎市中原区井田中ノ町2-4,35.56541061401367,139.64727783203125,インターネット,,
391980,もえぎの丘,川崎市中原区井田3-14-1,35.56430558962639,139.63622095596884,ステッカーを目視,,
136300,信号器材株式会社,川崎市中原区市ノ坪160,35.570438385009766,139.66062927246094,インターネット,,
91738,内田クリニック,川崎市中原区市ノ坪223-101,35.57006072998047,139.65940856933594,インターネット,,
136303,ザ コスギタワー ,神奈川県川崎市中原区中丸子１３－１７,35.571659088134766,139.6620330810547,インターネット,,
330646,アイン武蔵小杉保育園,川崎市中原区中原区中丸子１２４６−６,35.569469408126906,139.66321819473512,ステッカーを目視,,
136304,コスモシティ武蔵小杉,川崎市中原区中丸子1246-1,35.5698127746582,139.66339111328125,インターネット,,
136311,小杉内科ファミリークリニック,神奈川県川崎市中原区中丸子13-21　LROCKS 2階,35.57146072387695,139.66275024414062,インターネット,,
380469,どらっぐぱぱす 武蔵小杉店,川崎市中原区 中丸子13-21 LROCKS 1F,35.57151212978144,139.6627293481475,ステッカーを目視,,
343990,（株）平山ファインテクノ,川崎市中原区中丸子１７４,35.56902998063135,139.66353962468602,インターネット,,
541383,グランダ武蔵小杉,川崎市中原区市ノ坪３７３−５,35.56801157655518,139.66248627536842,ストリートビューでステッカーを確認,,
390117,武蔵小杉デンタルクリニック,川崎市中原区中丸子13番地20,35.571769201181255,139.6628844525213,ホームページ　/　ステッカーを目視,,
423347,ナイスシティイアリーナ武蔵小杉エア衛―コート,神奈川県川崎市中原区中丸子35-13,35.57082995138451,139.66412240278285,インターネット,,
541382,セブン-イレブン 川崎中原市ノ坪店,川崎市中原区市ノ坪３８１−１,35.568029911660446,139.66340101749367,市ホームページ,,
215275,野村證券　武蔵小杉支店,川崎市中原区中丸子13番地2　野村不動産武蔵小杉ビルN棟,35.57242965698242,139.66294860839844,インターネット,,
265386,神奈川県立住吉高等学校 ①正面玄関　②体育準備室,神奈川県川崎市中原区木月住吉町34-1,35.567325592041016,139.65957641601562,神奈川県オープンデータ(2018/10/1時点),8：30～17：00 (通年休業日)土、日、祝、年末年始休,
520995,すみれ保育園,川崎市中原区木月住吉町１−１２,35.570958712025664,139.65758206166035,インターネット,,
91742,株式会社富士通エフサス,川崎市中原区中丸子13番地2 野村不動産武蔵小杉ビル N棟,35.572750091552734,139.6628875732422,インターネット,,
39021,サポートハウス「わにの家」,川崎市中原区今井南町561-9,35.57023620605469,139.6566925048828,インターネット,,
490027,ニチイキッズ武蔵小杉保育園,神奈川県川崎市中原区中丸子1195-1,35.56945230767428,139.66527710089258,,,
39048,セントラルフィットネスクラブ武蔵小杉,川崎市中原区新丸子東3-1159,35.573646545410156,139.662109375,インターネット,,
72677,関東労災病院  各階外来棟ＥＶホール,川崎市中原区木月住吉町１－１,35.568328857421875,139.65684509277344,インターネット,,
337123,小杉もりのこ保育園,川崎市中原区市ノ坪386-4,35.567885754048916,139.664837242477,ホームページ,,
541496,エニタイムフィットネス武蔵小杉市ノ坪店,川崎市中原区市ノ坪３８６−２,35.5673195582498,139.66434104890786,ホームページ,,
20706,クレアーレ東芝　元住吉,川崎市中原区木月住吉町29-10,35.56621551513672,139.66029357910156,インターネット,,
541395,セブン-イレブン 川崎市ノ坪西店,川崎市中原区市ノ坪３６−１,35.57298579300032,139.6580545945391,市ホームページ,,
189048,グランツリー武蔵小杉,川崎市中原区新丸子東3-1135,35.573856353759766,139.6604461669922,インターネット,,
265802,木月交番 庁舎内,神奈川県川崎市中原区木月住吉町1-2,35.56705093383789,139.6572265625,神奈川県オープンデータ(2018/10/1時点),,
541386,セブン-イレブン グランツリー武蔵小杉前店,川崎市中原区新丸子東３丁目１１１１−１４,35.57421406553871,139.66202620370757,市ホームページ,,
337132,まなびの森保育園　小杉,川崎市中原区新丸子東3-1241-4,35.5740096220581,139.66325115203824,ホームページ,,
202402,神奈川銀行　中原支店,川崎市中原区市ノ坪３０－１,35.57356262207031,139.65773010253906,インターネット,,
340495,共創未来 元住吉薬局,川崎市中原区木月住吉町２−２５,35.566855273818106,139.6569844694504,ステッカーを目視,,
240061,フィットケアデポ小杉店,川崎市中原区小杉町３−４４１,35.57405471801758,139.65850830078125,インターネット,,
443802,レイモンド元住吉保育園,川崎市中原区木月住吉町２−２４,35.5669394996708,139.65683490404186,ストリートビューでステッカーを確認,,
541394,セブン-イレブン 川崎小杉法政通り店,川崎市中原区今井南町８−４４,35.572506793134345,139.6562274301275,市ホームページ,,
72686,リッチモンドホテルプレミア武蔵小杉  ５Ｆフロント ,川崎市中原区新丸子東３－１１７５－１,35.57460403442383,139.66226196289062,インターネット ,,
240062,坂本歯科医院,川崎市中原区小杉町3-441　伊達ビル3F,35.573936462402344,139.65773010253906,インターネット,,
340496,セレサ川崎農業協同組合 元住吉支店,川崎市中原区木月住吉町５−２７,35.56631650013639,139.65682892429476,ステッカーを目視,,
260938,ＮＥＣ日本電気㈱玉川事業所 くすのき門守衛室,川崎市中原区下沼部１７５３,35.572113037109375,139.666748046875,インターネット,,
526032,株式会社ミカセ,川崎市中原区中丸子267番地3,35.56930429488777,139.6673126687354,ストリートビューでステッカーを確認,,
384640,トヨタレンタカー武蔵小杉駅前,川崎市中原区新丸子東３丁目1178番地,35.575037798851035,139.66276770833593,ホームページ,,
458472,麻生台団地管理事務所,川崎市麻生区下麻生1-6-19,35.58210544970227,139.502292390476,,,
49111,麻生リハビリ総合病院,川崎市麻生区上麻生６－２３ －５０,35.58477783203125,139.49722290039062,インターネット,,
49112,麻生総合病院,川崎市麻生区上麻生６－２５ －１,35.58580780029297,139.49668884277344,インターネット,,
436669,D-Festa 麻生,神奈川県川崎市麻生区上麻生7丁目11番5号,35.58260733783081,139.49721194147625,ストリートビューでステッカーを確認,,
135722,柿生記念病院 Ａ館,川崎市麻生区上麻生6丁目28-20,35.58727264404297,139.49647521972656,インターネット,,
391082,的場歯科医院,川崎市麻生区王禅寺西7-27-26,35.585912199198596,139.506455662343,ホームページ,,
72646,ニチイホーム王禅寺  ２Ｆナースステーション ,川崎市麻生区王禅寺西７－１９－３,35.58818054199219,139.5052490234375,インターネット,,
49110,川崎信用金庫柿生支店,川崎市麻生区上麻生５－４３ －１８,35.58889389038086,139.49755859375,インターネット,,
118634,柿生駅前ファミリー歯科,川崎市麻生区上麻生5-43-5,35.58951950073242,139.49819946289062,ステッカーを目視　/　ホームページ,,
541529,セブン-イレブン 川崎王禅寺東４丁目店,川崎市麻生区王禅寺東４丁目３７−１０,35.58447131233225,139.50747170175225,市ホームページ,,
496253,マルエツ 柿生店,川崎市麻生区上麻生5-41-,35.58894611163694,139.49655820950417,ホームページ,,
449854,ハックドラッグ川崎柿生店,川崎市麻生区上麻生5-41-1,35.58901798657331,139.49662617805896,ホームページ,,
275338,アスク柿生保育園,川崎市麻生区上麻生5-40-4 パームスクウェアー2F・3F,35.5895881652832,139.49708557128906,インターネット,,
49109,柿生内科クリニック,川崎市麻生区上麻生５－３８ －１０　２F,35.59034729003906,139.49855041503906,インターネット,,
265836,柿生交番 庁舎内,神奈川県川崎市麻生区上麻生5-6-5,35.5904426574707,139.49876403808594,神奈川県オープンデータ(2018/10/1時点),,
49114,ニチイホーム柿生,川崎市麻生区下麻生２－３－ １２,35.58189392089844,139.50698852539062,インターネット,,
352718,カーブス 柿生駅前,川崎市麻生区上麻生5-38-7　東和サープラス柿生2F,35.59042969553911,139.49841009308597,ホームページ,,
374411,相鉄ローゼン 柿生店,神奈川県川崎市麻生区上麻生５丁目３９−１２,35.590150377635965,139.49760253573112,ステッカーを目視,,
16299,ＪＡセレサ　川崎柿生支店,川崎市麻生区上麻生5-6-1,35.590614318847656,139.49850463867188,インターネット,,
239011,ハックドラッグ下麻生店,川崎市麻生区下麻生２－１１－７,35.582366943359375,139.50772094726562,ホームページ,,
174379,横浜銀行　柿生支店,神奈川県川崎市麻生区上麻生５−３９−１,35.59004211425781,139.49671936035156,インターネット,,
401648,王禅寺しらゆり保育園,川崎市麻生区王禅寺東５丁目３−５３,35.58313664616827,139.50856502398992,ステッカーを目視,,
252005,柿生ルミナス保育園,川崎市麻生区片平２－３０－１,35.59098434448242,139.49722290039062,インターネット,,
267916,麻生消防署柿生出張所 1階受付,神奈川県川崎市麻生消防署柿生出張所,35.591407775878906,139.49757385253906,神奈川県オープンデータ(2018/10/1時点),,
144963,リーフィアレジデンス麻生片平,川崎市麻生区片平144-1,35.592979431152344,139.49928283691406,インターネット,,
140626,虹が丘リハビリケアセンター,川崎市麻生区王禅寺963-11,35.58326721191406,139.523193359375,インターネット,8：00〜20：00,
38344,東急バス　虹が丘営業所,川崎市麻生区王禅寺963-8,35.58275604248047,139.52301025390625,インターネット,,
49116,たま日吉台病院 正面入口,川崎市麻生区王禅寺１１０５,35.58662033081055,139.5261688232422,インターネット,,
265839,南王禅寺交番 庁舎内,神奈川県川崎市麻生区王禅寺東3-26-8,35.587547302246094,139.51535034179688,神奈川県オープンデータ(2018/10/1時点),,
265496,麻生養護学校 ①事務室②職員室,神奈川県川崎市麻生区王禅寺303-1,35.579952239990234,139.51878356933594,神奈川県オープンデータ(2018/10/1時点),①8:30～21:00②8:30～19:30 (通年休業日)土日祝日,
189401,平和会 ペットメモリアル,川崎市麻生区王禅寺1183,35.587650299072266,139.52674865722656,インターネット,,
174346,横浜銀行　王禅寺中央出張所,神奈川県川崎市麻生区王禅寺東３−２６−３,35.588233947753906,139.5155487060547,インターネット,,
31296,ＦＩＳＨ・ＯＮ！王禅寺　（１Ｆ事務室）,川崎市麻生区王禅寺1227-2,35.590675354003906,139.52296447753906,インターネット,,
401645,なの花薬局　王禅寺店,川崎市麻生区王禅寺東５−１−２,35.585132358443744,139.51197355252128,ステッカーを目視,,
267901,麻生消防署王禅寺出張所 1階受付,神奈川県川崎市麻生消防署王禅寺出張所,35.592472076416016,139.51475524902344,神奈川県オープンデータ(2018/10/1時点),,
116715,日本映画大学 白山校舎 ,川崎市麻生区白山2-1-1,35.591636657714844,139.512451171875,インターネット,,
223752,いなげや＆しまむら,神奈川県川崎市麻生区東百合丘3-5-5,35.59356689453125,139.52723693847656,実物を目視,9:00~22:00,
127645,ジョイリハ アスリエ潮見美しが丘,川崎市宮前区潮見台8-1 潮見台伊東ビル1F,35.59319305419922,139.5292510986328,インターネット,,
189681,アシステッドリビング宮前,川崎市宮前区水沢2-8-60,35.59233474731445,139.54209899902344,インターネット,,
395847,ロピア川崎水沢店,神奈川県川崎市宮前区水沢2-3-8,35.59237822099946,139.54487597399824,,,
331549,ウエインズトヨタ神奈川 宮前水沢店,川崎市宮前区水沢２丁目１１−２,35.59316016514483,139.54187488910407,ホームページ,,
423276,レクサス東名川崎,川崎市宮前区水沢２丁目１１−２,35.59320531517658,139.541597089155,ストリートビューでAEDを確認,,
267973,北部市場 北門守衛室,神奈川県川崎市北部市場,35.591148376464844,139.5481719970703,神奈川県オープンデータ(2018/10/1時点),,
219986,Ｈｏｎｄａ　Ｃａｒｓ　神奈川東　美しが丘店,神奈川県川崎市宮前区水沢３−１１−１,35.59370422363281,139.54151916503906,インターネット,,
144925,丸亀製麺 川崎宮前店,川崎市宮前区水沢3-3-6,35.59307861328125,139.5452117919922,インターネット,,
14182,杉本電機産業株式会社多摩営業所,川崎市宮前区水沢3-1-19,35.592933654785156,139.54652404785156,インターネット,,
174378,横浜銀行　川崎北部市場支店,神奈川県川崎市宮前区水沢１−１−１,35.591190338134766,139.54954528808594,インターネット,,
174522,川崎市中央卸売市場 北部市場 北門守衛室,川崎市宮前区1-1-1,35.59123229980469,139.55010986328125,インターネット,,
72653,障害者支援施設みずさわ  １階事務室,川崎市宮前区水沢３－６－５０,35.59488296508789,139.54238891601562,インターネット,,
144916,森建設株式会社,川崎市宮前区菅生3-35-23,35.594295501708984,139.5467529296875,インターネット,,
251999,（株）ベジテック,川崎市宮前区水沢１－１－１　,35.59148025512695,139.5511474609375,インターネット,,
384463,ツクイたまプラーザ グループホーム,川崎市宮前区犬蔵2-37-15,35.58522744767269,139.56179911364092,ステッカーを目視,,
384464,にじいろ保育園犬蔵,川崎市宮前区犬蔵２丁目２４−１０,35.58617077756964,139.56077490222307,ステッカーを目視,,
49248,老人保健施設レストア川崎　 １階玄関,川崎市宮前区犬蔵２－２５－ ９,35.58621597290039,139.56007385253906,インターネット,,
329491,住宅型有料老人ホーム　グランダたまプラーザ,川崎市宮前区犬蔵２－３４－１５,35.58293427205678,139.56331602898513,インターネット,,
344289,ヒルデモアたまプラーザ,川崎市宮前区犬蔵２丁目３３−１,35.58223734400929,139.56260202101294,ステッカーを目視,,
380399,ホームステーションらいふ たまプラーザ,川崎市宮前区犬蔵2-12-25,35.585059420566964,139.56521994998846,ステッカーを目視,,
380400,ホームステーションらいふ たまプラーザ,川崎市宮前区犬蔵2-12-25,35.585059420566964,139.56521994998846,ステッカーを目視,,
116873,ヒルデモアたまプラーザビレッジⅡ,川崎市宮前区大蔵2-7-34,35.58164978027344,139.5623321533203,インターネット,,
222629,ウエインズトヨタ神奈川 東名川崎店,川崎市宮前区犬蔵3-1-12,35.58846664428711,139.55984497070312,ホームページ,,
49249,ヒルデモアたまプラーザヴィレッジⅢ,川崎市宮前区犬蔵２－３４－７,35.58169937133789,139.5628662109375,インターネット,,
38345,ＰＣ ＤＥＰＯＴ　東名川崎店,川崎市宮前区犬蔵1-14-28,35.58855438232422,139.56202697753906,インターネット,,
222630,ディホームゆりの木宮前 １階建物内,川崎市宮前区犬蔵１－１６－ １０,35.58880615234375,139.55975341796875,インターネット,,
116693,向ヶ丘整形外科,川崎市宮前区犬蔵1-23-7,35.588993072509766,139.5587615966797,インターネット,,
136937,株式会社フェニックス,川崎市宮前区犬蔵1丁目9番1号,35.58782958984375,139.5656280517578,インターネット,,
267971,宮前消防署犬蔵出張所 1階受付,神奈川県川崎市宮前消防署犬蔵出張所,35.589134216308594,139.5640106201172,神奈川県オープンデータ(2018/10/1時点),,
116983,サンクタス鷺沼プライベートヒル,川崎市宮前区鷺沼4-17-8,35.58564376831055,139.5675811767578,インターネット,,
49245,パチンコ吉兆東名川崎店,川崎市宮前区犬蔵１－８－１ ０,35.58827209472656,139.56642150878906,インターネット,,
144917,グランシティたまプラーザⅠ,川崎市宮前区犬蔵3-12-5,35.58811569213867,139.5550994873047,インターネット,,
49247,プレイスポットドラゴ ン １階入口,川崎市宮前区犬蔵３－７－１,35.58941650390625,139.55648803710938,インターネット,,
189427,グラン・ブルー鷺沼,川崎市宮前区鷺沼4-16-3,35.58383560180664,139.56796264648438,インターネット,,
144926,ヴィルヌーブ鷺沼１番館	,川崎市宮前区土橋4-6-4,35.584754943847656,139.56871032714844,インターネット,,
262073,ゆりかご幼稚園,川崎市宮前区犬蔵１－１９－１６,35.59139633178711,139.56112670898438,インターネット,,
352675,イリーゼさぎぬま・新館,川崎市宮前区土橋４丁目８−２,35.585803110908685,139.56896022297101,ステッカーを目視,,
265820,宮前平駅前交番 庁舎内,神奈川県川崎市宮前区宮前平1-11-2,35.585086822509766,139.5812225341797,神奈川県オープンデータ(2018/10/1時点),,
10165,セレサ川崎農業協同組合　宮前平支店,川崎市宮前区土橋1-1-1,35.584922790527344,139.58074951171875,インターネット,,
391012,宮前平歯科林クリニック,川崎市宮前区小台2-6-6 宮前平メディカルモール内,35.58459571191002,139.58102148258075,ホームページ,,
84520,みずほ銀行　宮前平支店,川崎市宮前区宮前平2－15－15,35.58526611328125,139.58157348632812,インターネット,,
520548,エニタイムフィットネス 宮前平駅前店,川崎市宮前区宮崎６丁目９−４,35.585409534129795,139.58146738719435,ホームページ,,
519727,宮前平駅,川崎市宮前区宮前平1-11-1,35.58497331438014,139.58175297931228,ホームページ,,
541477,セブン-イレブン 川崎宮前平駅西店,川崎市宮前区土橋１丁目３−２,35.585155394619335,139.58013702854666,市ホームページ,,
334841,宮前空翠保育園,川崎市宮前区土橋１丁目１−２−３,35.58565904433012,139.58051951993843,ステッカーを目視,,
116014,ジョイリハ 宮前平,川崎市宮前区小台2-7-13 宮前平ガーデンハウス,35.584068298339844,139.58070373535156,インターネット,,
275401,アスク宮前平えきまえ保育園,川崎市宮前区宮前平1-12-5,35.585105895996094,139.58245849609375,インターネット,,
72660,宮前平源泉　湯けむりの庄,川崎市宮前区宮前平２－１３－３,35.586219787597656,139.58157348632812,インターネット,,
541469,セブン-イレブン 川崎小台２丁目店,川崎市宮前区小台２丁目４−４,35.583574474119445,139.58208738118577,市ホームページ,,
275402,城南信用金庫　宮前平支店,川崎市宮前区宮前平1-10-8,35.584476470947266,139.58297729492188,インターネット,,
72661,宮前平内科クリニック  診察室 ,川崎市宮前区宮前平２－１５－２,35.58544921875,139.5830535888672,インターネット,,
520502,FIT PLACE 宮前平店,川崎市宮前区宮前平1-10-7 イーカム宮前平ビル 1・2F,35.58456816173665,139.58313702900858,ホームページ,,
144915,河上医院Ｋ－クリニック,川崎市宮前区宮前平2丁目1-6,35.58549880981445,139.58335876464844,インターネット,,
403828,いなげや川崎宮前平駅前店,川崎市宮前区小台2－2－1,35.58408172943478,139.58338666456712,ホームページ,,
156452,橘学生会館 宮前平,川崎市宮前区小台2-2-4,35.5837287902832,139.5833740234375,インターネット,,
174576,永沢デンタルクリニック	,川崎市宮前区小台2-1-22 イージスヤマダビル1F,35.58366775512695,139.5836639404297,インターネット,,
337136,まなびの森保育園　宮前平,川崎市宮前区土橋2-5-1,35.58485022142802,139.57763784247697,ホームページ,,
240013,セルプ宮前こばと,川崎市宮前区宮前平１−８−１２,35.584442138671875,139.58468627929688,ストリートビューでステッカーを確認,,
275414,川崎市宮前平保育園,川崎市宮前区宮前平2-11-6,35.5881233215332,139.58140563964844,インターネット,,
13722,くらら宮前平　（Ｂ１エントランス）,川崎市宮前区小台二丁目2-20-102,35.58285140991211,139.58412170410156,インターネット,,
174995,杉本電機産業㈱ 宮前営業所,川崎市宮前区馬絹2421-7,35.58362579345703,139.58482360839844,インターネット,,
130820,平安会館みやまえだいら,川崎市宮前区土橋1-4-12,35.586151123046875,139.57688903808594,インターネット,,
136856,ベストライフ宮前,川崎市宮前区土橋1-8-4,35.587955474853516,139.5784912109375,インターネット,,
441824,Ｈｏｎｄａ　Ｃａｒｓ　神奈川中　宮前平店,神奈川県川崎市宮前区土橋２−１１−１,35.5859320032592,139.57642740344752,ホームページ,,
441825,Ｈｏｎｄａ　Ｃａｒｓ　神奈川中　宮前平店,神奈川県川崎市宮前区土橋２−１１−１,35.5859320032592,139.57642740344752,ホームページ,,
265816,宮前警察署 1階行政事務室,神奈川県川崎市宮前区宮前平2-19-11,35.588645935058594,139.5790252685547,神奈川県オープンデータ(2018/10/1時点),,
144913,極真会館 川崎溝口支部 宮前平道場,川崎市宮前区土橋2-11-13 KS-second1階,35.58597946166992,139.57615661621094,インターネット,,
144929,空手道ＭＡＣ 宮前平道場,川崎市宮前区土橋1-10-14,35.587459564208984,139.57688903808594,インターネット,,
31184,くらら鷺沼,川崎市宮前区小台2-20-12,35.58058547973633,139.5819854736328,ストリートビューでステッカーを確認,,
136961,健栄会 宮前平第2クリニック,川崎市宮前区宮前平2-5-16 ネバーランド3階,35.58903884887695,139.58343505859375,インターネット,,
337142,宮前平もりのこ保育園,川崎市宮前区宮前平2-5-16　ネバーランド2F,35.58905193610504,139.5834831077467,ホームページ,,
337231,エニタイムフィットネス 宮前平店,川崎市宮前区宮前平１丁目６−７ AURA DI SANO 2F,35.583807921243455,139.5865515818449,実物を目視,,
72664,川崎愛児園,川崎市宮前区馬絹１８９９,35.58087921142578,139.583740234375,インターネット,,
252025,木曽路　宮前平店,川崎市宮前区土橋2-12-1,35.58623504638672,139.57540893554688,インターネット,11：00～21：30,
136850,クレストシティ宮崎台,川崎市宮前区馬絹1031-14,35.581268310546875,139.6009521484375,インターネット,,
541461,セブン-イレブン 川崎馬絹東店,川崎市宮前区馬絹５丁目５−８,35.5817312090157,139.5984944218466,市ホームページ,,
72667,㈱末長組本社  入口外壁 ,川崎市高津区梶ヶ谷３－１３－３１,35.58688735961914,139.60540771484375,インターネット,,
239518,マレヴィラージュ梶ヶ谷,川崎市高津区梶ケ谷２丁目１２−２,35.58905792236328,139.60113525390625,インターネット,,
392379,にこにこ歯科・小児歯科,川崎市高津区梶ケ谷３丁目７−５０,35.587813494214615,139.60504435008872,ステッカーを目視,,
79127,かたおか小児科クリニック,川崎市高津区梶ヶ谷3-7-28,35.5883674621582,139.6047821044922,,8:30-18:00,
332272,日産プリンス神奈川 宮前店,川崎市宮前区馬絹６丁目１１,35.58266941044844,139.59614565185927,インターネット,,
49258,ＪＡセレサ川崎本店　１階事務所・４階事務 所,川崎市宮前区宮崎２－１３－ ３８,35.586265563964844,139.59552001953125,インターネット,,
345779,帝都典礼 馬絹会館,川崎市宮前区馬絹４丁目２−２７,35.58140977434975,139.59725004247701,ホームページ,,
275339,アスクかじがや保育園,川崎市高津区梶ヶ谷3-12-6,35.586883544921875,139.60650634765625,インターネット,,
392380,梶ケ谷幼稚園,川崎市高津区梶ケ谷３丁目６−５,35.5890719263126,139.60461167680583,実物を目視,,
490026,ニチイキッズ梶が谷保育園,川崎市高津区梶ヶ谷2丁目7-7,35.58974324185719,139.60312304062458,ホームページ,,
541451,セブン-イレブン 川崎梶ケ谷３丁目店,川崎市高津区梶ケ谷３丁目６−１,35.58944664478744,139.60463631898855,市ホームページ,,
541471,セブン-イレブン 川崎宮崎２丁目店,川崎市宮前区宮崎２丁目１３−４,35.586765912796146,139.5947213031618,市ホームページ,,
72668,天台宗・西福寺  １階集会場 ,川崎市高津区梶ヶ谷５－１１－３,35.58268737792969,139.6084442138672,インターネット,,
451934,前田建設工業株式会社　梶ヶ谷シールド作業所　現場事務所,神奈川県川崎市宮前区梶ヶ谷1390　JR貨物ターミナル構内,35.581181000000015,139.6075206,,平日８時半～１７時半（夏季休暇・年末年始除く）,044-870-4001
156322,東京工業大学梶ヶ谷国際寮,川崎市高津区新作1-22-26,35.587467193603516,139.6085662841797,インターネット,,
274275,三井住友銀行 宮崎台支店,川崎市宮前区宮崎２丁目２−２２,35.58786392211914,139.59356689453125,インターネット,,
541450,セブン-イレブン 川崎梶ヶ谷駅入口店,川崎市高津区末長１丁目４５−５,35.59116104471492,139.6044490606267,市ホームページ,,
239517,梶が谷歯科医院,川崎市高津区末長1-45-28 梶ケ谷ＴＳビル,35.59138107299805,139.60382080078125,インターネット,,
521229,きらぼし銀行 梶ケ谷支店,川崎市高津区末長１丁目４４−１４,35.59108125103635,139.6048110501762,ホームページ,,
539362,宮前生活環境事業所,川崎市宮前区宮崎172,35.59010087,139.5951937,神奈川県川崎市オープンデータ(2025年5月1日時点),日曜日以外 8時00分 16時45分,
482146,日本トリート株式会社,川崎市高津区末長1-52-25,35.5919466717183,139.60187580162324,,平日8:00〜17:00,
45378,セレサ川崎農業協同組合　梶ヶ谷支店,川崎市高津区末長45-1,35.5914192199707,139.60459899902344,インターネット,,
337230,明日葉保育園 宮崎台園,川崎市宮前区馬絹2-2-3,35.58241128593603,139.5925110731655,ステッカーを目視,,
337135,まなびの森保育園　宮崎台,川崎市宮前区宮崎2-3-11　隆祥ビル2階,35.58845709671477,139.59283728295247,ホームページ,,
72666,東急ストアー宮崎台店,川崎市宮前区宮崎２－１０－１４,35.58749008178711,139.59225463867188,インターネット,,
49259,三井住友銀行宮崎台支店　ＡＴＭコーナー,川崎市宮前区宮崎２－１２－１,35.586883544921875,139.59197998046875,インターネット,,
541470,セブンイレブン川崎馬絹西店,川崎市宮前区馬絹６丁目５−３,35.582856987321826,139.59183350104587,市ホームページ,,
274274,ライフ宮崎台店,川崎市宮前区宮崎２丁目３−８,35.588844299316406,139.59268188476562,ホームページ,,
331560,たちばな中央保育園,川崎市高津区千年１３００,35.58447850921698,139.62083591535065,ステッカーを目視,,
275410,アスク武蔵新城保育園,川崎市高津区新作4-19-4,35.58586120605469,139.62167358398438,インターネット,,
174515,新作やはた幼稚園,川崎市高津区新作4-19-10,35.58603286743164,139.6210174560547,インターネット,,
275411,まどか武蔵新城（ベネッセスタイルケア）,川崎市高津区千年９３５,35.58449172973633,139.62281799316406,ステッカーを目視,,
422314,有限会社　丸善興業,川崎市高津区千年1266-2,35.583427714844994,139.6196410500746,ストリートビューでステッカーを確認,,
267743,高津消防署新作出張所 1階受付,神奈川県川崎市高津消防署新作出張所,35.58650588989258,139.61936950683594,神奈川県オープンデータ(2018/10/1時点),,
274264,ライフ高津新作店,川崎市高津区新作５丁目４−４−２８,35.5868034362793,139.62240600585938,ホームページ,,
541435,セブン-イレブン 川崎新作店,川崎市高津区新作４丁目１２−４,35.58656196409273,139.619062872607,市ホームページ,,
15984,片倉病院,川崎市高津区新作4-11-16,35.586795806884766,139.6192626953125,インターネット,,
541427,セブン-イレブン 川崎千年店,川崎市高津区千年８３４,35.58208914025298,139.62176541461946,市ホームページ,,
186782,リハビリデイサービス nagomi武蔵新城店,川崎市高津区千年823番地1,35.58161926269531,139.62307739257812,インターネット,,
372033,ちとせ山ゆり保育園,川崎市高津区千年９７０,35.582558790519045,139.62523350739454,ステッカーを目視,,
372032,神奈川日産 千年店,川崎市高津区千年８２２,35.58102547755732,139.6227650113433,ステッカーを目視,,
239516,川越歯科医院,川崎市高津区末長３－２３－５,35.58863830566406,139.61773681640625,ホームページ,,
76549,末長こぐま保育園,川崎市高津区末長1705,35.589595794677734,139.6195831298828,インターネット,6時～20時？,
32806,JAセレサ　川崎橘支店,川崎市高津区千年793-3,35.580352783203125,139.62362670898438,インターネット,,
49224,KANTOモータースクール溝口校,川崎市高津区末長１２７１－ １,35.5903434753418,139.62191772460938,インターネット,,
517551,にじいろ保育園武蔵新城,川崎市高津区新作５丁目１７−１８,35.58845431648829,139.62691624425435,ストリートビューでステッカーを確認,,
541438,セブン-イレブン 川崎末長東店,川崎市高津区末長４丁目２４−２０,35.589067770535706,139.62630190542072,市ホームページ,,
541434,セブン-イレブン 川崎新城店,川崎市中原区新城１０２２−１,35.587644140501304,139.6277088906833,市ホームページ,,
95651,（株）川崎フロンターレ	,川崎市高津区末長1331-1,35.59107208251953,139.6222686767578,インターネット,,
390885,!!ちーとも園,川崎市中原区新城５丁目８−１３ 1,35.58576569283859,139.62863956311745,ステッカーを目視,,
6470,関東宇部コンクリート工業株式会社　溝の口工場,川崎市高津区末長1425,35.590484619140625,139.62472534179688,インターネット,,
189129,関東電気保安協会 川崎事業所,川崎市高津区千年805,35.58088684082031,139.6269073486328,インターネット,,
541428,セブン-イレブン 川崎千年新町店,川崎市高津区千年新町２８−２,35.58259195003213,139.62829519447808,市ホームページ,,
509277,fureai 武蔵新城店,神奈川県川崎市中原区新城5-8-3　 第Ⅱ望月ビル1F,35.58639734811558,139.6288158436696,ホームページ,,
72670,悠友館,川崎市高津区新作１－１７－３,35.58470153808594,139.61282348632812,小生が設置しました。,月曜以外　９時から１７時,
265821,野川交番 庁舎内,神奈川県川崎市宮前区野川1098-1,35.5905876159668,139.61647033691406,神奈川県オープンデータ(2018/10/1時点),,
265814,末長交番 庁舎内,神奈川県川崎市高津区末長3-1-25,35.5905876159668,139.61647033691406,神奈川県オープンデータ(2018/10/1時点),,
390886,新城あおば歯科,川崎市中原区新城5丁目2-5　Girasole武蔵新城　1階,35.586760808131096,139.62918190897008,ホームページ,,
541429,セブン-イレブン 川崎武蔵新城南店,川崎市中原区新城５丁目６−５,35.585177753050374,139.62946305986648,市ホームページ,,
380692,社会福祉法人くさぶえ福祉会　水星社,川崎市中原区新城5－4－23　花森ビルⅡ　１F,35.586538337046335,139.62933851411844,,平日の8:30～17:00,
134679,川崎第一ホテル武蔵新城,神奈川県川崎市中原区新城5丁目2番3号,35.58718490600586,139.62913513183594,インターネット,,
59088,Curves武蔵新城, 川崎市中原区新城5-1-2 斉藤ビル 2F,35.58686828613281,139.62957763671875,インターネット,,
101592,三菱UFJ銀行　武蔵新城支店,神奈川県川崎市中原区上新城２−１４−１,35.58795166015625,139.62911987304688,ホームページ,,
329479,立正佼成会　川崎教会,川崎市高津区末長４－２２－５,35.59006462707144,139.62739157131307,インターネット,,
156716,中島歯科,川崎市中原区新城3-5-1 中島ビル2F,35.58588790893555,139.62991333007812,インターネット,,
91746,新城形成外科・皮フ科クリニック	,川崎市中原区新城5-1-1 ウイステリアA5F,35.587039947509766,139.629638671875,インターネット,,
351430,ひまわりほいくえん,川崎市中原区上小田中6-45-5,35.58494839172622,139.64219848161468,ストリートビューでステッカーを確認,,
91762,なかたく	,川崎市中原区上小田中6-49-10,35.58586120605469,139.6420135498047,インターネット ,,
541414,セブン-イレブン 川崎神地店,川崎市中原区上小田中６丁目５１−１６,35.58621077847697,139.64118297171294,市ホームページ,,
521239,ケアネット　川崎サービスセンター,川崎市中原区上小田中４丁目１,35.58397548891563,139.64236579313553,ストリートビューでステッカーを確認,,
239817,しらゆり中原保育園,川崎市中原区上小田中6丁目51-7,35.58671188354492,139.64088439941406,インターネット,,
91744,富士通㈱,川崎市中原区上小田中4-1-1,35.583396911621094,139.6399688720703,インターネット,24時間,044-777-1111
407336,エニタイムフィットネス　武蔵中原店,川崎市中原区宮内2-1-7 大和園ビル 2F,35.58712285314287,139.64167368013403,ホームページ,,
267615,ごうじ保育園 1階事務室前,神奈川県川崎市ごうじ保育園,35.58397674560547,139.6435089111328,神奈川県オープンデータ(2018/10/1時点),,
274270,ライフ宮内二丁目店,川崎市中原区宮内２丁目１−１,35.58728790283203,139.64108276367188,ホームページ,,
156763,新極真会 東京城南支部,川崎市中原区宮内2-2-5 1F,35.587581634521484,139.64178466796875,インターネット,,
189118,イニシア武蔵中原レジデンス,川崎市中原区上小田中6丁目23番22,35.5869255065918,139.6387176513672,インターネット,,
541415,セブン-イレブン 川崎宮内４丁目店,川崎市中原区宮内４丁目１０−８,35.585755979909166,139.64418254191426,市ホームページ,,
136301,武蔵小杉マンション管理組合,川崎市中原区宮内2-2-1,35.5876579284668,139.64170837402344,インターネット,,
222631,ウエインズトヨタ神奈川　中原店,川崎市中原区上小田中3-1-5,35.583805084228516,139.63751220703125,ホームページ,,
372994,パークサイド武蔵小杉,川崎市中原区宮内４－７－３,35.58466592378091,139.6451590308376,インターネット,,
91750,川崎信用金庫中原事務センター,川崎市中原区上小田中6-22-16,35.58171463012695,139.6421356201172,インターネット,,
267618,中原消防署小田中出張所 1階受付,神奈川県川崎市中原消防署小田中出張所,35.584049224853516,139.63681030273438,神奈川県オープンデータ(2018/10/1時点),,
155992,ウエルシアビーンズ武蔵中原店,川崎市中原区上小田中4-2-1　ビーンズ店内,35.58145523071289,139.64085388183594,ホームページ,,
174890,ビーンズ武蔵,川崎市中原区上小田中4-2-1,35.58133316040039,139.64108276367188,インターネット,,
441760,つちや内科・循環器内科,川崎市中原区上小田中５丁目２−７,35.581332969689925,139.64042620222418,ホームページ,,
441761,つちや内科・循環器内科,川崎市中原区上小田中５丁目２−７,35.581332969689925,139.64042620222418,ホームページ,,
487892,いなほ歯科クリニック,神奈川県川崎市中原区上小田中6-22-8-3F,35.58135482838606,139.64185483018267,,月火木金9時～18時半、土日9時～17時、水祝利用不可,044-739-1740
265799,武蔵中原駅前交番 庁舎内,神奈川県川崎市中原区上小田中6-22-1,35.58121109008789,139.6424102783203,神奈川県オープンデータ(2018/10/1時点),,
329291,武蔵中原まちいクリニック,川崎市中原区上小田中６－２３－１０　小川ビル１階,35.581254545354234,139.642824236548,インターネット,,
239170,ハックドラッグ武蔵中原店,川崎市中原区上小田中５－２－２,35.5809326171875,139.64102172851562,ホームページ,,
490210,ソラスト大戸保育園 認可保育所,川崎市中原区下小田中一丁目7番23号,35.58144034178634,139.638128044552,ホームページ,,
80913,川崎信用金庫　武蔵中原支店,川崎市中原区上小田中5-1-3,35.580726623535156,139.64144897460938,インターネット,,
156332,ドーミー武蔵新城,川崎市中原区上小田中3-14-5,35.586151123046875,139.63580322265625,インターネット,,
38481,東横INN武蔵中原駅前,川崎市中原区上小田中6-20-8,35.58053207397461,139.6417236328125,インターネット,,
91759,平安会館みやうち	,川崎市中原区宮内2-11-8,35.58939743041992,139.63941955566406,インターネット,,
91745,イニシア武蔵中原,川崎市中原区上小田中2-5-1,35.588993072509766,139.6380615234375,インターネット,,
91743,セレサ川崎農業協同組合 中原支店	,川崎市中原区上小田中5-1-1,35.5803337097168,139.64151000976562,インターネット,,
251960,てつお歯科クリニック,川崎市中原区上小田中６−２０−３　ＴＤＣビル２Ｆ,35.580345153808594,139.6417694091797,インターネット,,
136312,ベストライフ中原,川崎市中原区上小田中5-9-1,35.58261489868164,139.63601684570312,インターネット,,
77849,城南信用金庫　中原支店	,川崎市中原区上小田中6-14-8,35.580589294433594,139.64385986328125,インターネット,,
265797,宮内交番 庁舎内,神奈川県川崎市中原区宮内2-10-11,35.58988571166992,139.6394805908203,神奈川県オープンデータ(2018/10/1時点),,
541412,セブン-イレブン 武蔵中原駅前店,川崎市中原区下小田中２丁目４−１,35.57989772330302,139.64123086806237,市ホームページ,,
274576,オークラ武蔵中原店,川崎市中原区下小田中２丁目１−１６,35.58003616333008,139.64279174804688,インターネット,,
541413,セブン-イレブン 川崎武蔵中原店,川崎市中原区上小田中３丁目２０−３,35.585631840575466,139.634495428367,市ホームページ,,
240070,東急軌道工業株式会社,川崎市中原区丸子通2-421-5,35.583927154541016,139.66368103027344,インターネット,,
39372,カーブス新丸子,川崎市中原区新丸子町690-2　1F,35.582218170166016,139.66139221191406,インターネット,,
72609,宗教法人　むつみ会多摩川支部 ,川崎市中原区新丸子町６９３－２,35.582157135009766,139.6611785888672,インターネット,,
240069,ｂａｂｙ　ｈｏｍｅ,川崎市中原区新丸子町６４８　秋山ビル１Ｆ,35.58207321166992,139.66224670410156,インターネット,,
329341,川崎グリーンプラザホテル,川崎市中原区丸子通１丁目６５３,35.58269946517893,139.66368853573113,インターネット,,
240233,シティハウス多摩川テラス,川崎市中原区丸子通１−６２１−９,35.58281707763672,139.66424560546875,インターネット,,
265807,丸子橋交番 庁舎内,神奈川県川崎市中原区丸子通1-612-6,35.58324432373047,139.66485595703125,神奈川県オープンデータ(2018/10/1時点),,
275345,アスク新丸子保育園 ,川崎市中原区新丸子町718  山上ビル1・2階,35.58138656616211,139.66090393066406,インターネット,,
541390,セブン-イレブン 新丸子店,川崎市中原区丸子通１丁目６３６,35.581934261116736,139.66374185937846,市ホームページ,,
28828,㈱北澤ボクシングジム,川崎市中原区丸子通1-634-1,35.582210540771484,139.66419982910156,インターネット,,
136306,えじり子供クリニック,川崎市中原区新丸子町734-1,35.581172943115234,139.66163635253906,インターネット,,
91765,パークスクエア多摩川グリーンレジデンス,川崎市中原区丸子通1-612-2,35.582496643066406,139.6646728515625,インターネット,,
91760,ジオ新丸子,川崎市中原区丸子通1-610-1,35.58279037475586,139.66510009765625,インターネット,,0448638778
162519,朝日多摩川マンション 1階ホール,神奈川県川崎市中原区丸子通1-636,35.581626892089844,139.66368103027344,実物を目視,,
384256,大山ビル,川崎市中原区丸子通１−６４０−５,35.58138985092689,139.66320525166967,ステッカーを目視,,
156680,有限会社さくら福祉サービス,川崎市中原区小杉町1-360-11,35.58158493041992,139.6583251953125,インターネット,,
209927,山出内科,川崎市中原区新丸子町727-1,35.58095169067383,139.66030883789062,インターネット,,
384879,ウエインズトヨタ神奈川 丸子店,川崎市中原区丸子通１丁目６３４,35.58161851434985,139.66421864492375,ホームページ,,
519873,新丸子駅,川崎市中原区新丸子町766,35.58048029471642,139.66189045594166,ホームページ,,
541391,セブン-イレブン 川崎小杉陣屋町２丁目店,川崎市中原区小杉陣屋町２丁目６−２８,35.58341977964538,139.65567828670652,市ホームページ,,
274573,クスリのナカヤマ新丸子駅前店,川崎市中原区新丸子東１丁目８３２ 新丸子駅前RTビル 1F,35.58020782470703,139.66221618652344,インターネット,,
520500,MoveConditioning 武蔵小杉店,川崎市中原区新丸子東１丁目７９１−３ 朝日サンライズ多摩川マンション 1F,35.58085477065007,139.66428304974445,ホームページ,,
34476,テレサケアホーム新丸子,川崎市中原区上丸子八幡町796-4,35.58100509643555,139.66473388671875,インターネット,,
176135,新丸子東急ストア,神奈川県川崎市中原区新丸子町989-2,35.57991027832031,139.66163635253906,インターネット,,
543497,スターチャイルド≪新丸子ナーサリー≫,"川崎市中原区小杉町２丁目１９７−９ First Place Kosugi, 1階",35.58177720027829,139.65600182039583,ストリートビューでステッカーを確認,,
274577, ヒノマル 新丸子西口スロット館 ,川崎市中原区新丸子町７６９ー３,35.57979965209961,139.6612548828125,インターネット,,
274572,ヒノマル新丸子東口パチンコ館,川崎市中原区新丸子東１丁目８３２,35.57972717285156,139.6620330810547,インターネット,,
330645,アイン武蔵小杉北保育園,川崎市中原区小杉町２丁目３０７−７,35.58124752346512,139.65622041423524,ステッカーを目視,,
91756,株式会社丸子橋ゴルフ練習場,川崎市中原区上丸子八幡町562,35.58213806152344,139.66700744628906,インターネット,,
76196,丸子橋ゴルフ練習場受付,川崎市中原区上丸子八幡町562,35.58256912231445,139.66734313964844,実物を目視,平日、土日朝7時～夕方,
156727,ミキ薬局武蔵小杉店,川崎市中原区小杉町1-510-2 セークレール武蔵小杉101,35.579505920410156,139.65882873535156,インターネット,,
343993,平尾歯科医院,川崎市中原区上丸子八幡町８０５,35.580389266518104,139.66563523608235,インターネット,,
37551,三和エレクトロニクス株式会社,川崎市中原区新丸子東2-977,35.578765869140625,139.66177368164062,インターネット,,
541389,セブン-イレブン 川崎新丸子東２丁目店,川崎市中原区新丸子東２丁目８８４−１,35.57897596196247,139.66361468663828,市ホームページ,,
91741,サンルピナス,川崎市中原区新丸子東2-909-5,35.57854080200195,139.6612548828125,インターネット,,
13405,日本エー・エス・エム　第二エクノロジーセンター,川崎市麻生区栗木2-7-2,35.60574722290039,139.46800231933594,インターネット,,
135719,株式会社 エーイーティー 本社,川崎市麻生区栗木2-7-6,35.60519790649414,139.46910095214844,インターネット,,
127643,株式会社 エーイーティー 研究開発センター,川崎市麻生区栗木2丁目8番22号,35.60653305053711,139.46746826171875,インターネット,,
422320,大村技研株式会社　川崎メカニカルセンター,川崎市麻生区栗木2-6-22,35.60733909935741,139.4677970050426,ストリートビューでステッカーを確認,,
422165,グループホームつなぐ,川崎市麻生区栗木3-6-20,35.604166141356174,139.4712797977024,ストリートビューでステッカーを確認,,
135725,学校法人 桐光学園 小学校棟,川崎市麻生区栗木3-13-1,35.60109329223633,139.4725799560547,インターネット,,
135728,桐光学園 第一守衛室,川崎市麻生区栗木3-12-1,35.60266876220703,139.4725799560547,インターネット,,
135726,桐光学園 事務室	,川崎市麻生区栗木3-12-1,35.602760314941406,139.4732208251953,インターネット,,
49118,キヤノン・アネルバ Ａ棟２階・Ｂ棟４階,川崎市麻生区栗木２－５－１,35.60747146606445,139.46975708007812,インターネット,,
135727,桐光学園 女子棟	,川崎市麻生区栗木3-12-1,35.60276794433594,139.47389221191406,インターネット,,
72643,川崎フロンターレ  事務室 / トレーニングルーム ,川崎市麻生区片平１５１７－１０,35.59891891479492,139.47869873046875,インターネット,,
238883,リストレジデンス栗平,川崎市麻生区白鳥24-17,35.6025276184082,139.4835205078125,インターネット,,
135721,川崎田園都市病院,川崎市麻生区片平1782,35.597373962402344,139.4844512939453,インターネット,,
265394,神奈川県立麻生総合高等学校 ①体育準備室、②職員室,神奈川県川崎市麻生区片平1778,35.595733642578125,139.482666015625,神奈川県オープンデータ(2018/10/1時点),7:30～19:30,
541527,セブンイレブン　川崎片平７丁目店,川崎市麻生区片平7-6-6,35.598668156250575,139.48641557641892,市ホームページ,,
541528,あかとんぼ保育園,川崎市麻生区白鳥１丁目１−１,35.59973358409751,139.48764532542796,ストリートビューでステッカーを確認,,
331505,アイン栗平保育園,川崎市麻生区麻生区栗木台１丁目１−１６,35.60496733624971,139.47724818001006,ステッカーを目視,,
49119,ニチイホーム栗平 	３階集中管理室,川崎市麻生区栗平１－１１－ １,35.60630416870117,139.4796600341797,インターネット,,
541526,セブン-イレブン 小田急マルシェ栗平店,川崎市麻生区栗平２丁目１−６,35.606444882059094,139.48091371153353,市ホームページ,,
391079,前谷歯科,川崎市麻生区栗平2-1-6　小田急マルシェ栗平1F,35.606529230886046,139.4809611050426,ホームページ,,
265838,栗平駅前交番 庁舎内,神奈川県川崎市麻生区栗平2-1-5,35.606788635253906,139.48109436035156,神奈川県オープンデータ(2018/10/1時点),,
72639,白鳥保育園  １Ｆ入口 ,川崎市麻生区白鳥１－１７－２,35.60308074951172,139.48851013183594,インターネット,,
12647,セレサ川崎農業協同組合　栗平支店,川崎市麻生区栗平2-2-12,35.606903076171875,139.48085021972656,インターネット,,
135724,きむら内科クリニック,川崎市麻生区片平5-24-15　ガーデンテラス五月台1F,35.59879684448242,139.4910888671875,インターネット,,
391080,五月台アローラ歯科,川崎市麻生区片平５丁目２４−１５ガーデンテラス五月台１F,35.59893121610087,139.4912853268248,ホームページ,,
267928,麻生消防署栗木出張所 1階受付,神奈川県川崎市麻生消防署栗木出張所,35.60840606689453,139.4791259765625,神奈川県オープンデータ(2018/10/1時点),,
391081,しらかし園,川崎市麻生区片平５丁目２４−１,35.59807121560044,139.4921016449698,ステッカーを目視,,
539649,片平公園,川崎市麻生区片平5丁目27－1,35.59847393,139.4926907,神奈川県川崎市オープンデータ(2025年5月1日時点),- - -,
391077,くぼ歯科医院,川崎市麻生区五力田2-2-1 メイヒルズ1F,35.5994801633291,139.49335019547823,ホームページ,,
116849,プラウディア五月台Ⅱ,川崎市麻生区五力田2-1-1,35.59855270385742,139.49327087402344,インターネット,,
331094,トヨタモビリティ神奈川 新百合ヶ丘店,川崎市麻生区片平１丁目７−１,35.60043546748532,139.50041080689505,ホームページ,,
541530,セブン-イレブン 川崎片平1丁目店,川崎市麻生区片平１丁目７−１０,35.59922870104094,139.5001717915182,市ホームページ,,
391766,天才キッズクラブ楽学館  古沢園,川崎市麻生区古沢8−１,35.60105894653591,139.50020293573107,ステッカーを目視,,
329351,あさのみ保育園,川崎市麻生区上麻生3-22-14,35.60113810081391,139.50240852468596,インターネット,,
36604,株式会社北島工務店　（１Ｆエントランス）,川崎市麻生区上麻生3-20-6,35.60174560546875,139.5013885498047,インターネット,,
384882,ウエインズトヨタ神奈川 新百合ヶ丘西店,川崎市麻生区古沢７０−１,35.602951098550164,139.50113110748933,ホームページ,,
156700,神奈川日産　 百合ヶ丘店,神奈川県川崎市麻生区古沢8,35.602962493896484,139.5018310546875,インターネット,,
392390,平安会館あさお,川崎市麻生区片平1-4-5,35.59705562358948,139.49984286271473,ホームページ,,
260790,新百合ヶ丘パークハウス３番街,川崎市麻生区上麻生3－22－1,35.60267639160156,139.503173828125,インターネット,,
72645,リーブ新百合ヶ丘フットサルクラブ・駐車場  クラブハウス入口 ,川崎市麻生区上麻生３－１－１,35.6010627746582,139.50559997558594,インターネット,,
265834,麻生警察署 1階行政事務室,神奈川県川崎市麻生区古沢86-1,35.60393142700195,139.50192260742188,神奈川県オープンデータ(2018/10/1時点),,
391419,トヨタレンタリース神奈川　新百合ヶ丘店,川崎市麻生区万福寺1-11-1 新百合グリーンビル1階,35.603924825596266,139.50296386042115,ホームページ,,
541531,セブン-イレブン 川崎麻生警察署前店,川崎市麻生区古沢１０９−３,35.604510567131314,139.50187118562084,市ホームページ,,
267865,新百合トウェンティワンホール 事務室,神奈川県川崎市新百合トウェンティワンホール,35.6029052734375,139.50579833984375,神奈川県オープンデータ(2018/10/1時点),,
222626,ウエインズトヨタ神奈川　新百合ケ丘店,川崎市麻生区上麻生1-18-2,35.601680755615234,139.50680541992188,ホームページ,,
391811,つくしんぼ保育園,川崎市麻生区上麻生３丁目３−１１,35.599581920837316,139.50738207174234,ステッカーを目視,,
252006,五月台ルミナス保育園,川崎市麻生区五力田３－１８－３,35.6001091003418,139.494384765625,インターネット,,
489942,スポーツクラブ ルネサンス 五月台24,川崎市麻生区五力田1丁目20-1,35.59956581739684,139.49434824677616,ホームページ,,
275346,アスク新百合ヶ丘保育園,川崎市麻生区古沢197-6,35.60552978515625,139.5001220703125,インターネット,,
47904,昭和音楽大学　南校舎,川崎市麻生区上麻生1-11-1,35.60095977783203,139.50778198242188,インターネット,,
45392,コナミスポーツクラブ新百合ケ丘　（２Ｆエレベータホール）,川崎市麻生区上麻生1-18-1,35.60215377807617,139.50741577148438,インターネット,,
262015,川崎青葉幼稚園,川崎市麻生区上麻生4-2-2,35.597103118896484,139.5071258544922,インターネット,,
391810,天才キッズクラブ楽遊館　上麻生園,川崎市麻生区上麻生1-10-6 井上ハイツ101,35.599667747436946,139.50826079204532,ステッカーを目視,,
481841,ジブラルタ生命　横浜支社 新百合丘営業所,川崎市麻生区万福寺１－１－１ 新百合ヶ丘シティビルディング６Ｆ,35.60376489159161,139.5066886019495,インターネット,,
49108,いが鍼灸接骨院 処置室,川崎市麻生区上麻生１－１０ －５- 104,35.59983825683594,139.50845336914062,インターネット,,
378920,三井のリハウス　新百合ヶ丘センター,川崎市麻生区万福寺１丁目１－１　新百合ヶ丘シティビルディング１Ｆ,35.603857745012526,139.50675412626066,ホームページ,,
204229,ＳＭＢＣ日興証券 新百合ケ丘支店,神奈川県川崎市麻生区万福寺1-1-1  新百合ヶ丘シティビル2階,35.60393142700195,139.5067596435547,インターネット,,
56193,三井住友銀行　新百合ヶ丘支店,神奈川県川崎市麻生区万福寺1-1-1 ,35.60392379760742,139.50685119628906,インターネット ,,
239171,ハックドラッグ新百合ヶ丘店,川崎市麻生区上麻生１－２０－１　小田急アコルデ２Ｆ,35.603336334228516,139.50747680664062,ホームページ,,
263266,大東建託 川崎西支店,川崎市麻生区万福寺１丁目１－１  新百合ヶ丘シティビルディング６階,35.603965759277344,139.50697326660156,インターネット,,
265841,新百合ヶ丘駅前交番 庁舎内,神奈川県川崎市麻生区上麻生1-21-1,35.60289764404297,139.5081329345703,神奈川県オープンデータ(2018/10/1時点),,
135720,山百合自治会館,川崎市麻生区東百合丘4-36-6 キャッスル百合ヶ丘2F,35.59871292114258,139.52032470703125,インターネット,,
334555,グループホーム・ひかり川崎麻生,川崎市麻生区東百合丘１丁目１４−８,35.6012035560553,139.52624572798788,ステッカーを目視,,
265837,王禅寺交番 庁舎内,神奈川県川崎市麻生区王禅寺西1-46-7,35.597434997558594,139.51565551757812,神奈川県オープンデータ(2018/10/1時点),,
33111,ジャパンケア南生田・小規模多機能型ステーション,川崎市多摩区南生田2-30-3,35.60337448120117,139.5264434814453,インターネット,,
250793,田園調布学園大学 　部室棟 1 階,川崎市麻生区東百合丘３－４ －１,35.59528350830078,139.5247344970703,インターネット,,
156318,ドミトリー百合ケ丘,川崎市麻生区百合丘2-7-7,35.60398864746094,139.5160369873047,インターネット,,
250791,田園調布学園大学 　2 号館１階事務室前,川崎市麻生区東百合丘３－４ －１,35.59512710571289,139.52516174316406,インターネット,,
343976,百合丘めぐみ幼稚園,川崎市麻生区百合丘１丁目１２,35.605326871320045,139.5172199123848,ステッカーを目視,,
250792,田園調布学園大学 　体育館エン トランスホール　,川崎市麻生区東百合丘３－４ －１,35.59528350830078,139.5264434814453,インターネット,,
240053,ゆりが丘ヴィレッジ ,川崎市麻生区高石5-21,35.606689453125,139.522705078125,インターネット,,
28480,生田病院,川崎市多摩区西生田5-24-1,35.60588455200195,139.525390625,インターネット,,
57894,保育園キディ百合丘・川崎,神奈川県川崎市麻生区百合丘1－16サンラフレ百合丘7－201,35.605712890625,139.51576232910156,施設関係者,平日7：00～20：00　土7：00～17：00,
343974,加圧トレーニングスタジオ クレール,川崎市麻生区東百合丘3-13-3 ルクレール108,35.59710262657956,139.52913100648863,インターネット,,
422214,サンラフレ百合ヶ丘団地　７号棟,川崎市麻生区百合丘１−１６−１２,35.6056836533055,139.5155285841411,ストリートビューでステッカーを確認,,
352719,カーブス 麻生百合丘,川崎市麻生区百合丘1-16 　三和百合ヶ丘 B館 2F,35.60596420898236,139.5155546046709,ホームページ,,
449106,スーパー三和 百合ヶ丘店,川崎市麻生区百合丘２丁目３−１,35.6060856931171,139.51501534203553,ストリートビューでステッカーを確認,,
391767,天才キッズクラブ楽学館　百合ヶ丘園,川崎市麻生区百合丘1-16-16,35.606198253395405,139.51519137275903,ステッカーを目視,,
391084,天才キッズクラブ陽だまりの家百合ヶ丘園,川崎市麻生区百合丘１丁目４−１３,35.60755954391191,139.51849763654536,ステッカーを目視,,
135717,川崎医療生活協同組合あさお診療所,川崎市麻生区上麻生2丁目1-10,35.602542877197266,139.5105438232422,インターネット,,
446091,至誠館ゆりがおか保育園,川崎市麻生区百合丘１丁目１８−３,35.60772311135463,139.51549678169434,ストリートビューでステッカーを確認,,
476903,介護予防デイサービス はなまる元気塾,川崎市麻生区東百合丘2-32-7-101	アトランティス百合丘,35.598466818580086,139.53184138258075,ストリートビューでステッカーを確認,,
343975,ベストライフ百合ヶ丘,川崎市多摩区長沢４丁目４１−１９,35.59788579036492,139.5317697568539,ステッカーを目視,,
267878,麻生消防署百合丘出張所 1階受付,神奈川県川崎市麻生消防署百合丘出張所,35.60796356201172,139.51580810546875,神奈川県オープンデータ(2018/10/1時点),,
15504,新ゆり内科,川崎市麻生区王禅寺西4-3-8,35.595272064208984,139.51150512695312,インターネット,,
265835,百合丘交番 庁舎内,神奈川県川崎市麻生区百合丘1-18-1,35.60807800292969,139.51589965820312,神奈川県オープンデータ(2018/10/1時点),,
174431,百合丘勧交会,川崎市麻生区王禅寺西4-1-2,35.59616470336914,139.51080322265625,インターネット,,
146727, たむら歯科 ,川崎市麻生区百合丘1-19-2星ﾋﾞﾙ,35.60791778564453,139.51536560058594,インターネット,,
240052,フィットケアデポ長沢店,川崎市多摩区長沢４−３８−２,35.598384857177734,139.53216552734375,インターネット,,
252007,百合丘ルミナス保育園,川崎市麻生区百合丘１－１９－２　２・３Ｆ,35.607994079589844,139.5153045654297,インターネット,,
543168,天才キッズクラブ楽学館保育園,川崎市麻生区上麻生１丁目３−９ 新百合丘ＫＩビル 2F,35.603134464608736,139.51019788528671,ストリートビューでステッカーを確認,,
375613,百合ヶ丘駅前歯科医院,川崎市麻生区百合丘1-19-5　C`sビル4F,35.60831825849825,139.5156801136409,ステッカーを目視,,
40983,川崎西税務署,川崎市麻生区上麻生1-3-14　川崎西合同庁舎,35.60234832763672,139.5098419189453,インターネット,,
265390,神奈川県立生田高等学校 事務室,神奈川県川崎市多摩区長沢3-17-1,35.59889221191406,139.54087829589844,神奈川県オープンデータ(2018/10/1時点),平日7：00-19：30　土日祝日8：00-19：00 (通年休業日)12/29-1/3,
265831,長沢交番 庁舎内,神奈川県川崎市多摩区長沢3-8-7,35.600852966308594,139.5398406982422,神奈川県オープンデータ(2018/10/1時点),,
35564,セレサ川崎農業協同組合　長沢支店,川崎市多摩区南生田5-14-5,35.60118865966797,139.5399169921875,インターネット,,
541518,セブン-イレブン 川崎東長沢店,川崎市多摩区南生田５丁目２−９,35.60206017055651,139.5415282872386,市ホームページ,,
239163,ハックドラッグ長沢店,川崎市多摩区長沢４－１－３,35.6005744934082,139.5384979248047,ホームページ,,
72651,川崎信用金庫　長沢支店  ロビー ,川崎市多摩区長沢４－２－１２,35.60060119628906,139.5379638671875,インターネット,,
72652,ベンガ・ベンガ長沢店  １階店舗内 ,川崎市多摩区長沢４－２－１,35.600528717041016,139.5376739501953,インターネット,,
95653,夢花工房ぽぱい	,川崎市多摩区南生田4-12-5,35.6009635925293,139.53746032714844,インターネット,,
267980,宮前消防署菅生出張所 1階受付,神奈川県川崎市宮前消防署菅生出張所,35.596343994140625,139.54515075683594,神奈川県オープンデータ(2018/10/1時点),,
541519,セブン-イレブン 川崎長沢４丁目店,川崎市多摩区長沢４丁目２７−４,35.59939881318255,139.53492083062798,市ホームページ,,
541514,セブン-イレブン 川崎長沢２丁目店,川崎市多摩区長沢２丁目１−４,35.602768267626224,139.54630602640546,市ホームページ,,
265391,"神奈川県立百合丘高等学校 ①職員玄関
②体育館入口",神奈川県川崎市多摩区南生田4-2-1,35.60090637207031,139.53456115722656,神奈川県オープンデータ(2018/10/1時点),①②7:00～19:30 (通年休業日)12/29～1/3,
403833,いなげや川崎生田店,川崎市多摩区三田４丁目５５４８−１,35.605876059933735,139.5407988173458,ホームページ,,
72875,加藤歯科医院,川崎市多摩区三田4-5546,35.606170654296875,139.54100036621094,インターネット,,044-922-5100
144920,潮見台浄水場 ２Ｆ管理棟,川崎市宮前区潮見台４－１,35.59682083129883,139.53421020507812,インターネット,,
72657,聖マリアンナ医科大学病院 ,川崎市宮前区菅生２－１６－１,35.60063934326172,139.54884338378906,インターネット,,
144919,神奈川県内広域水道企業団 西長沢浄水場,川崎市宮前区潮見台4-1,35.595401763916016,139.5349578857422,インターネット,,
156139,須田メディカルクリニック,川崎市多摩区南生田4-20-2,35.59899139404297,139.53253173828125,インターネット,,
156377,ライフコミューン生田,川崎市 多摩区三田4-5555-1,35.60702133178711,139.5413055419922,インターネット,,044-931-6090
267846,長沢浄水場 管理棟2階,神奈川県川崎市長沢浄水場,35.60557174682617,139.5465850830078,神奈川県オープンデータ(2018/10/1時点),,
392378,社会福祉法人 生活工房,川崎市多摩区南生田２丁目１６−１４,35.60376855357401,139.53211020778141,ステッカーを目視,,
541212,セブンイレブン川崎菅生2丁目店,〒216-0015 神奈川県川崎市宮前区菅生２丁目４−９,35.597048660520606,139.55036578142227,,24時間年中無休,044-977-7773
553937,Fit Care DEPOT 菅生2丁目店,川崎市宮前区菅生２丁目２３−２７,35.6032268549713,139.55219881446106,ストリートビューでステッカーを確認,,
343725,西三田幼稚園,川崎市多摩区三田３丁目４−３,35.60947013897868,139.54634711057594,ステッカーを目視,,
240011,フィットケアデポ初山店,川崎市宮前区初山１−２１−３１,35.59851837158203,139.56321716308594,インターネット,,
332864,Dr.Drive初山S.S,川崎市宮前区初山2-1-1,35.59868340493451,139.56434361364097,ホームページ,,
553938,FitCareDEPOT 菅生店,川崎市宮前区菅生５丁目１−２２,35.596078107921834,139.55983368122054,ストリートビューでステッカーを確認,,
49262,初山幼稚園　事務所,川崎市宮前区初山１－２－１,35.60153579711914,139.56600952148438,インターネット,,
541211,セブンイレブン川崎菅生1丁目店,〒216-0015 神奈川県川崎市宮前区菅生１丁目８−２５,35.599022974130975,139.5548244736003,,24時間年中無休,044-976-8671
72656,JAセレサ川崎菅生支店  １階事務室 ,川崎市宮前区菅生１－２－２２,35.59598159790039,139.55548095703125,インターネット,,
510031,ジョイリハ平向ヶ丘,川崎市宮前区平3-10-1,35.60191325636701,139.56864436817256,ストリートビューでステッカーを確認,,
265818,蔵敷交番 庁舎内,神奈川県川崎市宮前区菅生4-1-2,35.59565353393555,139.5549774169922,神奈川県オープンデータ(2018/10/1時点),,
136942,たいら歯科クリニック,川崎市宮前区平3-11-3,35.60239028930664,139.5688018798828,ステッカーを目視,,
422417,川崎西部地域療育センター,川崎市宮前区平２－６－１,35.60140524975711,139.56956765411638,インターネット,,
144923,しらはた,川崎市宮前区白幡台1-8-1,35.59639358520508,139.56854248046875,インターネット,,
246886,そうてつローゼンたいら店,川崎市宮前区平２丁目４−３８,35.6003532409668,139.56983947753906,実物を目視,8:00 ～ 21:45,
401760,南菅生自治会館,川崎市宮前区菅生６丁目３−１５,35.592923652747736,139.56300880934177,ステッカーを目視,,
541472,セブン-イレブン 川崎平３丁目店,川崎市宮前区平３丁目１７−３,35.60425460760851,139.5682814373316,市ホームページ,,
541473,セブンイレブン　川崎菅生５丁目店,川崎市宮前区菅生5-5-2,35.59396179355535,139.5551366159855,市ホームページ,,
136939,コスモ宮前平コートフォルム,川崎市宮前区南平台14-10,35.59516143798828,139.56869506835938,インターネット,,
412573,ヤクルトたいら保育ルーム,川崎市宮前区平2-2-24,35.599222945769945,139.5717324782816,ストリートビューでステッカーを確認,,
62443,専修大学　生田キャンパス　1号館1階114教室前,川崎市多摩区東三田2-1-1,35.60786056518555,139.55502319335938,大学ホームページ,,
189079,カーサ宮前平,川崎市宮前区菅生5-23-35,35.591880798339844,139.55459594726562,インターネット,,
72655,川崎信用金庫向ヶ丘支店  ２階ロビー ,川崎市宮前区南平台２－１０,35.59414291381836,139.57077026367188,インターネット,,
62444,専修大学　生田キャンパス　図書館生田分館1階ロビー,川崎市多摩区東三田2-1-1,35.60844802856445,139.5545654296875,大学ホームページ,,
558323,専修大学　生田キャンパス　２号館2階入口,川崎市多摩区東三田2-1-1,35.60887947675158,139.55539557696576,大学ホームページ,,
558324,専修大学　生田キャンパス　グリーントップ（食堂棟）,川崎市多摩区東三田2-1-1,35.60921846673277,139.55610453441764,大学ホームページ,,
250378,専修大学　生田キャンパス　3号館1階入口,川崎市多摩区東三田2-1-1,35.60926055908203,139.5558319091797,大学ホームページ,,
62445,専修大学　生田キャンパス　正門守衛室前,川崎市多摩区東三田2-1-1,35.609004974365234,139.55514526367188,大学ホームページ,,
391013,阿部歯科医院,川崎市宮前区神木本町2-1-32,35.60107080000002,139.58238607216472,ホームページ,,
49261,小林外科胃腸科　第一診察室,川崎市宮前区神木本町２－２ －１７,35.60158157348633,139.58253479003906,インターネット,,
144922,ファームランドながお,川崎市宮前区神木本町3-1-19,35.60062026977539,139.58340454101562,インターネット,,
189580,之久会道場,川崎市宮前区神木本町5-13-28,35.59806442260742,139.5799102783203,インターネット,,
189579,之久会道場,川崎市宮前区神木本町5-13-28,35.59806442260742,139.5799102783203,インターネット,,
39843,おおたけファミリークリニック,川崎市宮前区平1-1-4平橋クリニックガーデン2F,35.60015106201172,139.57818603515625,ホームページ,,
391016,ガーデン歯科クリニック,川崎市宮前区平1-1-4　平橋クリニックガーデン2階,35.600070368594274,139.57813145226396,ホームページ,,
265819,神木交番 庁舎内,神奈川県川崎市宮前区神木本町2-3-8,35.6013298034668,139.58335876464844,神奈川県オープンデータ(2018/10/1時点),,
116717,東泉寺,川崎市宮前区平1-7-28,35.601165771484375,139.5780792236328,インターネット,,
425889,長尾けやきの里,川崎市宮前区神木本町２－１５－６,35.60201693156468,139.58314417131305,ストリートビューでステッカーを確認,,
10422,JAセレサ川崎向丘支店,川崎市宮前区平1-1-24,35.59961700439453,139.57618713378906,インターネット,,
541485,セブン-イレブン 川崎神木本町２丁目店,川崎市宮前区神木本町２丁目１２−１７,35.601472989055836,139.5860190552326,市ホームページ,,
409494,てりは保育園みやまえ,川崎市宮前区神木本町２丁目１１−５,35.601435227806135,139.5865414450769,ステッカーを目視,,
384224,グリーンフォレスト神木保育園,川崎市宮前区神木本町２－５－５,35.601217560917256,139.5870304117885,ステッカーを目視,,
267986,宮前消防署向丘出張所 1階受付,神奈川県川崎市宮前消防署向丘出張所,35.5994873046875,139.57461547851562,神奈川県オープンデータ(2018/10/1時点),,
116699,パル調剤薬局,川崎市宮前区平2-11-3,35.59962463378906,139.573974609375,インターネット,,
49137,労働安全衛生総合研究所  管理棟１階,川崎市多摩区長尾６－２１－ １,35.605735778808594,139.57879638671875,インターネット,,
265246,県立東高根森林公園 東高根公園管理事務所,神奈川県川崎市宮前区神木本町2-10-1,35.604732513427734,139.5869598388672,神奈川県オープンデータ(2018/10/1時点),08：15～17：00,
144914,宮前平グリーンハイツ管理組合,川崎市宮前区けやき平1-16-110,35.593910217285156,139.57681274414062,インターネット,,
348084,愛の家グループホーム 宮前宮崎,神奈川県川崎市宮前区宮崎4-1-5,35.59350176896619,139.58545098235817,ホームページ,,
156374,ドーミー宮崎台,川崎市宮前区宮崎667-1,35.59560012817383,139.58843994140625,インターネット,,
240198,しまナーシングホーム高津,川崎市高津区上作延８１３−１,35.59814453125,139.59080505371094,インターネット,,
45407,長尾会館　（１Ｆ）,川崎市多摩区長尾7-20-3,35.60808181762695,139.58265686035156,インターネット,,
34249,セレサ川崎農業協同組合　上作延支店,川崎市高津区上作延259-4,35.60059356689453,139.59115600585938,インターネット,,
223538, 東京料金所,川崎市宮前区南平台1-1,35.59500503540039,139.57266235351562,インターネット,,
263264,大東建託 川崎支店,川崎市高津区上作延２６０,35.60056686401367,139.5914764404297,インターネット,,
541479,セブン-イレブン 川崎宮崎北店,川崎市宮前区宮崎６６２−５,35.59485673128849,139.5895550861433,市ホームページ,,
436666,ココファン川崎上作延 日,川崎市高津区上作延2−4−１５,35.59977143447556,139.59166850820822,ストリートビューでステッカーを確認,,
263312,大東建託パートナーズ 川崎営業所,川崎市高津区上作延２８１－２  アイリー・ライフ　１Ｆ,35.60011291503906,139.5918426513672,インターネット,,
541478,セブン-イレブン 川崎宮前店,川崎市宮前区宮崎６丁目８−６,35.59055468354232,139.5813589876227,市ホームページ,,
541449,セブン-イレブン 川崎下作延店,川崎市高津区下作延５丁目５−９,35.60021647321767,139.6006556674465,市ホームページ,,
352717,福増歯科医院,川崎市高津区高津区上作延５３９−９ MKビル,35.59930773352607,139.59932916538003,ステッカーを目視,,
76542,ボンセジュール溝の口	,川崎市高津区下作延5-11-12,35.600589752197266,139.59925842285156,インターネット,,
445995,下作延中央町内会館,川崎市高津区下作延4-28-63,35.59836234142533,139.59993945804382,ストリートビューでステッカーを確認,,
352716,カーブス 川崎津田山,川崎市高津区上作延５３７−１ ロータス 1F,35.59920024278422,139.59892790689503,ホームページ,,
95650,津田山幼稚園	,川崎市高津区下作延4-30-28,35.5983772277832,139.59939575195312,インターネット,,
221508,スマイルデンタルクリニック梶が谷,川崎市高津区下作延4-27-10ﾌｫﾝﾃｶﾐｰﾉ1F,35.5974006652832,139.60035705566406,通院時表示を確認,平日： 9:30～19:00,
384723,ウエインズトヨタ神奈川 溝ノ口店,川崎市高津区下作延４丁目９−７,35.60086754034122,139.60413331522844,ホームページ,,
541447,セブン-イレブン 川崎津田山店,川崎市高津区下作延７丁目２−５,35.60215109014387,139.60371307603168,市ホームページ,,
76552,セレモニア平安会館みぞのくち,川崎市高津区下作延4-1-34,35.601165771484375,139.60452270507812,インターネット,,
390972,三浦歯科医院,川崎市高津区下作延５丁目１７－６,35.60311236712556,139.600183206895,インターネット,,
72603,北浜こどもクニック  診察室 ,川崎市高津区下作延３－３－１０　スルバリエ梶ヶ谷2階,35.59663009643555,139.6005859375,インターネット,,
76541,グリーン歯科クリニック,川崎市高津区下作延3-3-10　スルバリエ梶ヶ谷2F,35.59650421142578,139.60060119628906,ホームページ,,
541448,緑の杜保育園,川崎市高津区下作延２丁目６−３,35.60048272436178,139.60561618696636,ストリートビューでステッカーを確認,,
174520,溝の口スカイハイツ,川崎市高津区下作延2-6-5,35.60012435913086,139.60594177246094,インターネット,,
49223,アルバゴルフクラブ　１Ｆフロント前入口,川崎市高津区下作延２－３２ －１,35.59757995605469,139.60507202148438,インターネット,,
343919,ディーフェスタ溝の口,川崎市高津区上作延５４２−１,35.59802839985485,139.59649421719666,インターネット,,
265815,津田山駅前交番 庁舎内,神奈川県川崎市高津区下作延6-4-4,35.60455322265625,139.6001434326172,神奈川県オープンデータ(2018/10/1時点),,
260939,円福寺,川崎市高津区下作延2051,35.60355758666992,139.60476684570312,インターネット,,
239556,芝信用金庫　溝ノ口支店,川崎市高津区下作延2-4-10,35.60036087036133,139.6070098876953,インターネット,,
372384,ベストライフ溝の口,川崎市高津区上作延496‐1,35.599554399382576,139.5949925053485,ステッカーを目視,,
275353,アスク溝の口保育園 ,川崎市高津区下作延2-7-41-1F,35.59952163696289,139.6070098876953,インターネット,,
76525,上作延町会集会所,川崎市高津区上作延424-5,35.598716735839844,139.5948486328125,インターネット,,
174565,松岡クリニック,川崎市高津区下作延2丁目35-1 スペースアメニティ梶ヶ谷2F,35.59495544433594,139.60406494140625,インターネット,,
76534,あかしあ園	,川崎市高津区上作延938番地1,35.596649169921875,139.59457397460938,インターネット,,
130838,エヴァホール津田山,川崎市高津区下作延6-17-6,35.606285095214844,139.5993194580078,インターネット,,
136424,アルス溝口ヒルトップステージ弐番館,川崎市高津区溝口2-32-2,35.60358428955078,139.6075897216797,インターネット,,
130697,くらしの友　津田山総合斎場,川崎市高津区下作延６丁目１７−１０,35.6065673828125,139.59976196289062,インターネット,,
541452,セブン-イレブン 溝の口店,川崎市高津区久本１丁目２−５,35.59894081813149,139.60908042536593,市ホームページ,,
76555,キャノン株式会社　溝の口研修センター	,川崎市高津区久地1-1-1,35.6044921875,139.60708618164062,インターネット,,
76546,株式会社エヌアセット,川崎市高津区久本1-1-3,35.59941864013672,139.60935974121094,インターネット,,
12837,川崎第一ホテル　溝ノ口店,川崎市高津区溝口2-3-12,35.599700927734375,139.6095733642578,インターネット,,
156345,ドーミー溝の口,川崎市高津区下作延2-21-17,35.59749984741211,139.60902404785156,インターネット,,
329936,住永クリニック,川崎市高津区溝口２丁目６－２６　２F,35.60097635401888,139.60969171141676,インターネット,,
519725,梶が谷駅,川崎市高津区末長1-48-6,35.59374602517369,139.6055386231427,ホームページ,,
85250,高津年金事務所,川崎市高津区久本1-3-2,35.59799575805664,139.60968017578125,インターネット,,
23911,株式会社　昭特製作所,川崎市高津区二子6丁目10-10,35.599273681640625,139.62124633789062,インターネット,,
541441,セブン-イレブン 川崎二子６丁目店,川崎市高津区二子６丁目６−１,35.60072601581547,139.6202434788371,市ホームページ,,
337141,スターチャイルド≪高津ナーサリー≫,川崎市高津区二子６丁目２−３,35.60099574115154,139.62119866362764,ステッカーを目視,,
541443,セブン-イレブン 川崎二子店,川崎市高津区二子６丁目１−７ アメニティ プレイス,35.6011217234704,139.62076415247358,市ホームページ,,
265811,北見方交番 庁舎内,神奈川県川崎市高津区二子6-13-5,35.6005859375,139.62220764160156,神奈川県オープンデータ(2018/10/1時点),,
541442,エニタイムフィットネス 高津店,神奈川県川崎市高津区二子６丁目１−１ 藤和シティコープ高津 2F,35.601220540490246,139.62036389207788,ホームページ,,
156684,高津内科クリニック,川崎市高津区二子3丁目33-20,35.60082244873047,139.62229919433594,インターネット,,
337140,溝の口もりのこ保育園,川崎市高津区坂戸1-8-20,35.59993583317815,139.61891371119418,ホームページ,,
136416,川崎医療生活協同組合坂戸診療所,川崎市高津区坂戸1丁目6-18,35.598915100097656,139.61911010742188,インターネット,,
375262,二子保育園,川崎市高津区二子５丁目１４−５６,35.60128146780809,139.61892423312847,ステッカーを目視,,
136427,ＮＥＣグリーンスイミングクラブ溝の口	,川崎市高津区久本3-7-4,35.598262786865234,139.61917114257812,インターネット,,
267651,川崎市役所健康福祉局庶務課 12階健康福祉局庶務課,神奈川県川崎市川崎市役所健康福祉局庶務課,35.59998321533203,139.62393188476562,神奈川県オープンデータ(2018/10/1時点),,
95647,ミツトヨ計測学院（７号館４階）,川崎市高津区坂戸1‐20‐1,35.59770202636719,139.6201629638672,インターネット,,
95646,株式会社 ミツトヨ	,川崎市高津区坂戸1丁目20-1,35.597537994384766,139.62030029296875,インターネット,,
234037, ラウンドワン 高津店,川崎市高津区二子４丁目8番1号,35.602783203125,139.61949157714844,インターネット,,
189088,パールホテル溝ノ口,川崎市高津区二子5-8-3,35.60142517089844,139.616943359375,インターネット,,
243971,パークシティ溝の口E棟1階,川崎市高津区久本3-6-5,35.59788513183594,139.6169891357422,現地確認,24H,
240160,イッツ・コミュニケーションズ株式会社,川崎市高津区久本３−５−７　新溝ノ口ビル４Ｆ	,35.597007751464844,139.61744689941406,インターネット,,
72605,イトーヨーカドー　溝の口店,川崎市高津区久本３－２０,35.59894561767578,139.6159210205078,従業員が確認し、入力,10-21時,
331314,ＹＭＣＡたかつ保育園,川崎市高津区溝口１丁目１９−１,35.60058914669882,139.61549504012214,ステッカーを目視,,
519724,高津駅,川崎市高津区二子4-1-1,35.60326279131506,139.61693288653748,ホームページ,,
76529,アイヴァ溝の口	,川崎市高津区溝口1-19-11　グランデール溝ノ口2・3F,35.600616455078125,139.61529541015625,インターネット,,
390967,川崎北労働基準監督署,川崎市高津区溝口１丁目２１−９,35.59963131927941,139.61520950964956,ステッカーを目視,,
189089,ドコモショップ溝の口店　（１Fスタッフ用キャビネット）,川崎市高津区溝口3-1-10 MTTビル1F ,35.60125732421875,139.6153564453125,インターネット,,
446155,小規模多機能型居宅介護事業所　梨の花,川崎市高津区北見方１丁目２−１９,35.597716979880836,139.62615223862136,ストリートビューでステッカーを確認,,
176261,東急ストア　高津店,神奈川県川崎市高津区二子5-1-30,35.60271072387695,139.61602783203125,インターネット,,
375263,すこやか諏訪保育園,川崎市高津区諏訪３丁目２０−１５,35.60098726023933,139.6268787671594,ステッカーを目視,,
136425,シティデンタルオフィス,川崎市高津区溝口3-7-1,35.602970123291016,139.61614990234375,ステッカーを目視,,
76545,川崎市坂戸保育園	,川崎市高津区坂戸3-7-21,35.595298767089844,139.62295532226562,インターネット ,,
45395,優ウィメンズクリニック　（受付）,川崎市高津区溝口3-7-1フロントビル4Ｆ,35.603004455566406,139.6160888671875,インターネット,,
265302,川崎図書館 2階事務室,神奈川県川崎市川崎区富士見2-1-4,35.594947814941406,139.6206817626953,神奈川県オープンデータ(2018/10/1時点),"火～金曜日　09:00～19:00
土曜日・日曜日・祝日　09:00～17:00 (通年休業日)月曜日、第2木曜日",
261963,エンゼルデュオテラス溝の口,川崎市高津区久本３－４－７,35.59732437133789,139.61566162109375,インターネット,,
453031,ケイエスピー歯科,川崎市高津区坂戸3-2-1 KSP西棟406,35.59490144677378,139.62085211638333,インターネット,,
520994,優祥会わかば保育園,川崎市高津区坂戸3-8-2,35.59535879099069,139.62376152074364,ストリートビューでステッカーを確認,,
211031,薬 マツモトキヨシ 溝ノ口店,川崎市高津区溝口1-13-18,35.59975814819336,139.6146240234375,2014年5月より順次設置するとの会社発表あり。,,
426764,ライザップ溝の口店(女性専用),川崎市高津区溝口１丁目１３−１３ マルヒロビル３ 1F/2F,35.59999355728117,139.61460970100077,ホームページ,,
174900,くもい歯科クリニック,川崎市高津区諏訪1-15-3,35.60477828979492,139.62353515625,インターネット,,
174439,マックスパチンコ溝の口,川崎市高津区溝口1-7-10,35.59944152832031,139.6145782470703,インターネット,,
261818,東建多摩川マンション,川崎市高津区下野毛1-7-20,35.598731994628906,139.6375274658203,インターネット,,
437203,キヤノン株式会社　玉川事業所　（1Fエントランス）,川崎市高津区下野毛3-16-1,35.59647077487549,139.64056679819652,インターネット,,
156135,上代工業株式会社,川崎市高津区下野毛1-11-23,35.59666442871094,139.63861083984375,インターネット,,
391979,介護老人福祉施設みやうち,川崎市中原区宮内１丁目２５−１,35.59478651540463,139.64140618546864,ステッカーを目視,,
209979,株式会社　旺電舎　下野毛工場,川崎市高津区下野毛2-11-31,35.595619201660156,139.63650512695312,インターネット,,
136426,クノールサービス（株）,川崎市高津区下野毛2-2-19,35.59694290161133,139.63487243652344,インターネット,,
541431,セブン-イレブン 川崎下野毛３丁目店,川崎市高津区下野毛３丁目４−３,35.59451557857248,139.6379949497057,市ホームページ,,
136420,ハートフル川崎病院  2F/ 5F,川崎市高津区下野毛2丁目1-3,35.59675216674805,139.634521484375,インターネット,,
72606,玉川料金所,川崎市高津区北見方2-36-1,35.60042190551758,139.63316345214844,インターネット,,
156673,ハートフル川崎病院 西棟,川崎市高津区下野毛2丁目1-3,35.5965690612793,139.6341094970703,インターネット,,
39820,にかもと歯科医院,川崎市中原区宮内1-8-3　ハウズクリニックビル4Ｆ,35.593658447265625,139.6435089111328,インターネット,,
189025,旭器機サービス㈱玉川第二倉庫,川崎市中原区宮内1-20-36,35.592830657958984,139.6405792236328,インターネット,,
251967,ヴィルクレール二子多摩川		エントランス,川崎市高津区北見方2-26-1,35.601741790771484,139.63204956054688,インターネット,,
76527,日本通運株式会社 川崎北物流センター事業所	,川崎市高津区下野毛2-14-1,35.5936279296875,139.63609313964844,インターネット,,
384725,しらゆり宮内保育園,川崎市中原区宮内１丁目４−５５,35.59355084324606,139.64581640906312,ステッカーを目視,,
76550,小暮歯科医院	,川崎市高津区北見方3-7-1,35.5967903137207,139.63232421875,インターネット,,
541417,セブン-イレブン 川崎西下橋店,川崎市中原区宮内１丁目２２−２,35.59197460842578,139.63867244337882,市ホームページ,,
189071,宮松エスオーシー川崎工場,川崎市中原区宮内1-22-7,35.59201431274414,139.6377410888672,インターネット,,
541416,セブン-イレブン 川崎宮内１丁目店,川崎市中原区宮内１丁目１−１１,35.59171287301338,139.64352197023186,市ホームページ,,
514707,サンドラッグ 川崎宮内店,川崎市中原区宮内２丁目２５−１７,35.59217781630443,139.63564078465876,ホームページ,,
80916,川崎信用金庫　宮内支店,川崎市中原区宮内2-25-10,35.59193801879883,139.63613891601562,インターネット,,
280543,バディスポーツ幼児園はるひ野,川崎市麻生区はるひ野４丁目３−３−２,35.61839294433594,139.46336364746094,ステッカーを目視,,
446030,はるひ野保育園,川崎市麻生区はるひ野２丁目７−１,35.61607957860345,139.46702642298268,インターネット,,
45419,セレサモス 事務所内,川崎市麻生区黒川172,35.6126594543457,139.46646118164062,インターネット,,
29054,ボンセジュールはるひ野　,川崎市麻生区はるひ野4-19-1,35.62052917480469,139.46170043945312,インターネット,,
541525,セブン-イレブン 川崎はるひ野店,川崎市麻生区はるひ野５丁目１−３,35.61927109259919,139.46713156620993,市ホームページ,,
41574,介護老人保健施設　アクアピア新百合　（受付１Ｆエントランス）,川崎市麻生区黒川318番地,35.61234664916992,139.4689483642578,インターネット,,
509995,黒川@歯科（黒川アット歯科）,川崎市麻生区南黒川1-7 「フォレストモール川崎黒川」内,35.612794284954674,139.47025696943192,ホームページ,,
135723,明治大学　黒川農場,川崎市麻生区黒川字明坪2060-1,35.609474182128906,139.45388793945312,ホームページ,,
127654,武蔵エンジニアリング株式会社,川崎市麻生区栗木2-8-8,35.609886169433594,139.47000122070312,インターネット,,
407338,エニタイムフィットネス 若葉台店,川崎市麻生区黒川６０３−１,35.618387913527826,139.471961606895,ホームページ,,
332857,セントラル情報センター,川崎市麻生区南黒川11-3,35.61420354121352,139.47280182548843,企業,土日祝以外9:00~17:30,0449897200
539182,若葉台駅,神奈川県川崎市麻生区黒川609,35.619278,139.4725,東京都稲城市オープンデータ(2025年1月20日時点),月火水木金土日 04:52:00 00:11:00,(044)988-7873
265395,"神奈川県立麻生高等学校 ①職員玄関
②体育館入口",神奈川県川崎市麻生区金程3-4-1,35.611934661865234,139.4978485107422,神奈川県オープンデータ(2018/10/1時点),7:00～19:30 (通年休業日)土・日・祝日,
116995,㈱しんゆり 千代ヶ丘事業所,川崎市麻生区千代ヶ丘8-5-2,35.61750411987305,139.50538635253906,インターネット,,
344237,グループホーム　みんなの家・川崎新百合ヶ丘,川崎市麻生区千代ヶ丘5-7-12,35.614615566535875,139.506900724686,インターネット,,
344764,セントケアホーム新百合ケ丘,川崎市麻生区金程１丁目３８−２０,35.610266254742186,139.5026106450729,ステッカーを目視,,
16939,セレサ川崎農業協同組合　千代ヶ丘支店,川崎市麻生区千代ヶ丘8-2-1,35.61787796020508,139.5063934326172,インターネット,,
49102,ニチイホーム新百合ヶ丘,川崎市麻生区千代ヶ丘８－１－６,35.61796569824219,139.50665283203125,インターネット,,
189532,嶋崎内科医院,川崎市麻生区千代ヶ丘8-1-1 2F,35.617897033691406,139.50738525390625,インターネット,,
156317,ドーミー新百合ケ丘,川崎市麻生区金程1-34-1,35.60795593261719,139.49942016601562,インターネット,,
156320,百合ヶ丘寮	,川崎市麻生区千代ケ丘2-1236-5,35.61248779296875,139.51072692871094,インターネット,,
344597,小学館アカデミー　新ゆり山手保育園,川崎市麻生区万福寺４－１９　プライムアリーナ新百合ヶ丘１Ｆ,35.60768368582163,139.50584848984752,インターネット,,
127658,プライムアリーナ新百合ヶ丘,川崎市麻生区万福寺4-19-1,35.60746383666992,139.50628662109375,インターネット,,
541533,天才キッズクラブ楽学館万福寺園,川崎市麻生区万福寺４丁目９−１,35.60774913003306,139.50755885647465,ストリートビューでステッカーを確認,,
541532,セブン-イレブン 川崎万福寺３丁目店,川崎市麻生区万福寺３丁目７−１,35.6073282547913,139.50755966719078,市ホームページ,,
331121,セントケアホームゆりがおか,川崎市麻生区高石2-20-15,35.61305429175082,139.51308389020892,,,
391078,新百合山手ファースト歯科,川崎市麻生区万福寺3-1-1 ハレアカラ1階,35.60569028793923,139.50649535586726,ホームページ,,
189462,セレサ川崎農業協同組合新百合ヶ丘支店 ,川崎市麻生区万福寺1-14-1,35.60539627075195,139.50650024414062,インターネット,,
261957,のぐち歯科,川崎市麻生区細山２－１２－４,35.614959716796875,139.51425170898438,インターネット,,
45399,ティーエスビル,川崎市麻生区万福寺1-14-1,35.605247497558594,139.50672912597656,インターネット,,
72640,NTTソルコ新百合ヶ丘センター  ２Ｆエレベーターホール,川崎市麻生区万福寺１－１４－１,35.60527420043945,139.5068359375,インターネット,,
49103,昭和音楽大学北校舎,川崎市麻生区万福寺１－１６－６,35.60497283935547,139.50718688964844,インターネット,,
49106,イトマンスイミングス クール新百合ヶ丘校,川崎市麻生区万福寺４－２－１,35.607757568359375,139.5115966796875,ホームページ,,
156378,ライフコミューン百合ヶ丘,川崎市 麻生区万福寺4-1-1,35.6082649230957,139.51248168945312,インターネット,,
156329,ドーミー読売ランド前,川崎市麻生区高石4-18-17,35.613059997558594,139.5231170654297,インターネット,,
392827,マジオたんぽぽ保育園 百合ケ丘ルーム,川崎市麻生区高石3-9-1,35.61158563378583,139.51997437620653,ステッカーを目視,,
265840,細山交番 庁舎内,神奈川県川崎市麻生区細山2-8-12,35.61621856689453,139.51600646972656,神奈川県オープンデータ(2018/10/1時点),,
61964,カフェ・ド・シュロ,川崎市多摩区西生田1-20-1,35.61568832397461,139.5261688232422,入口のAEDステッカーを目視,,
135718,第二百合ヶ丘ハイツ,川崎市麻生区高石2-35-4,35.61435317993164,139.5155029296875,インターネット,,
541535,川崎市 百合丘歯科保健センター,川崎市麻生区高石４丁目１５−５,35.61038714858488,139.51982098171646,ストリートビューでステッカーを確認,,
541534,セブン-イレブン 川崎百合丘店,川崎市麻生区百合丘１丁目２４−１１,35.6104531461353,139.51907342207008,市ホームページ,,
240185,百合ケ丘整形外科クリニック,川崎市麻生区百合丘１丁目５−１９　ワイディエム百合丘１Ｆ,35.60988235473633,139.5189208984375,インターネット,,
541524,セブン-イレブン 川崎西生田店,川崎市多摩区西生田３丁目１１−１３,35.613177709316766,139.5273927292119,市ホームページ,,
344598,小学館アカデミー　西いくた保育園,川崎市多摩区西生田３－１３－７,35.61219860806741,139.52705912246188,インターネット,,
49129,川崎信用金庫　読売ラ ンド駅前支店ロビー,川崎市多摩区西生田３－９－ ２６,35.6143798828125,139.5279998779297,インターネット,,
175264,横浜銀行　読売ランド駅前支店 ,神奈川県川崎市多摩区西生田３−９−２９,35.614418029785156,139.52867126464844,インターネット,,
384461,花物語たま西,川崎市多摩区西生田３丁目２５−５,35.61093336787165,139.52760101178853,ステッカーを目視,,
15281,よみうりランド花ハウス,川崎市多摩区菅仙石4-1-4,35.62178421020508,139.5198516845703,インターネット,,
175258,横浜銀行　百合ヶ丘支店,神奈川県川崎市麻生区百合丘１−１,35.608978271484375,139.51698303222656,インターネット,,
265830,読売ランド駅前交番 庁舎内,神奈川県川崎市多摩区西生田2-13-12,35.61484909057617,139.52957153320312,神奈川県オープンデータ(2018/10/1時点),,
146726,セレサ川崎農業協同組合　百合ヶ丘支店,川崎市麻生区百合丘1-1,35.608890533447266,139.51673889160156,インターネット,,
410891,日本女子大学附属中学校・高等学校　体育館,川崎市多摩区西生田1－1－1,35.61969869163093,139.52775425107484,ホームページ,,
335963,ファストジム２４  百合ヶ丘店,川崎市麻生区百合丘1-21 小田急マルシェ百合ヶ丘2階,35.60877611947888,139.51605828153163,実物を目視,,
410890,日本女子大学附属中学校・高等学校　用務員室前,川崎市多摩区西生田1－1－1,35.619038121337184,139.5291048093226,ホームページ,,
49115,川崎信用金庫百合丘支 店 １階出入口付近,川崎市麻生区百合丘１－２０ －１,35.60850143432617,139.51547241210938,インターネット,,
95652,生田スタジオ１階防災センター,川崎市多摩区菅仙谷3-20-1,35.62202835083008,139.5260467529297,インターネット,,
410889,日本女子大学　西生田キャンパス　九十年館A棟１階管理事務室前,川崎市多摩区西生田1－1－1,35.62118421102843,139.52830272566774,ホームページ,,
49130,イトマンスイミングク ラブ多摩校,川崎市多摩区西生田２－１４ －７,35.61470413208008,139.53187561035156,ホームページ,,
72641,よみうりランド遊園地  事務所 ,川崎市多摩区菅仙谷４－１－１,35.62397003173828,139.5175323486328,インターネット,,
16886,ＪＡセレサ川崎 生田支店,川崎市多摩区生田7-8-1,35.61514663696289,139.54119873046875,インターネット,,
541522,セブン-イレブン 川崎生田７丁目店,川崎市多摩区生田７丁目１１−８,35.61548474405314,139.54137158057432,市ホームページ,,
72650,エンタニ歯科  ２階診療室 ,川崎市多摩区栗谷３－１－１,35.61451721191406,139.53982543945312,インターネット,,
407210,エニタイムフィットネス 生田店,川崎市多摩区栗谷３丁目５−５,35.61363857519228,139.5394645592672,ホームページ,,
541523,セブン-イレブン 川崎栗谷３丁目店,川崎市多摩区栗谷３丁目２−３,35.61446974972059,139.53863436206922,市ホームページ,,
378812,三田かしのみ保育園,川崎市多摩区三田１丁目１８−３,35.61309455539578,139.54240807269693,ホームページ,,
378811,三田かしのみ保育園,川崎市多摩区三田１丁目１８−３,35.61309455539578,139.54240807269693,ステッカーを目視,,
49132,生田交通　１階受付内,川崎市多摩区栗谷３－６－３,35.61362838745117,139.53860473632812,インターネット,,
13286,ｱﾛｰｾｷｭﾘﾃｨ,川崎市多摩区西生田2-6-7 2F,35.61503601074219,139.5369415283203,インターネット,,
275335,アスク生田保育園,川崎市多摩区生田8-8-14,35.61600112915039,139.54489135742188,インターネット,,
541521,セブン-イレブン 川崎三田１丁目店,川崎市多摩区三田１丁目１−７,35.61486224088245,139.5451338148444,市ホームページ,,
541520,セブン-イレブン 川崎栗谷店,川崎市多摩区三田４丁目１０−２６,35.61151867109289,139.54068983004603,市ホームページ,,
265829,生田交番 庁舎内,神奈川県川崎市多摩区生田8-7-3,35.61639404296875,139.54530334472656,神奈川県オープンデータ(2018/10/1時点),,
72841,川崎交通産業株式会社,川崎市多摩区西生田2-7-20,35.61473083496094,139.53636169433594,ステッカーを目視,,
267857,多摩消防署栗谷出張所 1階受付,神奈川県川崎市多摩消防署栗谷出張所,35.6138916015625,139.53567504882812,神奈川県オープンデータ(2018/10/1時点),,
25754,オーケー生田店,川崎市三田４?１?１,35.61076736450195,139.54376220703125,インターネット,,044-922-2961
174982,明治大学 馬術部合宿所,川崎市多摩区三田2-5418,35.612091064453125,139.54689025878906,インターネット,,
423303,明治大学　生田キャンパス　地域産学連携研究センター1階　エスカレーター横,川崎市多摩区東三田1-1-1,35.61511558107352,139.54799896921236,ホームページ,,
265392,"神奈川県立生田東高等学校 ①職員玄関
②体育科準備室",神奈川県川崎市多摩区生田4-32-1,35.61872863769531,139.54656982421875,神奈川県オープンデータ(2018/10/1時点),"8:30～17:00 (通年休業日)土曜日
日曜日
祝日",
265220,横浜川崎治水事務所川崎治水センター 事務室受付横,神奈川県川崎市多摩区生田4-25-1,35.620765686035156,139.54295349121094,神奈川県オープンデータ(2018/10/1時点),07:00～22:00,
61669,明治大学　生田キャンパス　登校路守衛所,川崎市多摩区東三田1-1-1,35.61524200439453,139.5484161376953,ホームページ,,
61667,明治大学　生田キャンパス　ファミリーマートロビー(部室センター１階),川崎市多摩区東三田1-1-1,35.61319351196289,139.54815673828125,ホームページ,,
61668,明治大学　生田キャンパス　食堂館スクエア２１,川崎市多摩区東三田1-1-1,35.61253356933594,139.54786682128906,ホームページ,,
423300,明治大学　生田キャンパス　第二校舎５号館２階 正面入口,川崎市多摩区東三田1-1-1,35.6145189458704,139.548895915498,ホームページ,,
61664,明治大学　生田キャンパス　中央校舎,川崎市多摩区東三田1-1-1,35.613067626953125,139.54856872558594,ホームページ,,
49131,三井住友銀行読売ラン ド独身寮 管理室,川崎市多摩区栗谷１－５－１,35.613277435302734,139.53326416015625,インターネット,,
61663,明治大学　生田キャンパス　中央校舎,川崎市多摩区東三田1-1-1,35.61260223388672,139.54879760742188,ホームページ,,
61666,明治大学生田キャンパス　第一校舎2号館,川崎市多摩区東三田1-1-1,35.611839294433594,139.54844665527344,ホームページ,,
49126,桐光学園寺尾みどり幼稚園 １階事務所,川崎市多摩区寺尾台１－１７,35.620121002197266,139.53541564941406,インターネット,,
254671,明治大学　生田キャンパス　第2校舎D館（1F）　エントランスホール,川崎市多摩区東三田1-1-1,35.61448287963867,139.54965209960938,ホームページ,,
423299,明治大学　生田キャンパス　  第二校舎４号館１階 トイレ前,川崎市多摩区東三田1-1-1,35.61414841182424,139.54969017843837,ホームページ,,
61665,明治大学　生田キャンパス　第二校舎Ａ館,川崎市多摩区東三田1-1-1,35.61326217651367,139.54969787597656,ホームページ,,
61670,明治大学　生田キャンパス　生田図書館,川崎市多摩区東三田1-1-1,35.612449645996094,139.54942321777344,ホームページ,,
391063,ＴＯＳＨＩデンタルクリニック,川崎市多摩区東生田１丁目５−１１,35.61567980976061,139.56297564147624,ホームページ,,
541498,セブン-イレブン 川崎枡形６丁目店,川崎市多摩区枡形６丁目８−７,35.615384287475344,139.55884965397217,市ホームページ,,
49134,朝日フィットネスクラ ブ ビッグ・エス向ヶ丘　２階入口,川崎市多摩区登戸１９９８－ １,35.616363525390625,139.56300354003906,ステッカーを目視,,
250380,ベンガ・ベンガ枡形店 １階店舗内,川崎市多摩区枡形３－４－３２,35.6168098449707,139.55946350097656,インターネット,,
407333,エニタイムフィットネス　向ヶ丘遊園店,川崎市多摩区登戸 2027トゥッティ向ヶ丘遊園 2F,35.617166630948454,139.56326999240244,ホームページ,,
265825,向ヶ丘遊園駅前交番 庁舎内,神奈川県川崎市多摩区登戸2737,35.61664581298828,139.56394958496094,神奈川県オープンデータ(2018/10/1時点),,
273128,大和証券　向ヶ丘遊園営業所,川崎市多摩区登戸2043番地　小田急マルシェ向ヶ丘2 3階,35.61678695678711,139.5640869140625,ホームページ,,
250379,専修大学 生田研修館,川崎市多摩区東生田１丁目１２−９,35.61368179321289,139.56451416015625,インターネット,,
541499,セブン-イレブン 川崎向ヶ丘遊園駅西店,川崎市多摩区登戸２０３４−１,35.617209788419004,139.56375671056904,市ホームページ,,
541497,セブンイレブン　小田急向ヶ丘遊園店,川崎市多摩区登戸2043,35.616785480469915,139.56423904658217,市ホームページ,,
274268,ライフ向ヶ丘遊園店,川崎市多摩区登戸2735,35.616214752197266,139.56463623046875,ホームページ,,
265823,多摩警察署 1階行政事務室,神奈川県川崎市多摩区枡形3-1-1,35.61740493774414,139.55836486816406,神奈川県オープンデータ(2018/10/1時点),,
21624,バンバンポラリス　（１Ｆエントランス付近）,川崎市多摩区登戸2710-5,35.61576461791992,139.56521606445312,インターネット,,
352676,カーブス 登戸向ヶ丘,川崎市多摩区登戸2767 サンシャイン向ヶ丘 3F,35.615413345128886,139.56544820883119,ホームページ,,
21629,バンバン向ヶ丘店　（３階景品カウンター）,川崎市多摩区登戸2718-1,35.6164436340332,139.56520080566406,インターネット,,
521230,きらぼし銀行 登戸支店,川崎市多摩区登戸１８７４,35.6182507410399,139.56324806420508,ホームページ,,
174867,横浜銀行　登戸支店,神奈川県川崎市多摩区登戸２０９２,35.61808776855469,139.5638885498047,インターネット,,
250898,ギンザSスタイル,川崎市多摩区登戸2092,35.61796188354492,139.5641632080078,インターネット,,
391059,ひまわり歯科 向ヶ丘遊園,川崎市多摩区登戸2061-1 向ヶ丘パーク・ホームズ ステーションフロント102,35.61662645113272,139.56549526946065,ホームページ,,
541500,セブン-イレブン 川崎多摩区役所前,川崎市多摩区登戸１８８８,35.618821660306985,139.56251806279673,市ホームページ,,
263313,大東建託リーシング　川崎多摩店,川崎市多摩区登戸２６９８  クレール向ヶ丘　２Ｆ－Ａ,35.61577224731445,139.5658416748047,インターネット,,
174868,小田急線　向ヶ丘遊園駅 北口改札内正面,川崎市多摩区登戸２０９８,35.61758804321289,139.56480407714844,インターネット,,
84518,みずほ銀行　向ヶ丘支店 ,川崎市多摩区登戸2779－6,35.61539077758789,139.56602478027344,インターネット,,
558329,専修大学　生田キャンパス　第３体育寮１階入口,川崎市多摩区東三田2-1-1,35.61536509669114,139.55593494131446,大学ホームページ,,
331307,うぃず向ヶ丘遊園保育園,川崎市多摩区東生田１丁目１１−１２,35.61370544644122,139.5658411394246,ステッカーを目視,,
7002,クスリのナカヤマ薬局　多摩区役所前店,川崎市多摩区登戸1802,35.6190185546875,139.56239318847656,インターネット,,
186780,リハビリデイサービス nagomi向ヶ丘店 ,川崎市多摩区枡形4-1-13,35.616722106933594,139.5560760498047,インターネット,,
373062,藤和向ヶ丘遊園コープ,川崎市多摩区登戸２６８０－１,35.61589039630119,139.56684403291263,ステッカーを目視,,
558330,専修大学 国際交流会館　２階事務室前,川崎市多摩区枡形６丁目２２−１９,35.612529070672586,139.5558534154077,大学ホームページ,,
176358,向ヶ丘遊園東急ストア,神奈川県川崎市多摩区登戸2130-2 アトラスタワー向ヶ丘遊園,35.618289947509766,139.56561279296875,インターネット,,
72838,たまこどもクリニック	,川崎市多摩区登戸2948-6,35.61659240722656,139.56686401367188,インターネット,,
426441,A-1 EXPRESS 向ヶ丘遊園店,川崎市多摩区登戸1763 ライフガーデン向ヶ丘2Ｂ2-2号室,35.62001721981975,139.56072728318836,ホームページ,24時間,
135754,川崎新田ボクシングジム,川崎市多摩区登戸2929,35.61577224731445,139.5673370361328,インターネット,,
332152,日産プリンス神奈川　多摩登戸店,川崎市多摩区登戸１７６６,35.62021303389909,139.56127617205652,インターネット,,
72638,川崎信用金庫　宿河原支店  ロビー ,川崎市多摩区宿河原３－４－３,35.61528015136719,139.5792999267578,インターネット,,
541492,セブンイレブン 川崎宿河原４丁目店,川崎市多摩区宿河原４丁目１９−２３,35.616591177854076,139.58094536498655,市ホームページ,,
39471,小田嶋歯科医院,川崎市多摩区宿河原3-3-7伊東ﾋﾞﾙ2F,35.61520004272461,139.5789794921875,インターネット,,
38988,保育園アリス宿河原,川崎市多摩区宿河原3-13-9,35.613800048828125,139.57958984375,インターネット,,
265828,宿河原交番 庁舎内,神奈川県川崎市多摩区宿河原3-13-14,35.614044189453125,139.57882690429688,神奈川県オープンデータ(2018/10/1時点),,
15035,セレサ川崎農業協同組合　宿河原支店,川崎市多摩区宿河原3-10-1,35.61424255371094,139.57864379882812,インターネット,,
72833,養心館剣道道場	,川崎市多摩区宿河原4-13-25,35.617122650146484,139.57994079589844,インターネット,,
156499,本橋内科クリニック,川崎市多摩区宿河原3丁目1-6,35.61588668823242,139.57818603515625,インターネット,,
72637,宿河原町会  １階事務室,川崎市多摩区宿河原３－１２－１１,35.613651275634766,139.57839965820312,インターネット,,
267819,多摩消防署宿河原出張所 1階受付,神奈川県川崎市多摩消防署宿河原出張所,35.61425018310547,139.5777130126953,神奈川県オープンデータ(2018/10/1時点),,
541491,セブン-イレブン 川崎宿河原３丁目店,川崎市多摩区宿河原３丁目１０−１９,35.6149254753895,139.57701191921765,市ホームページ,,
72832,かえでファミリークリニック	,川崎市多摩区長尾5-2-2-101,35.611637115478516,139.58175659179688,インターネット,,
156324,株式会社フジタ宿河原寮,川崎市多摩区宿河原6-19-15,35.612056732177734,139.58348083496094,インターネット,,
72835,玉幼稚園	,川崎市多摩区宿河原5-19-1,35.61530303955078,139.58554077148438,インターネット ,,
384746,株式会社 研空社,川崎市多摩区宿河原7-16-11,35.617394652732465,139.57731390897,ステッカーを目視,,
72834,とんでん 宿河原店	,川崎市多摩区宿河原6丁目19-13,35.611907958984375,139.58384704589844,インターネット ,,
265388,"神奈川県立多摩高等学校 ①西棟正面玄関
②西棟保健室
③東棟中央入口　",神奈川県川崎市多摩区宿河原5-14-1,35.61713790893555,139.58506774902344,神奈川県オープンデータ(2018/10/1時点),7:00～19:30 (通年休業日)12/29～1/3,
72836,ヴィラージュ川崎	,川崎市多摩区宿河原1丁目18-1,35.617916107177734,139.57769775390625,インターネット ,,
331308,うぃず宿河原保育園,川崎市多摩区長尾４丁目１−２,35.61197246115991,139.57658467624128,ステッカーを目視,,
275344,アスク宿河原保育園 ,川崎市多摩区宿河原2-5-1,35.61652755737305,139.5755157470703,インターネット,,
541488,特別養護老人ホーム しゅくがわら三清荘,川崎市多摩区宿河原６丁目２０−１９,35.611281777935766,139.5851717611727,ストリートビューでステッカーを確認,,
541487,セブン-イレブン 川崎宿河原店,川崎市多摩区宿河原６丁目１８−２,35.61179185468095,139.58598384068608,市ホームページ,,
373093,アクエージュ多摩川,川崎市多摩区宿河原7-1-10,35.616906350376674,139.58715161905934,ステッカーを目視,,
331023,トヨタモビリティ神奈川 登戸宿河原店,川崎市多摩区宿河原６丁目１８−５,35.61174483682816,139.58623890259582,ホームページ,,
15478,ヴィンテージ･ヴィラ向ケ丘遊園,川崎市多摩区長尾4-3-3,35.610660552978516,139.57687377929688,インターネット,,
239129,ハックドラッグ宿河原店,川崎市多摩区宿河原７－１６－５,35.614437103271484,139.588134765625,ホームページ,,
343926,株式会社　電子応用,川崎市多摩区長尾３−２−１,35.60984265820837,139.5776520203869,インターネット,,
337124,宿河原もりのこ保育園,川崎市多摩区長尾1-11‐6,35.61202292624096,139.57479885841553,ホームページ,,
541489,セブン-イレブン 川崎長尾橋店,川崎市多摩区長尾４丁目３−２５,35.61030486374985,139.57622532745057,市ホームページ,,
262076,ダイアパレス登戸第２,川崎市多摩区宿河原１－６－６,35.61996078491211,139.57640075683594,インターネット,,
156662,トヨタモビリティ神奈川 登戸長尾店,川崎市多摩区長尾1-11-1,35.611995697021484,139.57418823242188,ホームページ,,
49135,武田病院 	１階フロアー,川崎市多摩区登戸３１９３,35.61720275878906,139.57315063476562,インターネット,,
344765,セントケアホーム川崎多摩,川崎市多摩区宿河原２丁目２１−７,35.615270097601936,139.57178110689506,ステッカーを目視,,
156325,ドーミー向ヶ丘遊園,川崎市多摩区宿河原2-21-11,35.614864349365234,139.57174682617188,インターネット,,
395905,エニタイムフィットネス登戸店,川崎市多摩区登戸3135,35.61696075118479,139.57181091718144,ホームページ,,
344766,花物語たま東 グループホーム,川崎市多摩区宿河原２丁目２９−４,35.614527071461,139.5714383084127,ステッカーを目視,,
329922,ファミール登戸,川崎市多摩区宿河原１－１－１７,35.62049372947873,139.5741822560035,インターネット,,
378501,カワサキスイミングクラブ,川崎市高津区宇奈根６０７,35.61499924896226,139.6009411212385,ホームページ,,
541446,セブン-イレブン 川崎宇奈根店,川崎市高津区宇奈根６１８−２,35.61489712889254,139.60143837356182,市ホームページ,,
76524,株式会社 ジャストカーセールス	,川崎市高津区久地777-1,35.61225891113281,139.60098266601562,インターネット,,
239351,株式会社　ニクニ　本社,川崎市高津区久地843-5,35.61235427856445,139.60256958007812,インターネット,,
422319,株式会社ジャストオートリーシング,川崎市高津区久地3-12-22,35.61174161850579,139.60139601178852,ストリートビューでステッカーを確認,,
136419,三栄工業株式会社,川崎市高津区久地853-1,35.61247634887695,139.60369873046875,インターネット,,
265389,"神奈川県立向の岡工業高等学校 ①事務室前（職員玄関内）
②多目的ホール前（生徒昇降口付近）",神奈川県川崎市多摩区堰1-28-1,35.61507797241211,139.5965576171875,神奈川県オープンデータ(2018/10/1時点),"①②とも
平日7時～22時
祝休日8時～18時",
344147,株式会社　カワイ,川崎市高津区宇奈根７８４,35.61361788151684,139.60560379585,インターネット,,
26785,メゾンドール多摩川,川崎市多摩区堰1-22-1,35.61590576171875,139.59600830078125,インターネット,,
526101,グロリア・アーツ株式会社,川崎市高津区宇奈根731-6,35.61256177913651,139.60644419800414,ストリートビューでステッカーを確認,,
327941,養周院,川崎市高津区久地３－１０－３２,35.61078485459356,139.60446746271475,インターネット,,
267767,多摩川緑地パークボール場 管理事務所,神奈川県川崎市多摩川緑地パークボール場,35.61412048339844,139.60731506347656,神奈川県オープンデータ(2018/10/1時点),,
135755,こひばり保育園,川崎市多摩区堰2-6-21,35.613792419433594,139.59437561035156,インターネット,,
408589,光州産業,川崎市高津区宇奈根759-1他,35.6131327839485,139.6076202943658,ストリートビューでステッカーを確認,,
156501,日経東京制作センター 川崎工場,川崎市高津区久地3-16-12,35.60969924926758,139.60362243652344,インターネット,,
446153,株式会社光洲産業　久地工場,川崎市高津区久地594-1ほか,35.61025871858239,139.59705223817784,ストリートビューでAEDを確認,,
422418,マジック・ハンド,川崎市高津区宇奈根,35.61182355727286,139.60692065240283,ストリートビューでステッカーを確認,,
174584,ジェイパーク多摩川アクエア	,川崎市多摩区堰1-18-43,35.614402770996094,139.59388732910156,インターネット,,
239350,株式会社　ニクニ　別館,川崎市高津区久地171-2,35.61152267456055,139.6070556640625,インターネット,,
267769,高津消防署久地出張所 1階受付,神奈川県川崎市高津消防署久地出張所,35.610435485839844,139.59527587890625,神奈川県オープンデータ(2018/10/1時点),,
135751,高橋クリニック,川崎市多摩区堰3-5-14,35.61148452758789,139.59381103515625,インターネット,,
136423,三菱自動車工業株式会社 津田山オートスクエア セミナーハウスＡ館	,川崎市高津区下作延6-32-1,35.60837173461914,139.59799194335938,インターネット,,
541486,セブン-イレブン 川崎堰店,川崎市多摩区堰３丁目５−５,35.61123494920656,139.59333543645607,市ホームページ,,
49136,スーパーナガイ久地店 １階店舗内,川崎市多摩区堰３－６－８,35.611576080322266,139.59300231933594,インターネット,,
28156,セレサ川崎農業協同組合　久地駅前支店,川崎市高津区久地4-24-11,35.61073684692383,139.59335327148438,インターネット,,
391058,きむら歯科クリニック,川崎市多摩区堰3丁目7-1,35.61227387428546,139.59231751264016,ホームページ,,
265832,堰交番 庁舎内,神奈川県川崎市多摩区堰1-16-2,35.61391067504883,139.5915069580078,神奈川県オープンデータ(2018/10/1時点),,
80974,川崎信用金庫　久地支店	,川崎市高津区久地4-24-5,35.6107063293457,139.59275817871094,インターネット,,
136417,川崎医療生活協同組合久地診療所,川崎市高津区久地4丁目19-8,35.608970642089844,139.59384155273438,インターネット,,
267770,くじ老人いこいの家 受付,神奈川県川崎市くじ老人いこいの家,35.610084533691406,139.60955810546875,神奈川県オープンデータ(2018/10/1時点),,
375879,グループホームみんなの家・川崎久地２,川崎市高津区久地２丁目１２−２３,35.61106208362928,139.61040825352208,ホームページ,,
375867,グループホームみんなの家・川崎久地,川崎市高津区久地２丁目１２−２２,35.610896393351595,139.61043428235814,ホームページ,,
246894,ファミリア・キッズ二子新地駅前園,神奈川県川崎市高津区二子1-2-25,35.60821533203125,139.62185668945312,,7:00〜19:00,
10630,くらら稲田堤　（１Ｆ事務室）,川崎市多摩区菅仙谷1-2-12,35.630672454833984,139.5280303955078,インターネット,,
210341,コンフォール,川崎市多摩区菅仙谷２−９−１,35.62766647338867,139.52821350097656,インターネット,,
391061,ながやま歯科,川崎市多摩区 菅仙谷4-1-5 よみうりランドクリニックモール１Ｆ,35.62438579374967,139.5164801375835,ホームページ,,
344221,よみうりランドクリニックモール,川崎市多摩区菅仙谷４－１－５,35.62443375904726,139.51638898235814,インターネット,,
416891,リンガーハット 川崎稲田堤店,川崎市多摩区菅3-12-1,35.63684154068908,139.5251606737598,ホームページ,,
407216,天宿愛児園,川崎市多摩区菅３丁目１−７,35.63403967402578,139.52980247813866,ステッカーを目視,,
407215,エニタイムフィットネス　京王稲田堤店,川崎市多摩区菅3-1-1　KTプラザ2F,35.633820989913715,139.53017101364094,ホームページ,,
541512,セブン-イレブン 京王稲田堤駅前店,川崎市多摩区菅２丁目１０−２３,35.63311422280058,139.53075211959407,市ホームページ,,
541560,JOYFIT24ジムLITE 京王稲田堤,川崎市多摩区菅２丁目１０−２６ フェニックスフラット・エムビル 1Ｆ,35.63323085289881,139.53099798416636,ホームページ,,
541537,セブン-イレブン 川崎菅６丁目店,川崎市多摩区菅６丁目５−７,35.63860637105751,139.5236994458377,市ホームページ,,
72635,クスリのナカヤマ薬局　京王稲田堤駅前店,川崎市多摩区菅4-3,35.6341667175293,139.53085327148438,インターネット,,
343866,ヤガサキ歯科医院,川崎市多摩区菅４丁目３−３２ ベルヴィル ２階,35.634218059176746,139.53089913287792,ホームページ,,
135752,社会福祉法人徳心会 菅の里,川崎市多摩区菅北浦3-10-20,35.63151931762695,139.53233337402344,インターネット,,
265393,"神奈川県立菅高等学校 ①職員玄関
②体育館",神奈川県川崎市多摩区菅馬場4-2-1,35.62272262573242,139.52838134765625,神奈川県オープンデータ(2018/10/1時点),"①②
7:30～19:30 (通年休業日)①②とも
土・日・祝日",
384881,ウエインズトヨタ神奈川 多摩店,川崎市多摩区菅馬場２丁目３−１８,35.6278628220588,139.54052286516148,ホームページ,,
331309,うぃず稲田堤保育園,川崎市多摩区菅馬場２丁目５−９,35.62782144889342,139.5392731228336,ステッカーを目視,,
156129,丸亀製麺 川崎多摩店,川崎市多摩区菅馬場2-4-12,35.62730407714844,139.5410919189453,インターネット,,
344016,介護付有料老人ホーム ニチイホーム登戸,川崎市多摩区菅馬場１丁目２７−１８,35.631228727513815,139.54421706516146,インターネット,,
267790,多摩消防署菅出張所 1階受付,神奈川県川崎市多摩消防署菅出張所,35.627132415771484,139.54202270507812,神奈川県オープンデータ(2018/10/1時点),,
335929,なごみ保育園,川崎市多摩区菅稲田堤３丁目９−２,35.63298424732618,139.54177556745697,ステッカーを目視,,
331310,はるるん保育園,川崎市多摩区菅北浦１丁目３−８,35.6303703007856,139.53694231489544,ステッカーを目視,,
38392,東一電機株式会社,川崎市多摩区菅北浦2-18-8,35.62956619262695,139.53640747070312,インターネット,,
541511,セブン-イレブン 川崎菅１丁目店,川崎市多摩区菅１丁目６−５,35.632751251405885,139.53769518742672,市ホームページ,,
156128,ＮＥＣ稲田堤ハウス,川崎市多摩区菅馬場2-10-1,35.62685012817383,139.5382080078125,インターネット,,
49123,上布田つどいの家 １階事務室,川崎市多摩区布田２９－１０,35.63276290893555,139.54518127441406,インターネット,,
440547,てづか内科・循環器クリニック,川崎市多摩区菅１−５−１２エピドール稲田堤１A,35.6330032576425,139.5364373706606,ストリートビューでステッカーを確認,,
260942,Curves稲田堤,川崎市多摩区菅1-3-2 コトブキビル1F,35.632469177246094,139.5355682373047,インターネット,,
384852,花物語たま北,川崎市多摩区菅稲田堤3-18-1,35.63496966491898,139.54264474165683,ステッカーを目視,,
384853,福寿かわさき多摩,川崎市多摩区菅稲田堤３丁目１７−２０,35.635230555444146,139.542372325266,ステッカーを目視,,
49122,川崎信用金庫　稲田堤支店ロビー,川崎市多摩区菅１－３－２０,35.632667541503906,139.5345458984375,インターネット,,
541503,セブン-イレブン 川崎布田店,川崎市多摩区布田３１−２７,35.634571541806096,139.5459175125148,市ホームページ,,
391055,菅の子愛児園,川崎市多摩区菅稲田堤１丁目３−６,35.63448551918056,139.53593997704945,ステッカーを目視,,
541510,セブン-イレブン 川崎菅馬場店,川崎市多摩区菅馬場２丁目２７−１,35.624885376353255,139.5368502122772,ホームページ,,
541509,セブン-イレブン 川崎中野島１丁目店,川崎市多摩区中野島１丁目１８−３,35.62764095515029,139.54805595251196,市ホームページ,,
11843,バンバンブラッサム　（２Ｆ景品カウンター）,川崎市多摩区中野島1-9-10,35.629295349121094,139.54879760742188,インターネット,,
265827,菅交番 庁舎内,神奈川県川崎市多摩区菅2-5-3,35.63235855102539,139.53367614746094,神奈川県オープンデータ(2018/10/1時点),,
174290,横浜銀行　稲田堤支店 ,神奈川県川崎市多摩区菅稲田堤１−１７−５,35.634124755859375,139.5349884033203,インターネット,,
49125,川崎信用金庫　中野島支店,川崎市多摩区中野島１－９－ ３,35.629478454589844,139.549072265625,インターネット,,
189332,ＧＯＧＯ歯科クリニック,川崎市多摩区中野島3-15-40,35.62907791137695,139.54917907714844,インターネット,,
49121,菅町内会館１階,川崎市多摩区菅２－２－２５,35.633140563964844,139.53369140625,インターネット,,
240055, 新多摩川ハイム,川崎市多摩区中野島6丁目29-7,35.63151931762695,139.54910278320312,インターネット,,
12320,ＪＡセレサ　川崎菅支店,川崎市多摩区菅2-1-5,35.63372802734375,139.5340576171875,インターネット,,
372385,神奈川ダイハツ　多摩店,川崎市多摩区生田１－１１－８,35.62416461978064,139.54526281853444,ステッカーを目視,,
391054,星の子愛児園,川崎市多摩区菅稲田堤１丁目１７−２５,35.634105319450654,139.53429546747768,ステッカーを目視,,
49124,中野島町会 町会事務所内,川崎市多摩区中野島６－２９ －７,35.631317138671875,139.54931640625,インターネット,,
265826,中野島交番 庁舎内,神奈川県川崎市多摩区中野島6-29-11,35.630584716796875,139.5498504638672,神奈川県オープンデータ(2018/10/1時点),,
509744,いなげや川崎中野島店,神奈川県川崎市多摩区生田2-1-1,35.62388756299963,139.54578906297684,,9:00〜21:30,044-932-1681
521351,株式会社　ミズモリ,川崎市多摩区菅稲田堤2－3－8,35.63652019357627,139.5370457349776,ストリートビューでステッカーを確認,,
380458,厚生館愛児園,川崎市多摩区多摩区菅稲田堤１丁目１１−８,35.6358082439897,139.53550537063947,ステッカーを目視,,
407226,らいふ・くつろぎ稲田堤,川崎市多摩区菅稲田堤１丁目１１−５,35.636104713913014,139.53554054136802,ステッカーを目視,,
335927,ファストジム２４　中野島店,川崎市多摩区中野島6-25-40 ルネスガーデン1階,35.63067978569037,139.55029037470717,ステッカーを目視,,
335928,ファストジム２４　中野島店,川崎市多摩区中野島6-25-40 ルネスガーデン1階,35.63067978569037,139.55029037470717,ステッカーを目視,,
541504,セブン-イレブン 川崎中野島東店,川崎市多摩区中野島４丁目７−８,35.630543957438086,139.56047659871854,市ホームページ,,
72602,カリタス学園中・高学校  保健室,川崎市多摩区中野島４－６－１,35.62937545776367,139.55860900878906,インターネット,,
541505,セブン-イレブン 川崎中野島４丁目店,川崎市多摩区中野島４丁目２２−１１,35.62819358724035,139.55982328985502,市ホームページ,,
403831,いなげや川崎登戸店,川崎市多摩区中野島２３２５−１,35.62927482760277,139.56336848310158,ホームページ,,
384255,「結」ケアセンターたまがわ,川崎市多摩区中野島１６５５−１,35.628045873059186,139.56182093573113,ステッカーを目視,,
8244,㈱スリオンテック,川崎市多摩区登戸3819,35.628318786621094,139.56314086914062,インターネット,,
49128,高和電気工業㈱ 	１階入口,川崎市多摩区登戸８３４－１,35.62723159790039,139.5620880126953,インターネット,,
72601,カリタス学園小学校  保健室 ,川崎市多摩区中野島４－６－１,35.62993240356445,139.55694580078125,インターネット,,
156728,ライフコミューン登戸,川崎市多摩区中野島5-12-3,35.631065368652344,139.55712890625,インターネット,,
156321,ドーミー登戸,川崎市多摩区登戸新町97,35.624656677246094,139.5651397705078,インターネット,,
156330,ドーミー登戸２,川崎市多摩区登戸570,35.62619400024414,139.55477905273438,インターネット,,
541506,セブン-イレブン 川崎登戸西店,神奈川県川崎市多摩区登戸１０６８,35.62314553561558,139.56117811675605,市ホームページ,,
282238,グループホームみんなの家・川崎多摩登戸,川崎市多摩区登戸302,35.624794006347656,139.5551300048828,ステッカーを目視,,
240054,フィットケアデポ登戸店,川崎市多摩区登戸５４３−１,35.62565612792969,139.55404663085938,インターネット,,
541508,セブン-イレブン 川崎中野島店,川崎市多摩区中野島６丁目２６−１０,35.630494905768735,139.55204273840437,市ホームページ,,
72636,長念寺,川崎市多摩区登戸1416,35.622779846191406,139.55747985839844,インターネット,,
39842,クスリのナカヤマ薬局　中野島店,川崎市多摩区中野島6-26-1　フジヨシハイム1Ｆ,35.6303596496582,139.55120849609375,インターネット,,
267818,登戸駅周辺自転車等駐車場第5施設 管理室横,神奈川県川崎市登戸駅周辺自転車等駐車場第5施設,35.62343978881836,139.5667724609375,神奈川県オープンデータ(2018/10/1時点),,
72871,ＢＪ中野島	,川崎市多摩区中野島3-14-22,35.62934494018555,139.55072021484375,インターネット,,
541502,なの花薬局 登戸店,川崎市多摩区登戸新町３３７,35.62242610052011,139.5656570329801,ストリートビューでステッカーを確認,,
329484,多摩ファミリークリニック,川崎市多摩区登戸新町３３７　エニービル１Ｆ,35.62241159955492,139.56581793573105,インターネット,,
391065,ファースト歯科クリニック,川崎市多摩区中野島６丁目２４−１８ 1F,35.63189539095435,139.5506388584156,ホームページ,,
490155,スマートフィット100中野島店,川崎市多摩区中野島6-25-15,35.63160859947934,139.55050136601312,ホームページ,,
72840,みんなの家 川崎中野島	,川崎市多摩区中野島2-1-31,35.62550735473633,139.5518341064453,インターネット,,
451927,前田建設工業株式会社　梶ヶ谷シールド作業所,神奈川県川崎市宮前区梶ヶ谷1390　JR貨物ターミナル構内,35.627959699099016,139.6055292,,平日８時半～１７時半（夏季休暇・年末年始除く）,044-870-4001
